name,chainName,city,state,id,latitude,longitude,i
AMC CLASSIC Auburn 14,AMC,Auburn,AL,AANHA, 32.62590, -85.45260,1
AMC Summit 16,AMC,Birmingham,AL,AAHLN, 33.44200, -86.73050,1
AMC CLASSIC Marktplatz 10,AMC,Cullman,AL,AATLB, 34.14880, -86.84011,1
AMC CLASSIC Jubilee Square 12,AMC,Daphne,AL,AAQNJ, 30.65490, -87.90610,1
AMC CLASSIC Decatur 12,AMC,Decatur,AL,AAWYC, 34.57228, -87.01745,1
AMC CLASSIC Dothan 6,AMC,Dothan,AL,AAWKS, 31.25100, -85.43030,1
AMC CLASSIC Dothan Pavillion 12,AMC,Dothan,AL,AAVBT, 31.26880, -85.44610,1
AMC CLASSIC Florence 12,AMC,Florence,AL,AAJZV, 34.84360, -87.64700,1
AMC Patton Creek 15,AMC,Hoover,AL,AASVB, 33.37322, -86.81551,1
AMC Valley Bend 18,AMC,Huntsville,AL,AATZX, 34.67200, -86.54320,1
AMC Mobile 16,AMC,Mobile,AL,AALIQ, 30.67313, -88.22161,1
AMC Festival Plaza 16,AMC,Montgomery,AL,AAWWL, 32.34076, -86.17764,1
AMC Chantilly 13,AMC,Montgomery,AL,AAXHC, 32.36010, -86.13420,1
AMC Tiger 13,AMC,Opelika,AL,AAXGB, 32.61213, -85.39116,1
AMC CLASSIC Wharf 15,AMC,Orange Beach,AL,AATZY, 30.29040, -87.62180,1
AMC CLASSIC Prattville 12,AMC,Prattville,AL,AAOLF, 32.46210, -86.40140,1
AMC DINE-IN Vestavia Hills 10,AMC,Vestavia Hills,AL,AARCA, 33.44720, -86.79360,1
AMC Fiesta Square 16,AMC,Fayetteville,AR,AAEHD, 36.10617, -94.14670,1
AMC Chenal 9,AMC,Little Rock,AR,AAUYB, 34.76838, -92.45998,1
AMC Westgate 20,AMC,Glendale,AZ,AAUFH, 33.53500,-112.26120,1
AMC Arrowhead 14,AMC,Glendale,AZ,AACDF, 33.64200,-112.22520,1
AMC Mesa Grand 14,AMC,Mesa,AZ,AANZT, 33.38441,-111.80540,1
AMC Superstition East 12,AMC,Mesa,AZ,AAYDZ, 33.37980,-111.59850,1
AMC Deer Valley 17,AMC,Phoenix,AZ,AAKOT, 33.66622,-112.12400,1
AMC Ahwatukee 24,AMC,Phoenix,AZ,AACGT, 33.31679,-111.97730,1
AMC Desert Ridge 18,AMC,Phoenix,AZ,AAPGJ, 33.67795,-111.97730,1
AMC DINE-IN Esplanade 14,AMC,Phoenix,AZ,AAECR, 33.50812,-112.02760,1
AMC Arizona Center 24,AMC,Phoenix,AZ,AAECS, 33.45337,-112.06920,1
AMC Surprise Pointe 14,AMC,Surprise,AZ,AAUWE, 33.60730,-112.35910,1
AMC Centerpoint 11,AMC,Tempe,AZ,AAXFN, 33.42260,-111.94000,1
AMC Loews Foothills 15,AMC,Tucson,AZ,AAAYI, 32.34050,-111.01300,1
AMC Anaheim GardenWalk 6  ,AMC,Anaheim,CA,AAYPW, 33.80680,-117.91530,1
AMC Santa Anita 16,AMC,Arcadia,CA,AASXA, 34.13547,-118.04880,1
AMC Bakersfield 6,AMC,Bakersfield,CA,AABGQ, 35.36927,-119.04830,1
AMC Brentwood 14,AMC,Brentwood,CA,AAWWW, 37.94574,-121.74080,1
AMC Burbank Town Center 8,AMC,Burbank,CA,AAAPC, 34.18340,-118.31210,1
AMC Burbank 16,AMC,Burbank,CA,AAQZZ, 34.18150,-118.31240,1
AMC Burbank Town Center 6,AMC,Burbank,CA,AABSU, 34.18471,-118.31510,1
AMC DINE-IN Topanga 12,AMC,Canoga Park,CA,AAYWS, 34.19092,-118.60420,1
AMC Porter Ranch 9,AMC,Chatsworth,CA,AAYSU, 34.27534,-118.57320,1
AMC Otay Ranch 12,AMC,Chula Vista,CA,AAUSD, 32.62767,-116.96540,1
AMC Chula Vista 10,AMC,Chula Vista,CA,AAXIP, 32.62995,-117.08470,1
AMC Puente Hills 20,AMC,City Of Industry,CA,AACWY, 33.99380,-117.93050,1
AMC Covina 17,AMC,Covina,CA,AAECT, 34.10635,-117.90680,1
AMC Bay Street 16,AMC,Emeryville,CA,AAQQA, 37.83339,-122.29200,1
AMC DINE-IN Fullerton 20,AMC,Fullerton,CA,AAAOX, 33.86190,-117.92020,1
AMC The Americana at Brand 18,AMC,Glendale,CA,AAYVL, 34.14200,-118.25920,1
AMC Glendora 12,AMC,Glendora,CA,AAVAR, 34.11399,-117.83790,1
AMC Woodbridge 5,AMC,Irvine,CA,AAPIU, 33.67800,-117.80410,1
AMC La Jolla 12,AMC,La Jolla,CA,AABAM, 32.86506,-117.23300,1
AMC La Mirada 7,AMC,La Mirada,CA,AARAN, 33.89850,-118.00520,1
AMC Marina Pacifica 12,AMC,Long Beach,CA,AAAPG, 33.75953,-118.11160,1
AMC The Grove 14,AMC,Los Angeles,CA,AAQGT, 34.07180,-118.35900,1
AMC Century City 15,AMC,Los Angeles,CA,AAAOZ, 34.05740,-118.41400,1
AMC Manteca 16,AMC,Manteca,CA,AAVAD, 37.78159,-121.22760,1
AMC DINE-IN Marina 6,AMC,Marina Del Rey,CA,AAAXA, 33.98729,-118.44120,1
AMC Marina Marketplace 6,AMC,Marina del Rey,CA,AAXIU, 33.98630,-118.43940,1
AMC DINE-IN Montclair Place 12,AMC,Montclair,CA,AAYUR, 34.08670,-117.69380,1
AMC Montebello 10,AMC,Montebello,CA,AAAPJ, 34.03516,-118.09160,1
AMC Atlantic Times Square 14,AMC,Monterey Park,CA,AAWDZ, 34.06680,-118.13430,1
AMC Plaza Bonita 14,AMC,National City,CA,AAUVU, 32.65352,-117.06680,1
AMC NewPark 12,AMC,Newark,CA,AAXSE, 37.52730,-122.00120,1
AMC Northridge 10,AMC,Northridge,CA,AAJMP, 34.24019,-118.55970,1
AMC Norwalk 20,AMC,Norwalk,CA,AABWO, 33.90717,-118.07060,1
AMC DINE-IN Ontario Mills 30,AMC,Ontario,CA,AACGS, 34.07521,-117.55160,1
AMC Orange 30 (AMC Block 30),AMC,Orange,CA,AAJMR, 33.78284,-117.89230,1
AMC DINE-IN Poway 10,AMC,Poway,CA,AABJG, 32.95620,-117.03730,1
AMC Victoria Gardens 12,AMC,Rancho Cucamonga,CA,AATDN, 34.11286,-117.53010,1
AMC DINE-IN South Bay Galleria 16,AMC,Redondo Beach,CA,AAEDS, 33.87051,-118.35280,1
AMC Tyler Galleria 16,AMC,Riverside,CA,AAUSE, 33.91138,-117.46070,1
AMC Palm Promenade 24,AMC,San Diego,CA,AANJY, 32.58360,-117.03550,1
AMC Fashion Valley 18,AMC,San Diego,CA,AAFXQ, 32.77015,-117.16670,1
AMC UTC 14 ,AMC,San Diego,CA,AAWTZ, 32.87100,-117.21400,1
AMC Mission Valley 20,AMC,San Diego,CA,AABNH, 32.76790,-117.14640,1
AMC Metreon 16,AMC,San Francisco,CA,AANEM, 37.78450,-122.40400,1
AMC Kabuki 8,AMC,San Francisco,CA,AADAS, 37.78520,-122.43170,1
AMC Saratoga 14,AMC,San Jose,CA,AAECU, 37.28995,-121.99190,1
AMC Eastridge 15,AMC,San Jose,CA,AATUL, 37.32586,-121.81260,1
AMC Mercado 20,AMC,Santa Clara,CA,AADYN, 37.38879,-121.98620,1
AMC Santa Monica 7,AMC,Santa Monica,CA,AAAPA, 34.01711,-118.49670,1
AMC Sunnyvale 12,AMC,Sunnyvale,CA,AAYTC, 37.37400,-122.03110,1
AMC Temecula 10,AMC,Temecula,CA,AAWGZ, 33.50350,-117.15160,1
AMC Thousand Oaks 14,AMC,Thousand Oaks,CA,AAVIB, 34.18227,-118.88550,1
AMC Del Amo 18,AMC,Torrance,CA,AAUDE, 33.83128,-118.34750,1
AMC Rolling Hills 20,AMC,Torrance,CA,AAAPI, 33.79316,-118.32870,1
AMC Tustin 14 @ The District,AMC,Tustin,CA,AAUNU, 33.69922,-117.83340,1
Universal Cinema AMC at CityWalk Hollywood,AMC,Universal City,CA,AAAWX, 34.14180,-118.35900,1
AMC Fallbrook 7,AMC,West Hills,CA,AAWXX, 34.19225,-118.62560,1
AMC Arapahoe Crossing 16,AMC,Aurora,CO,AAEWN, 39.59430,-104.80080,1
AMC DINE-IN Southlands 16,AMC,Aurora,CO,AATXU, 39.60668,-104.70900,1
AMC Showplace Brighton 12,AMC,Brighton,CO,AATIQ, 39.98263,-104.82340,1
AMC Flatiron Crossing 14,AMC,Broomfield,CO,AAQBW, 39.92963,-105.13710,1
AMC Castle Rock 12,AMC,Castle Rock,CO,AATTI, 39.40310,-104.87970,1
AMC Chapel Hills 13,AMC,Colorado Springs,CO,AAXEB, 38.94690,-104.79290,1
AMC 9+CO 10,AMC,Denver,CO,AAYUA, 39.72960,-104.94120,1
AMC DINE-IN Cherry Creek 8,AMC,Denver,CO,AAADR, 39.71568,-104.95260,1
AMC Fort Collins 10,AMC,Fort Collins,CO,AAKAG, 40.53780,-105.08240,1
AMC Highlands Ranch 24,AMC,Highlands Ranch,CO,AAECM, 39.56027,-104.99110,1
AMC Bowles Crossing 12,AMC,Littleton,CO,AABAT, 39.60980,-105.09120,1
AMC CLASSIC Twenty Mile 10,AMC,Parker,CO,AAQPS, 39.51937,-104.76850,1
AMC Orchard 12,AMC,Westminster,CO,AAUUN, 39.95804,-104.99370,1
AMC Westminster Promenade 24,AMC,Westminster,CO,AAECN, 39.88969,-105.07230,1
AMC Danbury 16,AMC,Danbury,CT,AABQX, 41.41860, -73.41700,1
AMC CLASSIC Lisbon 12,AMC,Lisbon,CT,AATKG, 41.58490, -71.99360,1
AMC Royale 6,AMC,Norwalk,CT,AAKIM, 41.12750, -73.38420,1
AMC Plainville 20,AMC,Plainville,CT,AAOJM, 41.67720, -72.84340,1
AMC SoNo 8,AMC,South Norwalk,CT,AAMVS, 41.10060, -73.42000,1
AMC Southington 12,AMC,Southington,CT,AACLH, 41.56565, -72.90727,1
AMC Majestic 6,AMC,Stamford,CT,AAJGV, 41.05330, -73.54070,1
AMC Landmark 8,AMC,Stamford,CT,AAJGW, 41.05440, -73.53770,1
AMC Marquis 16,AMC,Trumbull,CT,AAKIG, 41.22600, -73.18130,1
AMC Georgetown 14,AMC,Washington,DC,AAQPV, 38.90260, -77.06140,1
AMC Altamonte Mall 18,AMC,Altamonte Springs,FL,AARAA, 28.66165, -81.38864,1
AMC Aventura 24,AMC,Aventura,FL,AAIRQ, 25.95517, -80.14720,1
AMC Bradenton 20,AMC,Bradenton,FL,AAOXM, 27.44808, -82.53237,1
AMC The Regency 20,AMC,Brandon,FL,AADAX, 27.93880, -82.32285,1
AMC Destin Commons 14,AMC,Destin,FL,AAWWM, 30.39224, -86.42365,1
AMC Fleming Island 12,AMC,Fleming Island,FL,AAVIU, 30.10180, -81.71220,1
AMC DINE-IN Coral Ridge 10,AMC,Fort Lauderdale,FL,AADBD, 26.16916, -80.11488,1
AMC Riverview 14,AMC,Gibsonton,FL,AAYTN, 27.84861, -82.35086,1
AMC Hialeah 12,AMC,Hialeah,FL,AAFPD, 25.86610, -80.29870,1
AMC Regency 24,AMC,Jacksonville,FL,AAMGT, 30.32630, -81.54985,1
AMC DINE-IN Disney Springs™ 24,AMC,Lake Buena Vista,FL,AABNU, 28.37568, -81.51714,1
AMC Lake Square 12,AMC,Leesburg,FL,AACGQ, 28.82511, -81.78451,1
AMC Avenue 16,AMC,Melbourne,FL,AATSN, 28.24248, -80.72575,1
AMC Tamiami 18,AMC,Miami,FL,AAVSC, 25.74630, -80.38770,1
AMC Boulevard 10,AMC,Miramar Beach,FL,AAWYG, 30.37900, -86.31700,1
AMC CLASSIC New Smyrna 12,AMC,New Smyrna,FL,AAXMC, 29.00950, -80.91980,1
AMC Merchants Crossing 16,AMC,North Fort Myers,FL,AACCH, 26.68638, -81.90419,1
AMC West Oaks 14,AMC,Ocoee,FL,AACVW, 28.55172, -81.51753,1
AMC Woodlands Square 20,AMC,Oldsmar,FL,AAOQA, 28.04829, -82.69405,1
AMC Orange Park 24,AMC,Orange Park,FL,AAEGL, 30.18823, -81.71906,1
AMC CLASSIC Palm Harbor 10,AMC,Palm Harbor,FL,AAFPB, 28.11656, -82.74108,1
AMC Pembroke Lakes 9,AMC,Pembroke Pines,FL,AAYFV, 26.01050, -80.30460,1
AMC CLASSIC Pensacola 18,AMC,Pensacola,FL,AAPNB, 30.48130, -87.25850,1
AMC Bayou 15,AMC,Pensacola,FL,AAUOK, 30.47290, -87.21140,1
AMC Pompano Beach 18,AMC,Pompano Beach,FL,AAIVE, 26.25980, -80.10010,1
AMC Port St. Lucie 14,AMC,Port St. Lucie,FL,AAPNC, 27.31496, -80.41165,1
AMC Lakeshore 8,AMC,Sebring,FL,AAJRD, 27.48846, -81.48594,1
AMC Sunset Place 24,AMC,South Miami,FL,AAKUB, 25.70440, -80.28646,1
AMC Sundial 12,AMC,St. Petersburg,FL,AAPCJ, 27.77480, -82.63430,1
AMC Sunrise 8,AMC,Sunrise,FL,AAXJF, 26.17798, -80.26873,1
AMC Weston 8 ,AMC,Sunrise,FL,AAXLZ, 26.10460, -80.36346,1
AMC Tallahassee 20,AMC,Tallahassee,FL,AACMO, 30.47199, -84.29156,1
AMC West Shore 14,AMC,Tampa,FL,AAPCI, 27.94545, -82.52753,1
AMC Highwoods 20,AMC,Tampa,FL,AAODQ, 28.13030, -82.36880,1
AMC Veterans 24,AMC,Tampa,FL,AANJO, 28.03641, -82.54285,1
AMC CLASSIC Indian River 24,AMC,Vero Beach,FL,AACVX, 27.63863, -80.45518,1
AMC West Melbourne 12,AMC,West Melbourne,FL,AAXHS, 28.03620, -80.66250,1
AMC Yulee 10,AMC,Yulee,FL,AAXMB, 30.62350, -81.54520,1
AMC CLASSIC Albany 16,AMC,Albany,GA,AAOGV, 31.62230, -84.20510,1
AMC DINE-IN North Point Mall 12,AMC,Alpharetta,GA,AAXBW, 34.04586, -84.29749,1
AMC Phipps Plaza 14,AMC,Atlanta,GA,AADCF, 33.85027, -84.36183,1
AMC Madison Yards 8,AMC,Atlanta,GA,AAYTA, 33.74650, -84.35790,1
AMC Camp Creek 14,AMC,Atlanta,GA,AAUQW, 33.66087, -84.51449,1
AMC Parkway Pointe 15,AMC,Atlanta,GA,AAKTP, 33.87864, -84.45661,1
AMC Bethlehem 12,AMC,Bethlehem,GA,AAWOU, 33.92720, -83.76000,1
AMC CLASSIC Riverstone 15,AMC,Canton,GA,AALZX, 34.25450, -84.46720,1
AMC CLASSIC Cartersville 12,AMC,Cartersville,GA,AAHJY, 34.17270, -84.83290,1
AMC Ritz 13,AMC,Columbus,GA,AALNY, 32.53901, -84.96850,1
AMC Columbus Park 15,AMC,Columbus,GA,AARDA, 32.54240, -84.92460,1
AMC Conyers Crossing 16,AMC,Conyers,GA,AAPGL, 33.64570, -83.99230,1
AMC Avenue Forsyth 12,AMC,Cumming,GA,AAUUQ, 34.15442, -84.17382,1
AMC CLASSIC Walnut Square 12,AMC,Dalton,GA,AAVGT, 34.76610, -84.92810,1
AMC North Dekalb 16,AMC,Decatur,GA,AADCG, 33.80587, -84.27534,1
AMC CLASSIC Battlefield 10,AMC,Fort Oglethorpe,GA,AAHJZ, 34.94920, -85.24830,1
AMC Hiram 14,AMC,Hiram,GA,AATAQ, 33.86230, -84.77650,1
AMC Barrett Commons 24,AMC,Kennesaw,GA,AANJN, 34.01563, -84.57136,1
AMC CLASSIC LaGrange 10,AMC,LaGrange,GA,AAUJP, 33.03859, -85.03130,1
AMC DINE-IN Webb Gin 11,AMC,Lawrenceville,GA,AAYAL, 33.90377, -84.00423,1
AMC Sugarloaf Mills 18,AMC,Lawrenceville,GA,AAREL, 33.97895, -84.07852,1
AMC Colonial 18,AMC,Lawrenceville,GA,AADCI, 33.96570, -84.02395,1
AMC CLASSIC Milledgeville 6,AMC,Milledgeville,GA,AAHIG, 33.10900, -83.25510,1
AMC Southlake 24,AMC,Morrow,GA,AAEGN, 33.56448, -84.32595,1
AMC CLASSIC Savannah 11,AMC,Savannah,GA,AAJQX, 31.98560, -81.17210,1
AMC Statesboro 12,AMC,Statesboro,GA,AAJRZ, 32.43530, -81.76980,1
AMC Council Bluffs 17,AMC,Council Bluffs,IA,AAQWH, 41.24240, -95.89566,1
AMC CLASSIC Dubuque 14,AMC,Dubuque,IA,AAUIE, 42.51010, -90.75900,1
AMC Southern Hills 12,AMC,Sioux City,IA,AAJRN, 42.44790, -96.34840,1
AMC CLASSIC Pine Ridge 11,AMC,Chubbuck,ID,AATQF, 42.91160,-112.46640,1
AMC University Place 8,AMC,Carbondale,IL,AABWT, 37.73480, -89.18720,1
AMC Champaign 13,AMC,Champaign,IL,AAWZT, 40.14767, -88.25957,1
AMC Ford City 14,AMC,Chicago,IL,AABZF, 41.75483, -87.74163,1
AMC DINE-IN 600 North Michigan 9,AMC,Chicago,IL,AABZU, 41.89260, -87.62450,1
AMC NEWCITY 14,AMC,Chicago,IL,AAXRO, 41.90860, -87.64880,1
AMC River East 21,AMC,Chicago,IL,AAQOW, 41.89105, -87.62008,1
AMC Roosevelt Collection 16,AMC,Chicago,IL,AAVNK, 41.86960, -87.63240,1
AMC Galewood Crossings 14,AMC,Chicago,IL,AAUMP, 41.91559, -87.76473,1
AMC DINE-IN Block 37 ,AMC,Chicago,IL,AAXSJ, 41.88324, -87.63004,1
AMC Chicago Ridge 6,AMC,Chicago Ridge,IL,AAARQ, 41.71560, -87.78440,1
AMC Cicero 14,AMC,Cicero,IL,AAUCG, 41.85110, -87.74390,1
AMC Crestwood 18,AMC,Crestwood,IL,AAAXL, 41.65080, -87.74470,1
AMC Decatur 10,AMC,Decatur,IL,AALQG, 39.81330, -88.87780,1
AMC Market Square 10,AMC,Dekalb,IL,AALQK, 41.94890, -88.72920,1
AMC Edwardsville 12,AMC,Edwardsville,IL,AAILM, 38.78140, -89.95500,1
AMC Evanston 12,AMC,Evanston,IL,AAOZM, 42.04900, -87.68430,1
AMC CLASSIC Galesburg 8,AMC,Galesburg,IL,AARDW, 40.96900, -90.39320,1
AMC Quarry Cinemas 14,AMC,Hodgkins,IL,AAETA, 41.77572, -87.85892,1
AMC Lake In The Hills 12,AMC,Lake In The Hills,IL,AAHVB, 42.18024, -88.33524,1
AMC DINE-IN Yorktown 18,AMC,Lombard,IL,AABZG, 41.83541, -88.01080,1
AMC Machesney Park 14,AMC,Machesney Park,IL,AATIK, 42.37119, -89.00459,1
AMC CLASSIC Illinois Centre 8,AMC,Marion,IL,AAJEM, 37.74965, -88.97585,1
AMC CLASSIC Mattoon 10,AMC,Mattoon,IL,AAJEN, 39.48183, -88.30591,1
AMC CLASSIC Morris 10,AMC,Morris,IL,AALRF, 41.38620, -88.43180,1
AMC Randhurst 12,AMC,Mt Prospect,IL,AAWIS, 42.08576, -87.93132,1
AMC CLASSIC Mount Vernon 8,AMC,Mt. Vernon,IL,AAJEO, 38.32070, -88.90600,1
AMC Naperville 16,AMC,Naperville,IL,AATWV, 41.71295, -88.20885,1
AMC New Lenox 14,AMC,New Lenox,IL,AARMO, 41.50520, -87.96090,1
AMC Niles 12,AMC,Niles,IL,AAUCI, 42.04748, -87.83318,1
AMC CLASSIC Normal 14,AMC,Normal,IL,AAVFG, 40.51590, -88.98020,1
AMC Norridge 6,AMC,Norridge,IL,AAAXU, 41.95755, -87.80783,1
AMC DINE-IN Northbrook Court 14,AMC,Northbrook,IL,AACQS, 42.14967, -87.81680,1
AMC Oakbrook Center 12,AMC,Oak Brook,IL,AAXZC, 41.84764, -87.95218,1
AMC Oakbrook Center 4,AMC,Oak Brook,IL,AAXOI, 41.84770, -87.95550,1
AMC Pekin 14,AMC,Pekin,IL,AAOEK, 40.60250, -89.63100,1
AMC Grand Prairie 18,AMC,Peoria,IL,AATPR, 40.78060, -89.67580,1
AMC Peru Mall 8,AMC,Peru,IL,AALRZ, 41.50410, -89.12720,1
AMC CLASSIC Quincy 6,AMC,Quincy,IL,AAJDJ, 39.93330, -91.36280,1
AMC Rockford 16,AMC,Rockford,IL,AAJDQ, 42.27240, -88.95410,1
AMC DINE-IN Rosemont 12,AMC,Rosemont,IL,AAUPJ, 41.98040, -87.86730,1
AMC Loews Streets Of Woodfield 20,AMC,Schaumburg,IL,AAOGC, 42.03800, -88.03520,1
AMC Village Crossing 18,AMC,Skokie,IL,AAPLI, 42.00840, -87.76170,1
AMC South Barrington 24,AMC,South Barrington,IL,AADQG, 42.07180, -88.14740,1
AMC Springfield 12,AMC,Springfield,IL,AARCD, 39.75940, -89.72440,1
AMC Showplace Springfield 8,AMC,Springfield,IL,AAJDZ, 39.76380, -89.60750,1
AMC CLASSIC Sauk Valley 8,AMC,Sterling,IL,AALSE, 41.84380, -89.65930,1
AMC Hawthorn 12,AMC,Vernon Hills,IL,AAXOA, 42.24408, -87.94933,1
AMC CLASSIC Sunnyland 10,AMC,Washington,IL,AAJGO, 40.69600, -89.47400,1
AMC CLASSIC Bloomington 12,AMC,Bloomington,IN,AAOSS, 39.16440, -86.57070,1
AMC CLASSIC Columbus 12,AMC,Columbus,IN,AAPDE, 39.20220, -85.88540,1
AMC CLASSIC Crawfordsville 8,AMC,Crawfordsville,IN,AANWC, 40.02220, -86.89690,1
AMC Evansville 16,AMC,Evansville,IN,AANFL, 37.97294, -87.64362,1
AMC Jefferson Point 18,AMC,Fort Wayne,IN,AAQMM, 41.07010, -85.19520,1
AMC Washington Square 12,AMC,Indianapolis,IN,AATIJ, 39.77520, -85.98560,1
AMC Castleton Square 14,AMC,Indianapolis,IN,AAUSC, 39.90556, -86.06399,1
AMC Indianapolis 17,AMC,Indianapolis,IN,AANFK, 39.70250, -86.15800,1
AMC Traders Point 12,AMC,Indianapolis,IN,AATAS, 39.91081, -86.26353,1
AMC CLASSIC Kokomo 12,AMC,Kokomo,IN,AATWY, 40.46250, -86.11320,1
AMC CLASSIC Marion 12,AMC,Marion,IN,AAODA, 40.57370, -85.68310,1
AMC CLASSIC Hobart 12,AMC,Merrillville,IN,AATWU, 41.46842, -87.31455,1
AMC CLASSIC Michigan City 14,AMC,Michigan City,IN,AATIL, 41.67610, -86.89380,1
AMC Showplace Muncie 12,AMC,Muncie,IN,AATIM, 40.22446, -85.37530,1
AMC Perry Crossing 18,AMC,Plainfield,IN,AATVG, 39.71101, -86.36058,1
AMC CLASSIC Richmond 11,AMC,Richmond,IN,AAJFD, 39.83100, -84.83642,1
AMC Schererville 16,AMC,Schererville,IN,AAISC, 41.50040, -87.47550,1
AMC Schererville 12,AMC,Schererville,IN,AARMN, 41.49060, -87.46180,1
AMC CLASSIC South Bend 16,AMC,South Bend,IN,AAJFA, 41.62440, -86.24550,1
AMC CLASSIC Terre Haute 12,AMC,Terre Haute,IN,AAOUE, 39.42650, -87.41590,1
AMC CLASSIC Vincennes 8,AMC,Vincennes,IN,AAQZL, 38.67240, -87.51790,1
AMC Legends 14,AMC,Kansas City,KS,AAUOW, 39.12560, -94.82930,1
AMC Town Center 20,AMC,Leawood,KS,AAECO, 38.91640, -94.64890,1
AMC DINE-IN Manhattan 13,AMC,Manhattan,KS,AAYAP, 39.17938, -96.57664,1
AMC DINE-IN Studio 28,AMC,Olathe,KS,AAECQ, 38.90731, -94.77259,1
AMC DINE-IN Prairiefire 17,AMC,Overland Park,KS,AAXGG, 38.88531, -94.65310,1
AMC CLASSIC Pittsburg 8,AMC,Pittsburg,KS,AANHR, 37.38160, -94.70350,1
AMC CLASSIC Salina 10,AMC,Salina,KS,AAJHB, 38.80230, -97.61270,1
AMC Northrock 14,AMC,Wichita,KS,AAJHA, 37.74046, -97.24090,1
AMC Stonybrook 20,AMC,Louisville,KY,AAXBA, 38.21060, -85.59617,1
AMC Newport On The Levee 20,AMC,Newport,KY,AAQBB, 39.09369, -84.49418,1
AMC Baton Rouge 16,AMC,Baton Rouge,LA,AAWWN, 30.44005, -91.01382,1
AMC Mall of Louisiana 15,AMC,Baton Rouge,LA,AAWWO, 30.38582, -91.08423,1
AMC Hammond Palace 10,AMC,Hammond,LA,AAQIS, 30.48149, -90.46690,1
AMC Elmwood Palace 20,AMC,Harahan,LA,AAQIP, 29.96255, -90.18926,1
AMC Westbank Palace 16,AMC,Harvey,LA,AAQIQ, 29.89762, -90.06264,1
AMC Houma Palace 10,AMC,Houma,LA,AAQIT, 29.63853, -90.75958,1
AMC DINE-IN Clearview Palace 12,AMC,Metairie,LA,AAQIR, 30.00472, -90.18279,1
AMC Boston Common 19,AMC,Boston,MA,AAPNV, 42.35350, -71.06430,1
AMC Causeway 13,AMC,Boston,MA,AAYQS, 42.36450, -71.06320,1
AMC Braintree 10,AMC,Braintree,MA,AADSF, 42.21957, -71.03266,1
AMC Burlington Cinema 10,AMC,Burlington,MA,AADSG, 42.48063, -71.21844,1
AMC Loews Liberty Tree Mall 20,AMC,Danvers,MA,AABBK, 42.55090, -70.93710,1
AMC South Bay Center 12,AMC,Dorchester,MA,AAYHQ, 42.32525, -71.06274,1
AMC DINE-IN Framingham 16,AMC,Framingham,MA,AADSI, 42.30117, -71.39127,1
AMC Methuen 20,AMC,Methuen,MA,AAOZE, 42.74240, -71.15580,1
AMC Dartmouth Mall 11,AMC,North Dartmouth,MA,AAEXH, 41.64063, -70.99462,1
AMC Assembly Row 12,AMC,Somerville,MA,AAXFU, 42.39500, -71.07950,1
AMC Tyngsboro 12,AMC,Tyngsboro,MA,AADXS, 42.69669, -71.44358,1
AMC Annapolis Mall 11,AMC,Annapolis,MD,AADTY, 38.98860, -76.54740,1
AMC Security Square 8,AMC,Baltimore,MD,AADVK, 39.30810, -76.75066,1
AMC Loews White Marsh 16,AMC,Baltimore,MD,AAETE, 39.37170, -76.46630,1
AMC Center Park 8,AMC,Beltsville,MD,AABOX, 39.04630, -76.93860,1
AMC Montgomery 16 ,AMC,Bethesda,MD,AAXJH, 39.02440, -77.14700,1
AMC Columbia 14,AMC,Columbia,MD,AAREM, 39.21736, -76.86341,1
AMC DINE-IN Rio Cinemas 18,AMC,Gaithersburg,MD,AABXD, 39.11520, -77.19790,1
AMC Academy 8,AMC,Greenbelt,MD,AAXYW, 39.00000, -76.91000,1
AMC Magic Johnson Capital Center 12,AMC,Largo,MD,AASWP, 38.90070, -76.84700,1
AMC Owings Mills 17,AMC,Owings Mills,MD,AALHH, 39.40676, -76.79343,1
AMC Rivertowne 12,AMC,Oxon Hill,MD,AAXOB, 38.80639, -76.98042,1
AMC St. Charles Town Ctr. 9,AMC,Waldorf,MD,AABXK, 38.62000, -76.92680,1
AMC Wheaton Mall 9,AMC,Wheaton,MD,AAXYX, 39.03550, -77.05200,1
AMC Star Great Lakes 25,AMC,Auburn Hills,MI,AAMOP, 42.70260, -83.30640,1
AMC Star Gratiot 15,AMC,Clinton Township,MI,AACVI, 42.55980, -82.89740,1
AMC Birchwood 10,AMC,Fort Gratiot,MI,AAJHT, 43.01990, -82.45550,1
AMC Star Holland 8,AMC,Holland,MI,AACVH, 42.81190, -86.08520,1
AMC Livonia 20,AMC,Livonia,MI,AAIYE, 42.42759, -83.43296,1
AMC CLASSIC Ludington 8,AMC,Ludington,MI,AASXH, 43.95590, -86.36920,1
AMC Star John R 15,AMC,Madison Heights,MI,AACVG, 42.52939, -83.10677,1
AMC Forum 30,AMC,Sterling Heights,MI,AANXR, 42.62169, -83.05135,1
AMC Cherry Blossom 14,AMC,Traverse City,MI,AAXSI, 44.73214, -85.65163,1
AMC Grand Rapids 18,AMC,Walker,MI,AACVJ, 43.01980, -85.68880,1
AMC Coon Rapids 16,AMC,Coon Rapids,MN,AAIVB, 45.15240, -93.27760,1
AMC Eden Prairie Mall 18,AMC,Eden Prairie,MN,AAQIU, 44.85300, -93.43000,1
AMC Southdale 16,AMC,Edina,MN,AAQCX, 44.88309, -93.32691,1
AMC Inver Grove 16,AMC,Inver Grove Heights,MN,AAIVD, 44.86380, -93.05480,1
AMC CLASSIC Mounds View 15,AMC,Mounds View,MN,AANCP, 45.10180, -93.20880,1
AMC Rosedale 14,AMC,Roseville,MN,AAUFJ, 45.01290, -93.16876,1
AMC Creve Coeur 12,AMC,Creve Coeur,MO,AANQO, 38.67325, -90.40961,1
AMC CLASSIC Farmington 4,AMC,Farmington,MO,AAJDE, 37.79244, -90.44105,1
AMC Independence Commons 20,AMC,Independence,MO,AABNS, 39.04795, -94.34935,1
AMC Ward Parkway 14,AMC,Kansas City,MO,AAAZR, 38.97206, -94.60557,1
AMC Barrywoods 24,AMC,Kansas City,MO,AAECP, 39.24254, -94.65739,1
AMC CLASSIC Poplar Bluff 8,AMC,Poplar Bluff,MO,AAJDG, 36.73190, -90.44190,1
AMC Streets of St. Charles 8,AMC,Saint Charles,MO,AAXJV, 38.76627, -90.49394,1
AMC Springfield 11,AMC,Springfield,MO,AANHQ, 37.15597, -93.23048,1
AMC Esquire 7,AMC,St. Louis,MO,AABAB, 38.63429, -90.31618,1
AMC CLASSIC Billings 10,AMC,Billings,MT,AANFO, 45.76970,-108.57770,1
AMC Shiloh 14,AMC,Billings,MT,AAVLK, 45.75167,-108.61430,1
AMC CLASSIC Great Falls 10,AMC,Great Falls,MT,AAKAY, 47.48220,-111.34190,1
AMC DINE-IN Southgate 9,AMC,Missoula,MT,AAYHP, 46.87872,-113.99660,1
AMC Missoula 12,AMC,Missoula,MT,AAKIH, 46.88580,-114.04440,1
AMC River Hills 10,AMC,Asheville,NC,AALSC, 35.57660, -82.52480,1
AMC Northlake 14,AMC,Charlotte,NC,AATVT, 35.34842, -80.84720,1
AMC Park Terrace 6,AMC,Charlotte,NC,AAGJO, 35.17200, -80.84990,1
AMC Carolina Pavilion 22,AMC,Charlotte,NC,AACCA, 35.10696, -80.87678,1
AMC Concord Mills 24,AMC,Concord,NC,AANQM, 35.36988, -80.71832,1
AMC Southpoint 17,AMC,Durham,NC,AAWWX, 35.90540, -78.94507,1
AMC Market Fair 15,AMC,Fayetteville,NC,AAPDH, 35.06860, -78.96660,1
AMC Fayetteville 14,AMC,Fayetteville,NC,AAXKG, 35.08404, -78.96731,1
AMC Fire Tower 12,AMC,Greenville,NC,AAKBJ, 35.59370, -77.34010,1
AMC CLASSIC Havelock 6,AMC,Havelock,NC,AAKCK, 34.85530, -76.89480,1
AMC Hickory 15,AMC,Hickory,NC,AALSA, 35.69959, -81.30433,1
AMC High Point 8,AMC,High Point,NC,AAHZO, 35.99300, -80.03060,1
AMC DINE-IN Holly Springs 9,AMC,Holly Springs,NC,AAXYP, 35.66295, -78.84750,1
AMC CLASSIC Jacksonville 16,AMC,Jacksonville,NC,AARAV, 34.76660, -77.38390,1
AMC Kalli 12,AMC,Jacksonville,NC,AAWWF, 34.79810, -77.41740,1
AMC Park Place 16,AMC,Morrisville,NC,AAGUQ, 35.80412, -78.80911,1
AMC CLASSIC Shelby 10,AMC,Shelby,NC,AAJRK, 35.26966, -81.48294,1
AMC CLASSIC Wilson 10,AMC,Wilson,NC,AAJSS, 35.72190, -77.93690,1
AMC Hanes 12,AMC,Winston Salem,NC,AAJSU, 36.06830, -80.33630,1
AMC Dakota Square 9,AMC,Minot,ND,AAKIF, 48.20625,-101.30650,1
AMC Westroads 14,AMC,Omaha,NE,AAWWT, 41.26547, -96.06749,1
AMC Brick Plaza 10,AMC,Brick Township,NJ,AADYI, 40.05630, -74.14590,1
AMC DINE-IN Bridgewater 7,AMC,Bridgewater,NJ,AAFMR, 40.58644, -74.61607,1
AMC Cherry Hill 24,AMC,Cherry Hill,NJ,AAKTM, 39.93850, -75.02630,1
AMC Clifton Commons 16,AMC,Clifton,NJ,AANKM, 40.82769, -74.13879,1
AMC Deptford 8,AMC,Deptford,NJ,AACZO, 39.83395, -75.09878,1
AMC Brunswick Square 13,AMC,East Brunswick,NJ,AAHRP, 40.42710, -74.38250,1
AMC Loews East Hanover 12,AMC,East Hanover,NJ,AABPL, 40.81080, -74.38510,1
AMC Monmouth Mall 15,AMC,Eatontown,NJ,AABPS, 40.29150, -74.05100,1
AMC DINE-IN Menlo Park 12,AMC,Edison,NJ,AABTZ, 40.54543, -74.33607,1
AMC Jersey Gardens 20,AMC,Elizabeth,NJ,AAPYT, 40.66280, -74.17440,1
AMC Freehold 14,AMC,Freehold,NJ,AABPR, 40.25040, -74.29150,1
AMC DINE-IN Shops at Riverside 9,AMC,Hackensack,NJ,AAYFU, 40.90770, -74.03090,1
AMC Newport Centre 11,AMC,Jersey City,NJ,AABUC, 40.72630, -74.03860,1
AMC Aviation 12,AMC,Linden,NJ,AAUNV, 40.62159, -74.24531,1
AMC Marlton 8,AMC,Marlton,NJ,AACZQ, 39.90519, -74.93736,1
AMC Headquarters 10,AMC,Morristown,NJ,AAXCE, 40.80010, -74.48160,1
AMC Mountainside 10,AMC,Mountainside,NJ,AAAUG, 40.68390, -74.33690,1
AMC New Brunswick 18,AMC,New Brunswick,NJ,AACPH, 40.48830, -74.41450,1
AMC Garden State 16,AMC,Paramus,NJ,AAUJG, 40.91547, -74.07699,1
AMC MarketFair 10,AMC,Princeton,NJ,AAXQS, 40.35620, -74.65020,1
AMC Ridgefield Park 12,AMC,Ridgefield Park,NJ,AAXBO, 40.85063, -74.01300,1
AMC Rockaway 16,AMC,Rockaway,NJ,AAUFG, 40.90753, -74.54704,1
AMC Voorhees 16,AMC,Voorhees,NJ,AAXBB, 39.85126, -74.97967,1
AMC Wayne 14,AMC,Wayne,NJ,AABPJ, 40.88850, -74.25090,1
AMC DINE-IN Essex Green 9,AMC,West Orange,NJ,AAFMU, 40.78931, -74.25538,1
AMC Albuquerque 12,AMC,Albuquerque,NM,AAXSH, 35.02353,-106.71470,1
AMC Rainbow Promenade 10,AMC,Las Vegas,NV,AADGS, 36.20230,-115.24140,1
AMC Town Square 18,AMC,Las Vegas,NV,AAWWV, 36.06837,-115.17870,1
AMC Maple Ridge 8,AMC,Amherst,NY,AACZV, 42.99079, -78.80497,1
AMC Bay Plaza Cinema 13,AMC,Bronx,NY,AAEEV, 40.86935, -73.82880,1
AMC Market Arcade 8,AMC,Buffalo,NY,AANSP, 42.89117, -78.87198,1
AMC DINE-IN Huntington Square 12,AMC,East Northport,NY,AAYRZ, 40.83900, -73.31530,1
AMC Roosevelt Field 8,AMC,Garden City,NY,AABQP, 40.73970, -73.61490,1
AMC Glen Cove 6,AMC,Glen Cove,NY,AABTO, 40.86620, -73.63103,1
AMC Shore 8,AMC,Huntington,NY,AABTU, 40.87292, -73.42783,1
AMC DINE-IN Levittown 10,AMC,Levittown,NY,AABQM, 40.72571, -73.50426,1
AMC Crystal Run 16,AMC,Middletown,NY,AABRA, 41.45250, -74.36800,1
AMC Kips Bay 15,AMC,New York,NY,AANCL, 40.74340, -73.97670,1
AMC Village 7,AMC,New York,NY,AABQF, 40.73150, -73.98870,1
AMC 19th St. East 6,AMC,New York,NY,AABQG, 40.73860, -73.98969,1
AMC Orpheum 7,AMC,New York,NY,AABQC, 40.77940, -73.95406,1
AMC Empire 25,AMC,New York,NY,AAORE, 40.75638, -73.98804,1
AMC Lincoln Square 13,AMC,New York,NY,AABQI, 40.77518, -73.98171,1
AMC 34th Street 14,AMC,New York,NY,AAQCR, 40.75236, -73.99463,1
AMC Magic Johnson Harlem 9,AMC,New York,NY,AAOVP, 40.80956, -73.95166,1
AMC 84th Street 6,AMC,New York,NY,AABQA, 40.78660, -73.97760,1
AMC Allegany 8,AMC,Olean,NY,AAKLR, 42.07990, -78.46680,1
AMC Port Chester 14,AMC,Port Chester,NY,AASWQ, 40.99970, -73.66150,1
AMC Loews Fresh Meadows 7,AMC,Queens,NY,AABTM, 40.74100, -73.78450,1
AMC Loews Bay Terrace 6,AMC,Queens,NY,AABQJ, 40.77945, -73.77885,1
AMC Fantasy 5,AMC,Rockville Centre,NY,AABTN, 40.65670, -73.64540,1
AMC Saratoga Springs 11,AMC,Saratoga Springs,NY,AAXCI, 43.08230, -73.78810,1
AMC DINE-IN Staten Island Mall 11,AMC,Staten Island,NY,AAYMZ, 40.58120, -74.16480,1
AMC Loews Stony Brook 17,AMC,Stony Brook,NY,AALAT, 40.87180, -73.12590,1
AMC Vestal Towne Square 9,AMC,Vestal,NY,AABRJ, 42.09480, -76.01000,1
AMC Webster 12,AMC,Webster,NY,AABRE, 43.20110, -77.49740,1
AMC Palisades Center 21,AMC,West Nyack,NY,AAFPI, 41.09884, -73.95368,1
AMC Raceway 10,AMC,Westbury,NY,AABSX, 40.74227, -73.59644,1
AMC DINE-IN Anderson Towne Center 9,AMC,Anderson Township,OH,AAYAQ, 39.07285, -84.34969,1
AMC Ridge Park Square 8,AMC,Brooklyn,OH,AAFND, 41.42714, -81.73454,1
AMC Starplex Columbus 10,AMC,Columbus,OH,AAGLH, 39.98197, -83.14728,1
AMC Dine-in Easton Town Center 30,AMC,Columbus,OH,AANIT, 40.04987, -82.91549,1
AMC Dublin Village 18,AMC,Dublin,OH,AABYG, 40.10550, -83.09700,1
AMC CLASSIC Findlay 12,AMC,Findlay,OH,AATUC, 41.06240, -83.66880,1
AMC Grove City 14,AMC,Grove City,OH,AAWWS, 39.86340, -83.05240,1
AMC CLASSIC Hamilton 8,AMC,Hamilton,OH,AAEEM, 39.42401, -84.59449,1
AMC Indian Mound 9,AMC,Heath,OH,AAKLG, 40.03157, -82.44956,1
AMC Westwood Town Center 6,AMC,Rocky River,OH,AAFNM, 41.45967, -81.85977,1
AMC West Chester 18,AMC,West Chester,OH,AAWWU, 39.31868, -84.42082,1
AMC CLASSIC Ardmore 8,AMC,Ardmore,OK,AAVDR, 34.18740, -97.15940,1
AMC Patriot 13,AMC,Lawton,OK,AAXRZ, 34.63569, -98.47680,1
AMC Robinson Crossing 6,AMC,Norman,OK,AAYRD, 35.23510, -97.48760,1
AMC Penn Square 10,AMC,Oklahoma City,OK,AAWVC, 35.52484, -97.54442,1
AMC Quail Springs Mall 24,AMC,Oklahoma City,OK,AAKTW, 35.61241, -97.56046,1
AMC CLASSIC Owasso 12,AMC,Owasso,OK,AAOVI, 36.27860, -95.83500,1
Cinema Centre 8,AMC,Shawnee,OK,AAPHW, 35.36510, -96.91170,1
AMC Stillwater 10,AMC,Stillwater,OK,AAJSH, 36.14150, -97.05130,1
AMC Southroads 20,AMC,Tulsa,OK,AAEKU, 36.10642, -95.91926,1
AMC Tulsa Hills 12,AMC,Tulsa,OK,AAXTY, 36.04249, -96.00733,1
AMC West End Pointe 8,AMC,Yukon,OK,AAUOL, 35.47890, -97.75560,1
AMC Progress Ridge 13,AMC,Beaverton,OR,AAWJT, 45.43095,-122.83100,1
AMC CLASSIC Corvallis 12,AMC,Corvallis,OR,AASVC, 44.58880,-123.24950,1
AMC Tilghman Square 8,AMC,Allentown,PA,AABEH, 40.58700, -75.55800,1
AMC Woodhaven 10,AMC,Bensalem,PA,AACZX, 40.07227, -74.96358,1
AMC Neshaminy 24,AMC,Bensalem,PA,AAIVO, 40.13960, -74.96130,1
AMC CLASSIC Bloomsburg 11,AMC,Bloomsburg,PA,AAJXS, 41.00820, -76.42310,1
AMC Camp Hill 12,AMC,Camp Hill,PA,AABMI, 40.22670, -76.93640,1
AMC Center Valley 16,AMC,Center Valley,PA,AAUHQ, 40.56054, -75.40915,1
AMC Altoona 12,AMC,Duncansville,PA,AAXRA, 40.45221, -78.40828,1
AMC Westmoreland 15,AMC,Greensburg,PA,AANRE, 40.29746, -79.50506,1
AMC Waterfront 22,AMC,Homestead,PA,AAOSA, 40.40890, -79.91700,1
AMC CLASSIC Hampden 8,AMC,Mechanicsburg,PA,AAVRM, 40.23720, -76.96890,1
AMC CLASSIC Mount Lebanon 6,AMC,Mt. Lebanon,PA,AAEBA, 40.35778, -80.05036,1
AMC 309 Cinema 9 ,AMC,North Wales,PA,AADAG, 40.20710, -75.22540,1
AMC DINE-IN Fashion District 8,AMC,Philadelphia,PA,AAYRP, 39.95201, -75.15724,1
AMC Broadstreet 7,AMC,Philidelphia,PA,AAXYF, 39.97797, -75.16064,1
AMC CLASSIC South Hills Village 10,AMC,Pittsburgh,PA,AALGM, 40.34540, -80.05760,1
AMC Plymouth Meeting Mall 12,AMC,Plymouth Meeting,PA,AALBH, 40.11351, -75.27989,1
AMC Pottsgrove 12,AMC,Pottsgrove,PA,AAWOC, 40.26836, -75.65809,1
AMC Fairgrounds 10,AMC,Reading,PA,AALWB, 40.36440, -75.92730,1
AMC CLASSIC Selinsgrove 12,AMC,Selinsgrove,PA,AATNY, 40.81460, -76.85730,1
AMC Marple 10,AMC,Springfield,PA,AADAF, 39.93902, -75.35458,1
AMC DINE-IN Painters Crossing 9,AMC,West Chester,PA,AADAI, 39.88285, -75.55038,1
AMC CLASSIC Williamsport 11,AMC,Williamsport,PA,AAWYT, 41.24010, -77.00660,1
AMC DINE-IN Berkshire 8,AMC,Wyomissing,PA,AAWVX, 40.34970, -75.96700,1
AMC Harbison 14,AMC,Columbia,SC,AALXF, 34.07550, -81.15960,1
AMC CLASSIC Myrtle Beach 12,AMC,Myrtle Beach,SC,AAUDW, 33.79090, -78.76340,1
AMC CLASSIC Rapid City 10,AMC,Rapid City,SD,AANFQ, 44.10310,-103.21800,1
AMC Antioch 8,AMC,Antioch,TN,AAGOV, 36.04970, -86.64990,1
AMC Majestic 12,AMC,Chattanooga,TN,AAVRR, 35.05320, -85.31080,1
AMC Chattanooga 18,AMC,Chattanooga,TN,AATZD, 35.00530, -85.22980,1
AMC Bradley Square 12,AMC,Cleveland,TN,AAWVY, 35.20635, -84.84787,1
AMC Highland 12,AMC,Cookeville,TN,AAURF, 36.13150, -85.50440,1
AMC DINE-IN Thoroughbred 20,AMC,Franklin,TN,AAOFP, 35.94310, -86.82394,1
AMC CLASSIC Towne Crossing 8,AMC,Greeneville,TN,AAWWH, 36.17380, -82.83670,1
AMC Northgate 14,AMC,Hixson,TN,AATSW, 35.16340, -85.21800,1
AMC Johnson City 14,AMC,Johnson City,TN,AALYK, 36.33400, -82.37220,1
AMC Foothills 12,AMC,Maryville,TN,AAWOV, 35.73729, -83.99450,1
AMC CLASSIC College Square 12,AMC,Morristown,TN,AAVDS, 36.22236, -83.26146,1
AMC CLASSIC Murfreesboro 16,AMC,Murfreesboro,TN,AANZF, 35.84329, -86.43822,1
AMC Stones River 9,AMC,Murfreesboro,TN,AAYKD, 35.84640, -86.41610,1
AMC Bellevue 12,AMC,Nashville,TN,AAYFT, 36.08450, -86.94370,1
AMC Spring Hill 12,AMC,Spring Hill,TN,AAXPL, 35.74228, -86.93991,1
AMC Village on the Parkway 9,AMC,Addison,TX,AAXJU, 32.95390, -96.82060,1
AMC The Parks At Arlington 18,AMC,Arlington,TX,AAQPE, 32.68301, -97.13303,1
AMC Barton Creek Square 14,AMC,Austin,TX,AANCC, 30.25769, -97.80766,1
AMC DINE-IN Tech Ridge 10,AMC,Austin,TX,AAYSF, 30.40861, -97.67171,1
AMC Boerne 11,AMC,Boerne,TX,AAWXE, 29.76060, -98.70780,1
AMC Burleson 14,AMC,Burleson,TX,AAXZD, 32.57638, -97.32432,1
AMC Lakeline 9,AMC,Cedar Park,TX,AABNG, 30.47174, -97.80222,1
AMC CLASSIC Corpus Christi 16,AMC,Corpus Christi,TX,AAUHH, 27.73920, -97.43980,1
AMC NorthPark 15,AMC,Dallas,TX,AATZH, 32.86927, -96.77356,1
AMC Edinburg 18,AMC,Edinburg,TX,AAOGT, 26.27269, -98.15568,1
AMC El Paso 16,AMC,El Paso,TX,AANOV, 31.88350,-106.44000,1
AMC CLASSIC Forney 12,AMC,Forney,TX,AATRP, 32.74390, -96.45110,1
AMC Palace 9,AMC,Fort Worth,TX,AADCS, 32.75547, -97.33018,1
AMC Lake Worth 14,AMC,Fort Worth,TX,AAWEV, 32.80360, -97.42840,1
AMC DINE-IN Clearfork 8,AMC,Fort Worth,TX,AAYJV, 32.70851, -97.40123,1
AMC Hulen 10,AMC,Fort Worth,TX,AAUGX, 32.65960, -97.40410,1
AMC Eastchase 9,AMC,Fort Worth,TX,AAWWG, 32.75697, -97.17117,1
AMC DINE-IN Stonebriar 24,AMC,Frisco,TX,AAOXJ, 33.10541, -96.80568,1
AMC Firewheel 18,AMC,Garland,TX,AATVS, 32.95090, -96.61356,1
AMC Grapevine Mills 24,AMC,Grapevine,TX,AAEGO, 32.95085, -97.04011,1
AMC Highland Village 12,AMC,Highland Village,TX,AAUSF, 33.07387, -97.08507,1
AMC Gulf Pointe 30,AMC,Houston,TX,AAEPA, 29.60644, -95.20506,1
AMC Willowbrook 24,AMC,Houston,TX,AAODO, 29.95554, -95.54220,1
AMC Houston 8,AMC,Houston,TX,AAWNL, 29.76240, -95.36660,1
AMC Deerbrook 24,AMC,Humble,TX,AACBH, 30.00535, -95.26831,1
AMC Irving Mall 14,AMC,Irving,TX,AACRP, 32.83909, -96.99606,1
AMC Katy Mills 20,AMC,Katy,TX,AANRV, 29.76788, -95.81922,1
AMC CLASSIC Brazos Mall 14,AMC,Lake Jackson,TX,AAEOW, 29.04200, -95.44340,1
AMC Longview 10,AMC,Longview,TX,AAKGK, 32.53802, -94.74741,1
AMC Lufkin 9,AMC,Lufkin,TX,AAKGM, 31.33810, -94.72890,1
AMC DINE-IN Mesquite 30,AMC,Mesquite,TX,AAFLE, 32.78225, -96.62508,1
AMC CLASSIC Rio Grande 10,AMC,Rio Grande City,TX,AAUWB, 26.36860, -98.78190,1
AMC Rivercenter 11 with Alamo IMAX,AMC,San Antonio,TX,AADCX, 29.42362, -98.48536,1
AMC Metropark 10,AMC,Shenandoah,TX,AAYOF, 30.18022, -95.45577,1
AMC Spring 10,AMC,Spring,TX,AABNC, 30.06080, -95.43920,1
AMC Loews Fountains 18,AMC,Stafford,TX,AACXA, 29.63920, -95.58780,1
AMC First Colony 24,AMC,Sugar Land,TX,AAEPB, 29.58780, -95.62703,1
AMC Tyler 14,AMC,Tyler,TX,AATLA, 32.26900, -95.30700,1
AMC Galaxy 16,AMC,Waco,TX,AAFJQ, 31.52720, -97.16020,1
AMC Sikes Senter 10,AMC,Wichita Falls,TX,AAJSO, 33.87030, -98.53240,1
AMC Loews Layton Hills 9,AMC,Layton,UT,AAEIT, 41.08080,-111.97900,1
AMC Provo 8,AMC,Provo,UT,AAIDZ, 40.29900,-111.65680,1
AMC West Jordan 12,AMC,West Jordan,UT,AAXOY, 40.58473,-111.93580,1
AMC Hoffman Center 22,AMC,Alexandria,VA,AAPNJ, 38.80230, -77.07056,1
AMC Courthouse Plaza 8,AMC,Arlington,VA,AADAK, 38.89011, -77.08702,1
AMC Shirlington 7,AMC,Arlington,VA,AABXO, 38.84110, -77.08900,1
AMC Loudoun Station 11,AMC,Ashburn,VA,AAXOE, 39.00640, -77.48770,1
AMC Hampton Towne Centre 24,AMC,Hampton,VA,AAFSR, 37.06192, -76.42698,1
AMC Worldgate 9,AMC,Herndon,VA,AAWZK, 38.95743, -77.40114,1
AMC Tysons Corner 16,AMC,McLean,VA,AATSO, 38.91990, -77.22380,1
AMC DINE-IN Midlothian 10,AMC,Midlothian,VA,AAXMD, 37.50630, -77.61780,1
AMC CLASSIC Roanoke 10,AMC,Roanoke,VA,AAJQM, 37.23100, -79.97440,1
AMC CLASSIC Salem Valley 8,AMC,Salem,VA,AALZO, 37.27040, -80.03310,1
AMC Lynnhaven 18,AMC,Virginia Beach,VA,AADAQ, 36.81588, -76.07275,1
AMC Apple Blossom 12,AMC,Winchester,VA,AAWZS, 39.16330, -78.16310,1
AMC Potomac Mills 18,AMC,Woodbridge,VA,AADAR, 38.64464, -77.29037,1
AMC Loews Factoria 8,AMC,Bellevue,WA,AAAYX, 47.57906,-122.17030,1
AMC CLASSIC Cascade Mall 14,AMC,Burlington,WA,AAJMJ, 48.46430,-122.33700,1
AMC CLASSIC Kennewick 12,AMC,Kennewick,WA,AAOEF, 46.22442,-119.23250,1
AMC Kent Station 14,AMC,Kent,WA,AATVQ, 47.38475,-122.23420,1
AMC Lakewood Mall 12,AMC,Lakewood,WA,AAAYN, 47.16130,-122.52000,1
AMC Loews Alderwood Mall 16,AMC,Lynnwood,WA,AATFT, 47.82900,-122.27800,1
AMC Pacific Place 11,AMC,Seattle,WA,AAIYA, 47.61245,-122.33390,1
AMC Oak Tree 6,AMC,Seattle,WA,AAAYZ, 47.70160,-122.34400,1
AMC Kitsap 8,AMC,Silverdale,WA,AAFNB, 47.65452,-122.69080,1
AMC River Park Square 20,AMC,Spokane,WA,AANJZ, 47.65916,-117.41690,1
AMC Southcenter 16,AMC,Tukwila,WA,AAUXG, 47.46049,-122.25940,1
AMC Vancouver Mall 23,AMC,Vancouver,WA,AAWRU, 45.65630,-122.58320,1
AMC CLASSIC Mill Plain 8,AMC,Vancouver,WA,AATSA, 45.61598,-122.55180,1
AMC Loews Woodinville 12,AMC,Woodinville,WA,AAFWI, 47.75550,-122.15500,1
AMC CLASSIC Desert Star 15,AMC,Baraboo,WI,AAOTE, 43.60430, -89.79170,1
AMC Fitchburg 18,AMC,Fitchburg,WI,AAOMJ, 43.01420, -89.46830,1
AMC CLASSIC Johnson Creek 12,AMC,Johnson Creek,WI,AANDR, 43.08340, -88.76370,1
AMC Classic Manitowoc 10,AMC,Manitowoc,WI,AAXGR, 44.17440, -87.58310,1
AMC Mayfair Mall 18,AMC,Wauwatosa,WI,AANCU, 43.06358, -88.04771,1
AMC Morgantown 12,AMC,Morgantown,WV,AALWT, 39.63260, -79.99770,1
Cornelius Cinemas,Act V Theaters,Cornelius,OR,AACTP, 45.52020,-123.03850,2
Beach Cinema Alehouse,Act V Theaters,Virginia Beach,VA,AAPND, 36.85740, -75.98830,2
SIFF: Mary D. Fisher & Alice Gill-Sheldon Theatre,Agile Ticketing,Sedona,AZ,AAYLD, 34.86418,-111.79600,3
The Loft Cinema,Agile Ticketing,Tucson,AZ,AAMPB, 32.23600,-110.92362,3
Lark Theater,Agile Ticketing,Larkspur,CA,AAFBJ, 37.93690,-122.53520,3
Sequoia Cinema,Agile Ticketing,Mill Valley,CA,AAQCH, 37.90650,-122.54680,3
Smith Rafael Film Center,Agile Ticketing,San Rafael,CA,AAMMQ, 37.97340,-122.52870,3
Avon Theatre,Agile Ticketing,Stamford,CT,AALIB, 41.05717, -73.53836,3
O Cinema,Agile Ticketing,Miami Beach,FL,AARCY, 25.78290, -80.13260,3
Salina Art Center Cinema,Agile Ticketing,Salina,KS,AAQMT, 38.83850, -97.60960,3
Kentucky Theatre,Agile Ticketing,Lexington,KY,AAOAD, 38.04432, -84.49550,3
Nantucket Dreamland ,Agile Ticketing,Nantucket,MA,AAPXX, 41.28470, -70.09837,3
The Main Cinema,Agile Ticketing,Minneapolis,MN,AAICD, 44.98470, -93.25600,3
The Moxie Cinema,Agile Ticketing,Springfield,MO,AAUYM, 37.20820, -93.29474,3
The Roxy Theater,Agile Ticketing,Missoula,MT,AAXCC, 46.86444,-113.99712,3
The Park Theatre,Agile Ticketing,Jaffrey,NH,AAYCE, 42.81490, -72.02390,3
The Beverly Theater,Agile Ticketing,Las Vegas,NV,AAYYL, 36.16336, 115.14300,3
Cinema Arts Centre,Agile Ticketing,Huntington,NY,AAHQW, 40.87300, -73.41470,3
The Moviehouse,Agile Ticketing,Millerton,NY,AANYN, 41.95400, -73.50960,3
Firehouse: DCTV's Cinema for Documentary Film,Agile Ticketing,New York,NY,AAYXV, 40.71750, -74.00110,3
Hollywood Theatre,Agile Ticketing,Portland,OR,AANVP, 45.53550,-122.62000,3
Bryn Mawr Film Institute,Agile Ticketing,Bryn Mawr,PA,AADJG, 40.02160, -75.31911,3
Midtown Cinema,Agile Ticketing,Harrisburg,PA,AAQGL, 40.27120, -76.89140,3
PFS - Bourse Theater,Agile Ticketing,Philadelphia,PA,AADJC, 39.94930, -75.14760,3
PFS - East Theater ,Agile Ticketing,Philadelphia,PA,AANDQ, 39.94777, -75.14407,3
The United Theatre,Agile Ticketing,Westerly,RI,QQXXV, 41.38000,  71.82941,3
Ashland Theatre,Agile Ticketing,Ashland,VA,AAYNS, 37.75863, -77.47936,3
Grandin Theatre,Agile Ticketing,Roanoke,VA,AAMXL, 37.26550, -79.97710,3
Alamo Drafthouse Cinema Downtown LA,Alamo Drafthouse Cinemas,Los Angeles,CA,AAYPC, 34.04776,-118.26090,4
Alamo Drafthouse Cinema New Mission,Alamo Drafthouse Cinemas,San Francisco,CA,AAXPV, 37.75621,-122.42120,4
Alamo Drafthouse Sloans Lake,Alamo Drafthouse Cinemas,Denver,CO,AAYDH, 39.74030,-105.04230,4
Alamo Drafthouse Littleton,Alamo Drafthouse Cinemas,Littleton,CO,AAWWA, 39.58440,-105.02360,4
Alamo Drafthouse Westminster,Alamo Drafthouse Cinemas,Westminster,CO,AAYPB, 39.86820,-105.06250,4
Alamo Drafthouse Cinema DC Bryant Street,Alamo Drafthouse Cinemas,Washington,DC,AAYVX, 38.92208, -76.99752,4
Alamo Drafthouse Naples,Alamo Drafthouse Cinemas,Naples,FL,AAVQT, 26.25230, -81.79790,4
Alamo Drafthouse Wrigleyville,Alamo Drafthouse Cinemas,Chicago,IL,AAYSE, 41.94620, -87.65546,4
Alamo Drafthouse Indianapolis,Alamo Drafthouse Cinemas,Indianapolis,IN,AATHT, 39.82710, -86.23940,4
Alamo Drafthouse Cinema Boston Seaport,Alamo Drafthouse Cinemas,Boston,MA,AAYXQ, 42.35280, -71.04710,4
Alamo Drafthouse Woodbury Lakes,Alamo Drafthouse Cinemas,Woodbury,MN,AAYJS, 44.94710, -92.92650,4
Alamo Drafthouse Cinema Springfield,Alamo Drafthouse Cinemas,Springfield,MO,AAYBG, 37.14190, -93.29450,4
Alamo Drafthouse City Foundry,Alamo Drafthouse Cinemas,St. Louis,MO,AAYWW, 38.63350, -90.24102,4
Alamo Drafthouse Raleigh,Alamo Drafthouse Cinemas,Raleigh,NC,AAYHH, 35.77847, -78.60491,4
Alamo Drafthouse Cinema La Vista,Alamo Drafthouse Cinemas,La Vista,NE,AAXMN, 41.17770, -96.11200,4
Alamo Drafthouse Downtown Brooklyn,Alamo Drafthouse Cinemas,Brooklyn,NY,AAXUN, 40.69300, -73.98330,4
Alamo Drafthouse Cinema Lower Manhattan,Alamo Drafthouse Cinemas,New York,NY,AAYQO, 40.70776, -74.00885,4
Alamo Drafthouse Cinema Staten Island,Alamo Drafthouse Cinemas,Staten Island,NY,AAYQP, 40.56423, -74.10944,4
Alamo Drafthouse Yonkers,Alamo Drafthouse Cinemas,Yonkers,NY,AAWWC, 40.98570, -73.82560,4
Alamo Drafthouse Cinema Slaughter Lane,Alamo Drafthouse Cinemas,Austin,TX,AAWQE, 30.20100, -97.86850,4
Alamo Drafthouse Cinema South Lamar,Alamo Drafthouse Cinemas,Austin,TX,AATHS, 30.25554, -97.76332,4
Alamo Drafthouse Cinema Village,Alamo Drafthouse Cinemas,Austin,TX,AAPPY, 30.35820, -97.73510,4
Alamo Drafthouse Lakeline,Alamo Drafthouse Cinemas,Austin,TX,AAWYO, 30.47547, -97.80431,4
Alamo Drafthouse Mueller,Alamo Drafthouse Cinemas,Austin,TX,AAYBF, 30.29810, -97.70730,4
Alamo Drafthouse Corpus Christi,Alamo Drafthouse Cinemas,Corpus Christi,TX,AAXZB, 27.66570, -97.39850,4
Alamo Drafthouse Cinema Cedars,Alamo Drafthouse Cinemas,Dallas,TX,AAXTR, 32.77000, -96.79800,4
Alamo Drafthouse Lake Highlands,Alamo Drafthouse Cinemas,Dallas,TX,AAYHW, 32.86730, -96.74180,4
Alamo Drafthouse Denton,Alamo Drafthouse Cinemas,Denton,TX,AAYJE, 33.22500, -97.16860,4
Alamo Drafthouse Montecillo,Alamo Drafthouse Cinemas,El Paso,TX,AAXUO, 31.81287,-106.51100,4
Alamo Drafthouse East El Paso,Alamo Drafthouse Cinemas,El Paso,TX,AAYUQ, 31.72734,-106.26750,4
Alamo Drafthouse Las Colinas,Alamo Drafthouse Cinemas,Irving,TX,AAYGW, 32.87480, -96.94420,4
Alamo Drafthouse Cinema LaCenterra,Alamo Drafthouse Cinemas,Katy,TX,AAYJN, 29.74132, -95.77663,4
Alamo Drafthouse Laredo,Alamo Drafthouse Cinemas,Laredo,TX,AAXPW, 27.61964, -99.47002,4
Alamo Drafthouse Lubbock,Alamo Drafthouse Cinemas,Lubbock,TX,AAXFA, 33.59685,-101.92370,4
Alamo Drafthouse Cinema Richardson,Alamo Drafthouse Cinemas,Richardson,TX,AAWYM, 32.94930, -96.73830,4
Alamo Drafthouse Stone Oak,Alamo Drafthouse Cinemas,San Antonio,TX,AAWIA, 29.65381, -98.44724,4
Alamo Drafthouse Park North,Alamo Drafthouse Cinemas,San Antonio,TX,AAVTR, 29.52015, -98.50258,4
Alamo Drafthouse Crystal City,Alamo Drafthouse Cinemas,Arlington,VA,AAYWV, 38.85883, -77.04932,4
Alamo Drafthouse One Loudoun,Alamo Drafthouse Cinemas,Ashburn,VA,AAWYL, 39.05203, -77.45509,4
Alamo Drafthouse Cinema Charlottesville,Alamo Drafthouse Cinemas,Charlottesville,VA,AAYEE, 38.01100, -78.49860,4
Alamo Drafthouse Winchester,Alamo Drafthouse Cinemas,Winchester,VA,AAVSN, 39.11980, -78.19490,4
Alamo Drafthouse Woodbridge,Alamo Drafthouse Cinemas,Woodbridge,VA,AAYJH, 38.62730, -77.28770,4
The Tower Theatre by Angelika,Angelika Film Center,Sacramento,CA,AADEA, 38.56160,-121.49170,5
Angelika Film Center & Cafe Carmel Mountain,Angelika Film Center,San Diego,CA,AAAWG, 32.98127,-117.08200,5
Angelika Pop-Up at Union Market,Angelika Film Center,Washington,DC,AAXGL, 38.90970, -76.99600,5
Angelika Film Center & Cafe,Angelika Film Center,NEW YORK,NY,AAECI, 40.72580, -73.99780,5
Cinema 123 by Angelika ,Angelika Film Center,New York,NY,AAECB, 40.76170, -73.96670,5
Village East By Angelika,Angelika Film Center,New York,NY,AAECF, 40.73060, -73.98680,5
Angelika Film Center & Cafe,Angelika Film Center,Dallas,TX,AAPOY, 32.83660, -96.77660,5
Angelika Film Center & Cafe at Mosaic,Angelika Film Center,Fairfax,VA,AAWTP, 38.87231, -77.22852,5
Apple Cinemas Xtreme Hartford,Apple Cinemas,Hartford,CT,AAYVS, 41.74725, -72.71241,6
Apple Cinemas Simsbury,Apple Cinemas,Simsbury,CT,AAOKB, 41.81735, -72.86424,6
Apple Cinemas Torrington,Apple Cinemas,Torrington,CT,AAMSN, 41.81321, -73.12378,6
Apple Cinemas Brass Mill,Apple Cinemas,Waterbury,CT,AAGDZ, 41.54799, -73.02426,6
Apple Cinemas Cambridge,Apple Cinemas,Cambridge,MA,AABBI, 42.41411, -71.13193,6
Apple Cinemas Saco IMAX,Apple Cinemas,Saco,ME,AAPEP, 43.52858, -70.42431,6
Apple Cinemas Westbrook,Apple Cinemas,Westbrook,ME,AAUBA, 43.65132, -70.35043,6
Apple Cinemas Hooksett IMAX,Apple Cinemas,Hooksett,NH,AAUOC, 43.04127, -71.43921,6
Apple Cinemas Merrimack,Apple Cinemas,Merrimack,NH,AATGL, 42.84669, -71.49729,6
Apple Cinemas Pittsford,Apple Cinemas,Pittsford,NY,AAETP, 43.10129, -77.53836,6
Apple Cinemas Greece Ridge,Apple Cinemas,Rochester,NY,AAKGR, 43.20516, -77.68886,6
Apple Cinemas White Plains,Apple Cinemas,White Plains,NY,AARCK, 41.03214, -73.76633,6
Apple Cinemas Warwick,Apple Cinemas,Warwick,RI,AAPMQ, 41.72496, -71.47880,6
Atlas Cinemas Barrington 10,Atlas Cinemas,Aurora,OH,AATYD, 41.31905, -81.34891,7
Atlas Cinemas at Shaker Square,Atlas Cinemas,Cleveland,OH,AAFYB, 41.48320, -81.59120,7
Atlas Lakeshore 7,Atlas Cinemas,Euclid,OH,AAFYA, 41.61130, -81.52420,7
Atlas Cinema Great Lakes Stadium 16,Atlas Cinemas,Mentor,OH,AAUQV, 41.66120, -81.35990,7
Atlas Diamond Center 16,Atlas Cinemas,Mentor,OH,AAFYC, 41.71569, -81.29674,7
Atrium Cinema,Atrium Theater,Staten Island,NY,AAEFL, 40.56010, -74.16380,8
B&B Theatres Wesley Chapel - The Grove 16,B&B Theaters,Wesley Chapel,FL,AAUYL, 28.24982, -82.35001,9
B&B Theatres Athens 12,B&B Theaters,Athens,GA,AANGV, 33.94495, -83.35400,9
B&B Theatres Ankeny 12,B&B Theaters,Ankeny,IA,AAYNR, 41.71495, -93.61926,9
B&B Theatres Dodge City Village 8,B&B Theaters,Dodge City,KS,AAJWJ, 37.77811,-100.01830,9
B&B Theatres Emporia Flinthills 8 Cinemas,B&B Theaters,Emporia,KS,AAJHJ, 38.41730, -96.21650,9
B&B Theatres Hutchinson Mall 8,B&B Theaters,Hutchinson,KS,AAJHF, 38.06500, -97.90310,9
B&B Theatres Junction City Gem,B&B Theaters,Junction City,KS,AAXHJ, 39.02820, -96.84770,9
B&B Theatres Leavenworth Landing 5,B&B Theaters,Leavenworth,KS,AAGMA, 39.31840, -94.91060,9
B&B Theatres Overland Park 16,B&B Theaters,Overland Park,KS,AATDF, 38.88340, -94.68540,9
B&B Theatres Shawnee 18,B&B Theaters,Shawnee,KS,AAGKV, 38.99860, -94.77460,9
B&B Theatres Topeka Wheatfield 9,B&B Theaters,Topeka,KS,AAYRG, 39.01680, -95.74380,9
B&B Theatres Bloomington 13 at Mall of America,B&B Theaters,Bloomington,MN,AAVAI, 44.85371, -93.24370,9
B&B Theatres Bolivar Cinema 5,B&B Theaters,Bolivar,MO,AAJWA, 37.59730, -93.39960,9
B&B Theatres Chillicothe Grand 6,B&B Theaters,Chillicothe,MO,AANZZ, 39.79440, -93.55410,9
B&B Theatres Missouri 6,B&B Theaters,Clinton,MO,AAXSS, 38.36520, -93.75720,9
B&B Theatres Creve Coeur West Olive 10,B&B Theaters,Creve Coeur,MO,AACVY, 38.67974, -90.46629,9
B&B Theatres Festus 8 Cinema,B&B Theaters,Festus,MO,AAIEP, 38.21264, -90.41450,9
B&B Theatres Grain Valley Marketplace 8 & GS,B&B Theaters,Grain Valley,MO,AAXEP, 39.02400, -94.19510,9
B&B Theatres Main Street Cinema 8,B&B Theaters,Hannibal,MO,AAVMQ, 39.70550, -91.39740,9
B&B Theatres Harrisonville Cineplex,B&B Theaters,Harrisonville,MO,AAJXF, 38.66060, -94.37260,9
B&B Theatres Northland 14,B&B Theaters,Kansas City,MO,AARFQ, 39.23880, -94.52190,9
B&B Theatres Mainstreet KC,B&B Theaters,Kansas City,MO,AAWSR, 39.09690, -94.58588,9
B&B Theatres Lebanon Ritz 8,B&B Theaters,Lebanon,MO,AAJXJ, 37.67290, -92.65380,9
B&B Theatres New Longview 7,B&B Theaters,Lee's Summit,MO,AAYJB, 38.91130, -94.44780,9
B&B Theatres Lee’s Summit 16,B&B Theaters,Lees Summit,MO,AANPA, 38.93869, -94.37650,9
B&B Theatres Liberty Cinema 12,B&B Theaters,Liberty ,MO,AAYKF, 39.24281, -94.45023,9
B&B Theatres Moberly 5,B&B Theaters,Moberly,MO,AAJYA, 39.45570, -92.43400,9
B&B Theatres Monett Plaza 8,B&B Theaters,Monett,MO,AALIL, 36.91230, -93.91170,9
B&B Theatres Neosho Cinema 6,B&B Theaters,Neosho,MO,AAPZI, 36.83640, -94.39440,9
B&B TheatresOzark-Nixa 12 with Marquee Suites & GS,B&B Theaters,Ozark,MO,AAWOX, 37.00930, -93.21350,9
B&B Theatres Sedalia Galaxy 10,B&B Theaters,Sedalia,MO,AAVJR, 38.71370, -93.27965,9
B&B Theatres Warrensburg 10,B&B Theaters,Warrensburg,MO,AAVLJ, 38.78255, -93.73308,9
B&B Theatres Waynesville Patriot 12 & GS,B&B Theaters,Waynesville,MO,AAXGQ, 37.81030, -92.21390,9
B&B Theatres Wentzville Tower 12,B&B Theaters,Wentzville,MO,AAXSR, 38.80350, -90.85850,9
B&B Theatres Wildwood 10 & GS,B&B Theaters,Wildwood,MO,AAWHO, 38.57220, -90.62260,9
B&B Theatres Ridgeland 14,B&B Theaters,Ridgeland,MS,AAJJS, 32.40564, -90.13163,9
B&B Theatres Morrisville Park West 14,B&B Theaters,Morrisville,NC,AAWWY, 35.80814, -78.82179,9
B&B Theatres Grand Island 7,B&B Theaters,Grand Island,NE,AARGL, 40.93594, -98.38129,9
B&B Theatres Omaha Oakview Plaza 14,B&B Theaters,Omaha,NE,AAEAB, 41.22528, -96.13000,9
B&B Theatres Macedonia,B&B Theaters,Macedonia,OH,AAMFW, 41.30968, -81.51587,9
B&B Theatres Claremore Cinema 8,B&B Theaters,Claremore,OK,AATLS, 36.29290, -95.62390,9
B&B Theatres Miami Cineplex,B&B Theaters,Miami,OK,AAWAG, 36.87800, -94.87750,9
B&B Theatres Sapulpa Cinema 8,B&B Theaters,Sapulpa,OK,AARGP, 36.01180, -96.09880,9
B&B Theatres Tulsa Starworld 20,B&B Theaters,Tulsa,OK,AAMEQ, 36.01460, -95.88580,9
B&B Theatres Conway 12,B&B Theaters,Conway,SC,AAUOV, 33.85506, -79.08974,9
B&B Theatres North Richland Hills 8,B&B Theaters,North Richland Hills,TX,AAYOG, 32.83887, -97.21427,9
B&B Theatres Port Arthur Central Mall 10,B&B Theaters,Port Arthur,TX,AAOQU, 29.95180, -93.98890,9
B&B Theatres Portland Northshore 8,B&B Theaters,Portland,TX,AAUWK, 27.89818, -97.31184,9
B&B Theaters Red Oak 12,B&B Theaters,Red Oak,TX,AAYYZ, 32.53766, -96.82548,9
B&B Theatres Wylie 12 with Marquee Suites & GS,B&B Theaters,Wylie,TX,AAXAP, 33.00340, -96.57760,9
B&B Theatres Blacksburg 11,B&B Theaters,Blacksburg,VA,AAXMM, 37.21264, -80.39999,9
B&B Theatres Airway Heights 8,B&B Theaters,Airway Heights,WA,AAYVN, 47.65718,-117.56514,9
Hillsborough Cinemas,BJK Entertainment,Hillsborough,NJ,AAPDP, 40.49245, -74.64452,10
BarnZ's Barrington Cinema,BarnZs,Barrington,NH,AAVTP, 43.20770, -70.99660,11
BarnZ's Meredith Cinema,BarnZs,Meredith,NH,AAUSH, 43.66051, -71.49749,11
Bay City 10 GDX,Bay City Cinemas,Bay City,MI,AAKJR, 43.62790, -83.89189,13
Krikorian Theatres at LexLive,Big Picture Ventures,Lexington,KY,AAYVF, 38.04787, -84.50211,14
Brenden Kingman 4,Brenden Theatres,Kingman,AZ,AAVEB, 35.24102,-114.04200,16
Brenden Concord 14 & JBX,Brenden Theatres,Concord,CA,AAFWG, 37.97600,-122.03480,16
Brenden Modesto 18 & JBX,Brenden Theatres,Modesto,CA,AANCS, 37.64070,-120.99970,16
Brenden Vacaville 16 & JBX,Brenden Theatres,Vacaville,CA,AAJYN, 38.35370,-121.98520,16
Brenden Rifle 7,Brenden Theatres,Rifle,CO,AAWNW, 39.53065,-107.78500,16
Brenden Las Vegas 14 IMAX & JBX at The Palms,Brenden Theatres,Las Vegas,NV,AAQEG, 36.11540,-115.19730,16
CMX Pinnacle 14,CMX Cinemas,Gulf Shores,AL,AATQJ, 30.30130, -87.68280,19
CMX Hollywood 16 & IMAX,CMX Cinemas,Tuscaloosa,AL,AATCI, 33.16630, -87.54690,19
CMX Countryside,CMX Cinemas,Clearwater,FL,AAWMS, 28.01730, -82.73750,19
CMX Daytona 12,CMX Cinemas,Daytona Beach,FL,AAYAM, 29.19694, -81.07699,19
CMX CinéBistro CityPlace Doral,CMX Cinemas,Doral,FL,AAYAX, 25.80940, -80.33090,19
CMX Lakeside Village 18 & IMAX,CMX Cinemas,Lakeland,FL,AATTY, 28.00690, -81.97320,19
CMX Dolphin 19 & IMAX,CMX Cinemas,Miami,FL,AAPLF, 25.77820, -80.35980,19
CMX Brickell Dine-In,CMX Cinemas,Miami,FL,AAYFN, 25.76716, -80.19314,19
CMX Miami Lakes 13,CMX Cinemas,Miami Lakes,FL,AAEJZ, 25.91300, -80.30980,19
CMX CinéBistro Coastland,CMX Cinemas,Naples,FL,AAYVP, 26.17076, -81.79820,19
CMX Downtown At The Gardens + IMAX,CMX Cinemas,Palm Beach Gardens,FL,AATTX, 26.85980, -80.08700,19
CMX Tyrone 10,CMX Cinemas,Saint Petersburg,FL,AAXUS, 27.79740, -82.73480,19
CMX CinéBistro Siesta Key,CMX Cinemas,Sarasota,FL,AAXTW, 27.30100, -82.52830,19
CMX Fallschase,CMX Cinemas,Tallahassee,FL,AAYKR, 30.47580, -84.11180,19
CMX CinéBistro Hyde Park,CMX Cinemas,Tampa,FL,AAVQA, 27.93730, -82.47590,19
CMX Wellington,CMX Cinemas,Wellington,FL,AAYAE, 26.65105, -80.20900,19
CMX Grand 10,CMX Cinemas,Winter Haven,FL,AAEJL, 28.04300, -81.73610,19
CMX CinéBistro Halcyon,CMX Cinemas,Alpharetta,GA,AAYRC, 34.11220, -84.22270,19
CMX CinéBistro Peachtree Corners,CMX Cinemas,Norcross,GA,AAYOC, 33.94121, -84.21353,19
CMX Old Orchard Luxury,CMX Cinemas,Skokie,IL,AAYHU, 42.05910, -87.74950,19
CMX Odyssey IMAX,CMX Cinemas,Burnsville,MN,AAUYA, 44.74112, -93.28644,19
CMX Chateau 14,CMX Cinemas,Rochester,MN,AAQTO, 44.05946, -92.45055,19
CMX CinéBistro Waverly Place,CMX Cinemas,Cary,NC,AAXPZ, 35.73930, -78.77600,19
CMX Liberty Luxury,CMX Cinemas,Liberty Township,OH,AAXRJ, 39.37209, -84.37479,19
CMX Village 14,CMX Cinemas,Leesburg,VA,AAWKF, 39.09000, -77.52000,19
CMX CinéBistro Tysons Galleria,CMX Cinemas,McLean,VA,AAYXI, 38.92400, -77.22530,19
CMX CinéBistro Stony Point,CMX Cinemas,Richmond,VA,AAWEI, 37.54800, -77.56900,19
Camana Bay Cinema,Camana Bay Cinemas,Grand Cayman,KY,AAWGB, 19.32231, -81.37850,20
Celebration Cinema Benton Harbor,Celebration Cinema ,Benton Harbor,MI,AAGQX, 42.07620, -86.42260,21
Celebration Cinema Grand Rapids North,Celebration Cinema ,Grand Rapids,MI,AAQOU, 43.00050, -85.59300,21
Celebration Cinema Grand Rapids South,Celebration Cinema ,Grand Rapids,MI,AATVE, 42.84940, -85.62820,21
Celebration Cinema Studio Park,Celebration Cinema ,Grand Rapids ,MI,AAYXZ, 42.96030, -85.67040,21
Celebration Cinema Rivertown,Celebration Cinema ,Grandville,MI,AAUOM, 42.88210, -85.75830,21
Celebration Cinema Lansing,Celebration Cinema ,Lansing,MI,AAKAL, 42.65995, -84.55029,21
Celebration Cinema Mt Pleasant,Celebration Cinema ,Mt. Pleasant,MI,AAOWJ, 43.61390, -84.74990,21
Cinema Carousel,Celebration Cinema ,Muskegon,MI,AAHYQ, 43.17380, -86.22100,21
Studio C Meridian Mall,Celebration Cinema ,Okemos,MI,AAXAD, 42.72750, -84.42150,21
Celebration Cinema Crossroads,Celebration Cinema ,Portage,MI,AACGD, 42.22100, -85.59800,21
TCL Chinese Theatres + IMAX,Chinese Theatres,Hollywood,CA,AAACD, 34.10149,-118.34100,22
CineLux Gilroy Cafe & Lounge,Cinelux Theatres,Gilroy,CA,AAORD, 36.99786,-121.56580,23
CineLux Los Gatos Theatre,Cinelux Theatres,Los Gatos,CA,AAFRG, 37.22389,-121.98350,23
CineLux Almaden Cafe & Lounge,Cinelux Theatres,San Jose,CA,AAFQQ, 37.29035,-121.88030,23
CineLux Green Valley Cinema,Cinelux Theatres,Watsonville,CA,AANDB, 36.91657,-121.78610,23
Oaks 7 VIP Cinema,Cinema Hosting,Batesville,AR,AAJJE, 35.76836, -91.62750,24
The Movie Experience - Colony Cinemas,Cinema Hosting,Atascadero,CA,AAPEH, 35.48747,-120.66520,24
Premiere Theaters - Oaks 10,Cinema Hosting,Melbourne,FL,AAEKF, 28.08659, -80.65266,24
Hayden Cinema,Cinema Hosting,Hayden Lake,ID,AAITN, 47.74770,-116.79000,24
Sandpoint Cinemas,Cinema Hosting,Ponderay,ID,AAOYD, 48.30174,-116.54180,24
North Pointe Cinemas,Cinema Hosting,Warsaw,IN,AAKAH, 41.25189, -85.82445,24
Cine 5 Theatre,Cinema Hosting,International Falls,MN,AAPTU, 48.59880, -93.42022,24
SModcastle Cinemas,Cinema Hosting,Atlantic Highlands,NJ,AAKCR, 40.41355, -74.03774,24
The Cañon,Cinema Lab,Canon City,CO,AAVEX, 38.44612,-105.18490,25
Cineplanet 15,Cinema Management Group Inc,Madison,AL,AAYET, 34.75760, -86.74180,26
Hollywood 10 Cinema,Cinema Management Group Inc,Scottsboro,AL,AAVMA, 34.62610, -86.05270,26
Hollywood Cinema 16,Cinema Management Group Inc,Jackson,TN,AANIM, 35.66900, -88.84500,26
Cinema 1 Plus,Cinema One Plus,Washington,MO,AAGQD, 38.53690, -91.00440,27
Angels Theatre,Cinema West,Angels Camp,CA,AAOMH, 38.06928,-120.54030,28
2nd Street Cinema,Cinema West,Beaumont,CA,AAYVE, 33.92233,-116.95670,28
Veranda LUXE Cinema & IMAX,Cinema West,Concord,CA,AAYGQ, 37.97360,-122.05770,28
Cinema West Beach Cities - El Segundo,Cinema West,El Segundo,CA,AADKA, 33.90350,-118.38970,28
Fairfax Theatre,Cinema West,Fairfax,CA,AAFBI, 37.98680,-122.58760,28
Palladio 16 Cinema,Cinema West,Folsom,CA,AAVTZ, 38.64877,-121.11990,28
Palladio LUXE Cinema,Cinema West,Folsom,CA,AAXYO, 38.64910,-121.12140,28
Civic Plaza 12 Cinema,Cinema West,Hesperia,CA,AAWUX, 34.42638,-117.31990,28
Livermore 13 Cinema,Cinema West,Livermore,CA,AAUGN, 37.68358,-121.76960,28
Boulevard 14 Cinema,Cinema West,Petaluma,CA,AAITS, 38.23331,-122.63800,28
Placerville Cinema,Cinema West,Placerville,CA,AAKED, 38.73201,-120.83379,28
Cinema West Olympus Pointe,Cinema West,Roseville,CA,AACXC, 38.75725,-121.25570,28
Country Club Cinema,Cinema West,Sacramento,CA,AAYOJ, 38.60830,-121.37850,28
State Theatre and Multiplex,Cinema West,Woodland,CA,AAYEW, 38.67720,-121.77740,28
BoDo Cinema,Cinema West,Boise,ID,AATSQ, 43.61330,-116.20493,28
Village Cinema,Cinema West,Meridian,ID,AAXCD, 43.62149,-116.34950,28
Magic Valley Cinema 13,Cinema West,Twin Falls,ID,AAWQS, 42.59218,-114.45620,28
Cinemark Century Anchorage 16 and XD,Cinemark Theatres,Anchorage,AK,AAJNH, 61.18850,-149.87650,29
Cinemark Bridge Street and XD,Cinemark Theatres,Huntsville,AL,AAURU, 34.75850, -86.69020,29
Cinemark Tinseltown USA Benton,Cinemark Theatres,Benton,AR,AAIQA, 34.58610, -92.58210,29
Cinemark Towne Centre and XD,Cinemark Theatres,Conway,AR,AAWFU, 35.11220, -92.43180,29
Cinemark Colonel Glenn and XD,Cinemark Theatres,Little Rock,AR,AAQSF, 34.71060, -92.41030,29
Cinemark Mesa 16,Cinemark Theatres,Mesa,AZ,AATZN, 33.43371,-111.87040,29
Cinemark Century Oro Valley Marketplace,Cinemark Theatres,Oro Valley,AZ,AAUZR, 32.40980,-110.99560,29
Cinemark Sierra Vista 10,Cinemark Theatres,Sierra Vista,AZ,AAOJL, 31.52720,-110.25830,29
Cinemark Century El Con 20 and XD,Cinemark Theatres,Tucson,AZ,AANGB, 32.22160,-110.91590,29
Cinemark Century Park Place 20 and XD,Cinemark Theatres,Tucson,AZ,AAPQI, 32.22140,-110.86720,29
Cinemark Century Tucson Marketplace and XD,Cinemark Theatres,Tucson,AZ,AAXZU, 32.18708,-110.95390,29
Cinemark Jess Ranch,Cinemark Theatres,Apple Valley,CA,AAVIT, 34.47090,-117.24740,29
Cinemark Carson and XD,Cinemark Theatres,Carson,CA,AAXOC, 33.84360,-118.26310,29
Cinemark Tinseltown Chico 14 and XD,Cinemark Theatres,Chico,CA,AANSN, 39.76080,-121.84520,29
Cinemark Chino Movies 8,Cinemark Theatres,Chino,CA,AAHOP, 34.03310,-117.68260,29
Cinemark Century Daly City 20 XD and IMAX,Cinemark Theatres,Daly City,CA,AAQLT, 37.70214,-122.47030,29
Cinemark Downey and XD,Cinemark Theatres,Downey,CA,AAXSY, 33.91674,-118.12980,29
Cinemark Imperial Valley Mall 14,Cinemark Theatres,El Centro,CA,AAUTF, 32.75750,-115.53480,29
Cinemark Century Laguna 16 and XD,Cinemark Theatres,Elk Grove,CA,AACFA, 38.41980,-121.40530,29
Cinemark Century Folsom 14,Cinemark Theatres,Folsom,CA,AACFC, 38.64230,-121.18520,29
Cinemark Century at Pacific Commons and XD,Cinemark Theatres,Fremont,CA,AAWQB, 37.50394,-121.97340,29
Cinemark Hanford Movies 8,Cinemark Theatres,Hanford,CA,AAIOX, 36.32790,-119.66850,29
Cinemark Century Southland Mall,Cinemark Theatres,Hayward,CA,AAYNH, 37.65070,-122.10080,29
Cinemark Century at Hayward,Cinemark Theatres,Hayward,CA,AAVAC, 37.67354,-122.08140,29
Cinemark Century Huntington Beach and XD,Cinemark Theatres,Huntington Beach,CA,AATTF, 33.73030,-117.99330,29
Cinemark Century La Quinta and XD,Cinemark Theatres,La Quinta,CA,AAXRH, 33.70856,-116.29490,29
Cinemark Lancaster IMAX and ScreenX,Cinemark Theatres,Lancaster,CA,AANES, 34.70380,-118.17300,29
Cinemark At The Pike Outlets and XD,Cinemark Theatres,Long Beach,CA,AARDY, 33.77000,-118.18600,29
Cinemark Howard Hughes Los Angeles and XD,Cinemark Theatres,Los Angeles,CA,AAPIW, 33.97810,-118.39150,29
Cinemark Baldwin Hills Crenshaw and XD,Cinemark Theatres,Los Angeles,CA,AAWJU, 34.01160,-118.33740,29
Cinemark Century Marina and XD,Cinemark Theatres,Marina,CA,AAXQE, 36.66460,-121.80950,29
Cinemark Century Great Mall 20 XD and ScreenX,Cinemark Theatres,Milpitas,CA,AAPCG, 37.41330,-121.89750,29
Cinemark Century Monterey 13,Cinemark Theatres,Monterey,CA,AATCN, 36.58440,-121.89960,29
Cinemark Century Mountain View 16,Cinemark Theatres,Mountain View,CA,AACFX, 37.41470,-122.08090,29
Cinemark Century Napa Valley and XD,Cinemark Theatres,Napa,CA,AAWTT, 38.28300,-122.27850,29
Cinemark Century North Hollywood,Cinemark Theatres,North Hollywood,CA,AACEL, 34.18670,-118.41130,29
Cinemark Century Rowland Plaza,Cinemark Theatres,Novato,CA,AAQCK, 38.09489,-122.55630,29
Cinemark Century Orange and XD,Cinemark Theatres,Orange,CA,AAEGJ, 33.80770,-117.86860,29
Cinemark Century Riverpark and XD,Cinemark Theatres,Oxnard,CA,AAWTS, 34.24097,-119.17550,29
Cinemark at Antelope Valley Mall,Cinemark Theatres,Palmdale,CA,AAUFT, 34.60180,-118.15470,29
Cinemark Playa Vista and XD,Cinemark Theatres,Playa Vista,CA,AAXLR, 33.97751,-118.41652,29
Cinemark Century Downtown Pleasant Hill 16 and XD,Cinemark Theatres,Pleasant Hill,CA,AAQAM, 37.94470,-122.06180,29
Cinemark Century at the River and XD,Cinemark Theatres,Rancho Mirage,CA,AAQMO, 33.74000,-116.41010,29
Cinemark Redding 14 and XD,Cinemark Theatres,Redding,CA,AAIPO, 40.58840,-122.34590,29
Cinemark Century Redwood Downtown 20 and XD,Cinemark Theatres,Redwood City,CA,AAUBF, 37.48576,-122.22860,29
Cinemark Bistro Renaissance Marketplace and XD,Cinemark Theatres,Rialto,CA,AAYLH, 34.13535,-117.39810,29
Cinemark Century Hilltop 16,Cinemark Theatres,Richmond,CA,AAQAL, 37.98180,-122.32150,29
Cinemark Century Blue Oaks Theatres and XD,Cinemark Theatres,Rocklin,CA,AAWFR, 38.79819,-121.29240,29
Cinemark Roseville Galleria Mall and XD,Cinemark Theatres,Roseville,CA,AAYWE, 38.77403,-121.27460,29
Cinemark Century Greenback Lane 16 and XD,Cinemark Theatres,Sacramento,CA,AAQSI, 38.67960,-121.33400,29
Cinemark Century Arden 14 and XD,Cinemark Theatres,Sacramento,CA,AAXZV, 38.59386,-121.41870,29
Cinemark Century DOCO and XD,Cinemark Theatres,Sacramento,CA,AAYHO, 38.58165,-121.50170,29
Cinemark Century Northridge Mall 14,Cinemark Theatres,Salinas,CA,AACFH, 36.71840,-121.65210,29
Cinemark Century at Tanforan and XD,Cinemark Theatres,San Bruno,CA,AAUTX, 37.63799,-122.41800,29
Cinemark Century Oakridge 20 XD and ScreenX,Cinemark Theatres,San Jose,CA,AARBX, 37.25050,-121.86170,29
Cinemark CinéArts Santana Row,Cinemark Theatres,San Jose,CA,AASUR, 37.31912,-121.94860,29
Cinemark Century San Mateo 12,Cinemark Theatres,San Mateo,CA,AAQSG, 37.56640,-122.32280,29
Cinemark Tracy 14,Cinemark Theatres,Tracy,CA,AAHCV, 37.75980,-121.46090,29
Cinemark Century Union Landing 25 and XD,Cinemark Theatres,Union City,CA,AANAY, 37.58830,-122.06560,29
Cinemark Century Vallejo 14,Cinemark Theatres,Vallejo,CA,AAPIS, 38.13210,-122.21460,29
Cinemark Century Ventura Downtown 10,Cinemark Theatres,Ventura,CA,AAJAY, 34.28100,-119.29130,29
Cinemark 16 Victorville and XD,Cinemark Theatres,Victorville,CA,AAUFS, 34.47040,-117.34970,29
Cinemark Century Walnut Creek 14 and XD,Cinemark Theatres,Walnut Creek,CA,AARAR, 37.89660,-122.06150,29
Cinemark Yuba City,Cinemark Theatres,Yuba City,CA,AAVBG, 39.13080,-121.63710,29
Cinemark Century Aurora and XD,Cinemark Theatres,Aurora,CO,AAJNI, 39.70598,-104.82070,29
Cinemark Century Boulder,Cinemark Theatres,Boulder,CO,AAUNI, 40.01660,-105.25610,29
Cinemark Tinseltown Colorado Springs and XD,Cinemark Theatres,Colorado Springs,CO,AAIQK, 38.79200,-104.79800,29
Cinemark Carefree Circle and IMAX,Cinemark Theatres,Colorado Springs,CO,AAPDK, 38.87480,-104.71950,29
Cinemark Fort Collins,Cinemark Theatres,Fort Collins,CO,AAOSZ, 40.52140,-105.03880,29
Cinemark Bistro Fort Collins and XD,Cinemark Theatres,Fort Collins,CO,AAXRY, 40.54432,-105.07640,29
Cinemark Greeley,Cinemark Theatres,Greeley,CO,AARLQ, 40.39006,-104.71363,29
Cinemark Century Bel Mar 16 and XD,Cinemark Theatres,Lakewood,CO,AARMQ, 39.70880,-105.07640,29
Cinemark Tinseltown Pueblo,Cinemark Theatres,Pueblo,CO,AAIQL, 38.31170,-104.61360,29
Cinemark Buckland Hills 18 XD and IMAX,Cinemark Theatres,Manchester,CT,AAFUV, 41.80104, -72.54775,29
Cinemark Connecticut Post 14 and IMAX,Cinemark Theatres,Milford,CT,AATXH, 41.23720, -73.03750,29
Cinemark North Haven and XD,Cinemark Theatres,North Haven,CT,AAXPM, 41.35840, -72.87190,29
Cinemark Christiana and XD,Cinemark Theatres,Christiana,DE,AAXJL, 39.68060, -75.65130,29
Cinemark Wilmington Movies 10,Cinemark Theatres,Wilmington,DE,AAIMP, 39.71570, -75.63100,29
Cinemark Bistro Boca Raton and XD,Cinemark Theatres,Boca Raton,FL,AAOUV, 26.37910, -80.11200,29
Cinemark Boynton Beach 14 and XD,Cinemark Theatres,Boynton Beach,FL,AAULK, 26.53490, -80.09070,29
Cinemark Paradise 24 and XD,Cinemark Theatres,Davie,FL,AAMDD, 26.02850, -80.35680,29
Cinemark Tinseltown Jacksonville and XD,Cinemark Theatres,Jacksonville,FL,AAILI, 30.26341, -81.55394,29
Cinemark Jacksonville Atlantic North and XD,Cinemark Theatres,Jacksonville,FL,AAYVY, 30.32406, -81.49888,29
Cinemark Lakeland Square Mall and XD,Cinemark Theatres,Lakeland,FL,AAXCY, 28.09090, -81.97390,29
Universal Cinemark at CityWalk and XD,Cinemark Theatres,Orlando,FL,AANEY, 28.47450, -81.46360,29
Cinemark Orlando and XD,Cinemark Theatres,Orlando,FL,AAOJK, 28.46320, -81.45060,29
Cinemark Durbin Park and XD,Cinemark Theatres,St. Johns,FL,AAYSV, 30.09834, -81.52156,29
Cinemark Tinseltown Fayetteville 17 and XD,Cinemark Theatres,Fayetteville,GA,AAITI, 33.47750, -84.42940,29
Cinemark Altoona and XD ,Cinemark Theatres,Altoona,IA,AAXUA, 41.66030, -93.48917,29
Cinemark Ames Movies 12,Cinemark Theatres,Ames,IA,AAIQO, 42.01040, -93.61150,29
Cinemark Davenport 18 XD and IMAX,Cinemark Theatres,Davenport,IA,AAKOW, 41.57470, -90.52160,29
Cinemark Century Jordan Creek 20 and XD,Cinemark Theatres,West Des Moines,IA,AASUS, 41.56978, -93.80437,29
Cinemark Majestic Cinemas,Cinemark Theatres,Meridian,ID,AATNU, 43.59148,-116.36625,29
Cinemark Bourbonnais Movies 10,Cinemark Theatres,Bourbonnais,IL,AAIQB, 41.16410, -87.85080,29
Cinemark Century Deer Park 16,Cinemark Theatres,Deer Park,IL,AARMR, 42.16350, -88.05500,29
Cinemark Louis Joliet Mall,Cinemark Theatres,Joliet,IL,AAVIR, 41.57638, -88.16682,29
Cinemark Melrose Park,Cinemark Theatres,Melrose Park,IL,AAMIA, 41.90830, -87.84730,29
Cinemark Tinseltown USA Aurora,Cinemark Theatres,North Aurora,IL,AAITE, 41.79248, -88.32291,29
Cinemark Cantera Warrenville and XD,Cinemark Theatres,Warrenville,IL,AACYL, 41.80502, -88.17106,29
Cinemark Spring Hill Mall and XD,Cinemark Theatres,West Dundee,IL,AAYAN, 42.10029, -88.29534,29
Cinemark Seven Bridges and IMAX,Cinemark Theatres,Woodridge,IL,AAOON, 41.76410, -88.06670,29
Cinemark Greenwood Corner,Cinemark Theatres,Indianapolis,IN,AAIMJ, 39.63948, -86.12787,29
Cinemark South Bend Movies 14,Cinemark Theatres,Mishawaka,IN,AAIPJ, 41.69490, -86.19480,29
Cinemark Valparaiso,Cinemark Theatres,Valparaiso,IN,AAUUF, 41.48190, -87.03180,29
Cinemark Merriam and XD,Cinemark Theatres,Merriam,KS,AALAV, 39.02939, -94.68805,29
Cinemark Ashland,Cinemark Theatres,Ashland,KY,AAIOS, 38.48580, -82.65410,29
Cinemark Florence 14 and XD,Cinemark Theatres,Florence,KY,AAUXE, 38.99090, -84.65130,29
Cinemark Fayette Mall and XD,Cinemark Theatres,Lexington,KY,AAUAP, 37.98370, -84.53063,29
Cinemark Mall St. Matthews and XD,Cinemark Theatres,Louisville,KY,AAWYP, 38.25026, -85.62466,29
Cinemark Tinseltown Louisville and XD,Cinemark Theatres,Louisville,KY,AAIQI, 38.30227, -85.55790,29
Cinemark Preston Crossings 16 and XD,Cinemark Theatres,Louisville,KY,AARFH, 38.10442, -85.67030,29
Cinemark Paducah,Cinemark Theatres,Paducah,KY,AAQLK, 37.07510, -88.69070,29
Cinemark at Richmond Centre,Cinemark Theatres,Richmond,KY,AAVCJ, 37.76330, -84.29090,29
Cinemark Perkins Rowe and XD,Cinemark Theatres,Baton Rouge,LA,AAUIR, 30.38104, -91.09678,29
Cinemark Lake Charles and XD,Cinemark Theatres,Lake Charles,LA,AASWW, 30.20100, -93.22680,29
Cinemark Bistro Lake Charles,Cinemark Theatres,Lake Charles,LA,AAXVH, 30.19425, -93.17463,29
Cinemark Shreveport South Tinseltown and XD,Cinemark Theatres,Shreveport,LA,AAITF, 32.42660, -93.71790,29
Cinemark Tinseltown West Monroe 17,Cinemark Theatres,West Monroe,LA,AAIQN, 32.50770, -92.15900,29
Cinemark At Hampshire Mall and XD,Cinemark Theatres,Hadley,MA,AAPCQ, 42.35890, -72.54900,29
Cinemark West Springfield 15,Cinemark Theatres,West Springfield,MA,AACKT, 42.12680, -72.62720,29
Cinemark Egyptian 24 and XD,Cinemark Theatres,Hanover,MD,AAPDL, 39.14290, -76.73440,29
Cinemark Towson and XD,Cinemark Theatres,Towson,MD,AAXGT, 39.40480, -76.60120,29
Cinemark Flint West 14,Cinemark Theatres,Flint,MI,AACUJ, 43.00390, -83.75280,29
Cinemark Southland Mall and XD,Cinemark Theatres,Taylor,MI,AAXVG, 42.20032, -83.25428,29
Ann Arbor 20 + IMAX,Cinemark Theatres,Ypsilanti,MI,AACUH, 42.22770, -83.68020,29
Cinemark River Hills Mall Movies 8,Cinemark Theatres,Mankato,MN,AAIMU, 44.17000, -93.95250,29
Cinemark Gulfport 16,Cinemark Theatres,Gulfport,MS,AAOBV, 30.44200, -89.09060,29
Cinemark Pearl 17 and XD,Cinemark Theatres,Pearl,MS,AAITJ, 32.26010, -90.13270,29
Cinemark Tupelo Movies 8,Cinemark Theatres,Tupelo,MS,AAINX, 34.31530, -88.70350,29
Cinemark Helena and XD,Cinemark Theatres,Helena,MT,AATLN, 46.59740,-112.03540,29
Cinemark Signature Stadium Kalispell 14,Cinemark Theatres,Kalispell,MT,AAUPH, 48.20180,-114.29480,29
Cinemark Asheboro,Cinemark Theatres,Asheboro,NC,AAREE, 35.66370, -79.76270,29
Cinemark Bistro at The Carolina Asheville,Cinemark Theatres,Asheville,NC,AAVBP, 35.51120, -82.52650,29
Cinemark Bistro Charlotte,Cinemark Theatres,Charlotte,NC,AAVBQ, 35.14070, -80.73970,29
Cinemark Bistro Raleigh,Cinemark Theatres,Raleigh,NC,AAVBO, 35.87090, -78.71680,29
Cinemark Tinseltown Salisbury,Cinemark Theatres,Salisbury,NC,AAIQF, 35.65170, -80.45830,29
Cinemark Rockingham Park and XD,Cinemark Theatres,Salem,NH,AAYSP, 42.77233, -71.23447,29
Cinemark Hazlet 12,Cinemark Theatres,Hazlet,NJ,AACKW, 40.41710, -74.17010,29
Cinemark Somerdale 16 and XD,Cinemark Theatres,Somerdale,NJ,AADKO, 39.85860, -75.01730,29
Cinemark Watchung and XD,Cinemark Theatres,Watchung,NJ,AAYPG, 40.64690, -74.41073,29
Cinemark Willowbrook Mall and XD,Cinemark Theatres,Wayne,NJ,AAYRX, 40.88970, -74.25620,29
Cinemark Century Rio Plex 24 and XD,Cinemark Theatres,Albuquerque,NM,AACWA, 35.14164,-106.60160,29
Cinemark Cinedome Henderson 12,Cinemark Theatres,Henderson,NV,AACEH, 36.02700,-114.96730,29
Cinemark Century Suncoast 16 and XD,Cinemark Theatres,Las Vegas,NV,AAOZL, 36.16920,-115.29560,29
Cinemark Century Orleans 18 and XD,Cinemark Theatres,Las Vegas,NV,AADZY, 36.10080,-115.20060,29
Cinemark Century Santa Fe Station 16 and XD,Cinemark Theatres,Las Vegas,NV,AATKM, 36.25590,-115.22820,29
Cinemark Century Sam's Town 18,Cinemark Theatres,Las Vegas,NV,AAPBY, 36.11160,-115.06180,29
Cinemark Century South Point 16 and XD,Cinemark Theatres,Las Vegas,NV,AATTH, 36.01328,-115.17280,29
Cinemark Century Park Lane 16,Cinemark Theatres,Reno,NV,AAIQG, 39.50570,-119.80030,29
Cinemark Century Summit Sierra,Cinemark Theatres,Reno,NV,AAUIX, 39.40870,-119.75000,29
Cinemark Tinseltown Rochester and IMAX,Cinemark Theatres,Rochester,NY,AAIPN, 43.14500, -77.71830,29
Cinemark The Greene 14 and IMAX,Cinemark Theatres,Beavercreek,OH,AAUJK, 39.69341, -84.10473,29
Cinemark Tinseltown Boardman and XD ,Cinemark Theatres,Boardman,OH,AAIPY, 41.02100, -80.66270,29
Cinemark Western Hills 14,Cinemark Theatres,Cincinnati,OH,AACJT, 39.17410, -84.64150,29
Cinemark Oakley Station and XD,Cinemark Theatres,Cincinnati,OH,AAXAE, 39.16110, -84.43030,29
Cinemark Polaris 18 and XD,Cinemark Theatres,Columbus,OH,AATVF, 40.14687, -82.98618,29
Cinemark Cuyahoga Falls and XD,Cinemark Theatres,Cuyahoga Falls,OH,AAXJK, 41.15150, -81.50860,29
Cinemark Stoneridge Plaza Movies 16,Cinemark Theatres,Gahanna,OH,AAGLU, 40.05260, -82.87390,29
Cinemark Huber Heights 16,Cinemark Theatres,Huber Heights,OH,AACMH, 39.86460, -84.14280,29
Cinemark River Valley Mall and XD,Cinemark Theatres,Lancaster,OH,AAXHY, 39.73020, -82.62810,29
Cinemark Fallen Timbers 14 and XD,Cinemark Theatres,Maumee,OH,AAURY, 41.57760, -83.67920,29
Cinemark Milford 16,Cinemark Theatres,Milford,OH,AAPCK, 39.18030, -84.25090,29
Cinemark Bistro North Canton,Cinemark Theatres,North Canton,OH,AAIOI, 40.87090, -81.42450,29
Cinemark Tinseltown North Canton and XD,Cinemark Theatres,North Canton,OH,AAIPX, 40.87250, -81.43890,29
Cinemark Ontario Towne Center,Cinemark Theatres,Ontario,OH,AASWV, 40.77890, -82.52160,29
Cinemark Levis Commons 12,Cinemark Theatres,Perrysburg,OH,AATBR, 41.54570, -83.59980,29
Cinemark Miami Valley,Cinemark Theatres,Piqua,OH,AAVCS, 40.14670, -84.21050,29
Cinemark Sandusky Mall,Cinemark Theatres,Sandusky,OH,AAWET, 41.41630, -82.67210,29
Cinemark Strongsville at Southpark Mall,Cinemark Theatres,Strongsville,OH,AAUIU, 41.31480, -81.80930,29
Cinemark Franklin Park 16 and XD,Cinemark Theatres,Toledo,OH,AATKZ, 41.69770, -83.64110,29
Cinemark Valley View and XD,Cinemark Theatres,Valley View,OH,AANHI, 41.39840, -81.62680,29
Cinemark Dayton South 16 and XD,Cinemark Theatres,West Carrollton,OH,AAPCL, 39.64220, -84.22530,29
Cinemark Wooster Movies 10,Cinemark Theatres,Wooster,OH,AAIMN, 40.85190, -81.94810,29
Cinemark Colony Square,Cinemark Theatres,Zanesville,OH,AAUCA, 39.98820, -82.02280,29
Cinemark Ada,Cinemark Theatres,Ada,OK,AAXCW, 34.78560, -96.68250,29
Cinemark Broken Arrow,Cinemark Theatres,Broken Arrow,OK,AAWAD, 36.06410, -95.76950,29
Cinemark Tinseltown Oklahoma City and XD,Cinemark Theatres,Oklahoma City,OK,AAITG, 35.53130, -97.47640,29
Cinemark Tulsa and IMAX,Cinemark Theatres,Tulsa,OK,AAOPP, 36.06070, -95.85650,29
Cinemark Cedar Hills 16,Cinemark Theatres,Beaverton,OR,AATBX, 45.49908,-122.81220,29
Cinemark Clackamas Town Center and XD,Cinemark Theatres,Clackamas,OR,AAUNH, 45.43640,-122.57880,29
Cinemark Tinseltown Medford 15,Cinemark Theatres,Medford,OR,AAIQM, 42.33130,-122.86380,29
Cinemark Century Eastport Plaza 16,Cinemark Theatres,Portland,OR,AAJMZ, 45.49289,-122.57880,29
Cinemark Eugene Springfield 17,Cinemark Theatres,Springfield,OR,AAMZT, 44.07470,-123.04110,29
Cinemark Tinseltown Erie,Cinemark Theatres,Erie,PA,AAIPG, 42.05930, -80.08740,29
Cinemark Center Township Marketplace,Cinemark Theatres,Monaca,PA,AASWC, 40.65790, -80.31450,29
Cinemark Monroeville Mall and XD,Cinemark Theatres,Monroeville,PA,AAXBV, 40.42887, -79.79680,29
Cinemark Montage Mountain 20 and XD,Cinemark Theatres,Moosic,PA,AAOHB, 41.36070, -75.67910,29
Cinemark University City Penn 6,Cinemark Theatres,Philadelphia,PA,AAQOG, 39.95310, -75.20293,29
Cinemark North Hills and XD,Cinemark Theatres,Pittsburgh,PA,AAXIW, 40.57900, -80.01600,29
Cinemark Robinson Township and XD,Cinemark Theatres,Pittsburgh,PA,AAVPP, 40.43819, -80.14832,29
Cinemark Stroud Mall and XD,Cinemark Theatres,Stroudsburg,PA,AABPW, 40.99010, -75.22453,29
Cinemark Bluffton,Cinemark Theatres,Bluffton,SC,AAWIY, 32.28408, -80.91054,29
Cinemark Myrtle Beach,Cinemark Theatres,Myrtle Beach,SC,AARGE, 33.69300, -78.91420,29
Cinemark Summerville,Cinemark Theatres,Summerville,SC,AAINZ, 32.95220, -80.16330,29
Cinemark Century East at Dawley Farm,Cinemark Theatres,Sioux Falls,SD,AAVZZ, 43.53741, -96.65574,29
Cinemark Century Sioux Falls 14 and XD,Cinemark Theatres,Sioux Falls,SD,AANYZ, 43.52540, -96.77800,29
Cinemark Tinseltown Oak Ridge,Cinemark Theatres,Oak Ridge,TN,AAJKK, 36.01190, -84.25560,29
Cinemark Abilene and XD,Cinemark Theatres,Abilene,TX,AAYFI, 32.49138, -99.72430,29
Cinemark Century Abilene 12,Cinemark Theatres,Abilene,TX,AAITK, 32.40480, -99.76780,29
Cinemark Allen 16 and XD,Cinemark Theatres,Allen,TX,AATZM, 33.14517, -96.67612,29
Cinemark Amarillo Hollywood 16 and XD,Cinemark Theatres,Amarillo,TX,AAIQJ, 35.11360,-101.91070,29
Cinemark Athens Cinema 4,Cinemark Theatres,Athens,TX,AAKJQ, 32.19860, -95.85390,29
Cinemark Southpark Meadows,Cinemark Theatres,Austin,TX,AAUIY, 30.16563, -97.78805,29
Cinemark Beaumont 15 and XD,Cinemark Theatres,Beaumont,TX,AAIPU, 30.03710, -94.15190,29
Cinemark Hill Country Galleria,Cinemark Theatres,Bee Cave,TX,AAUNJ, 30.30680, -97.94030,29
Cinemark Cinema Big Spring 4,Cinemark Theatres,Big Spring,TX,AATZW, 32.23460,-101.49430,29
Cinemark Sunrise Mall and XD,Cinemark Theatres,Brownsville,TX,AAOVX, 25.96600, -97.47440,29
Cinemark Cedar Hill,Cinemark Theatres,Cedar Hill,TX,AATBQ, 32.58880, -96.94630,29
Cinemark Cedar Park,Cinemark Theatres,Cedar Park,TX,AAUNK, 30.52460, -97.81810,29
Cinemark Cleburne Cinema 6,Cinemark Theatres,Cleburne,TX,AAINH, 32.33670, -97.41710,29
Cinemark College Station and XD,Cinemark Theatres,College Station,TX,AAIRK, 30.63560, -96.30306,29
Cinemark Century Corpus Christi 16 XD and IMAX,Cinemark Theatres,Corpus Christi,TX,AANER, 27.69830, -97.35260,29
Cinemark Cypress and XD,Cinemark Theatres,Cypress,TX,AATUI, 29.96947, -95.69145,29
CUT! by Cinemark Cypress - Dine-in Theatre & Bar,Cinemark Theatres,Cypress,TX,AAYTY, 29.99499, -95.75402,29
Cinemark Dallas XD and IMAX,Cinemark Theatres,Dallas,TX,AACBT, 32.90990, -96.87260,29
Cinemark Del Rio Movies 8,Cinemark Theatres,Del Rio,TX,AAIPW, 29.38830,-100.90490,29
Cinemark Denton 14,Cinemark Theatres,Denton,TX,AATFB, 33.17552, -97.09934,29
Cinemark Mall de Las Aguilas,Cinemark Theatres,Eagle Pass,TX,AAKLW, 28.70200,-100.48300,29
Cinemark Bistro Edinburg,Cinemark Theatres,Edinburg,TX,AAXAH, 26.26436, -98.19060,29
Gamescape by Cinemark at El Paso,Cinemark Theatres,El Paso,TX,AAYZR, 31.68994,-106.26907,29
Cinemark Tinseltown Las Palmas XD and ScreenX,Cinemark Theatres,El Paso,TX,AAIPZ, 31.72550,-106.30870,29
Cinemark Cielo Vista Mall 14 and XD,Cinemark Theatres,El Paso,TX,AATXC, 31.77595,-106.37780,29
Cinemark East Montana and XD,Cinemark Theatres,El Paso,TX,AAXBQ, 31.80930,-106.24490,29
Cinemark West El Paso XD and ScreenX,Cinemark Theatres,El Paso,TX,AAQYJ, 31.83265,-106.56430,29
Cinemark Alliance Town Center and XD,Cinemark Theatres,Fort Worth,TX,AAWQH, 32.90936, -97.31446,29
Cinemark Rave Ridgmar 13 and XD,Cinemark Theatres,Fort Worth,TX,AARFI, 32.73725, -97.43428,29
CUT! by Cinemark Frisco - Dine-in Theatre, Kitchen,Cinemark Theatres,Frisco,TX,AAYOB, 33.21704,-96.82228
Cinemark Frisco Square and XD,Cinemark Theatres,Frisco,TX,AAWFX, 33.14988, -96.83759,29
Cinemark Grand Prairie,Cinemark Theatres,Grand Prairie,TX,AACBV, 32.67319, -97.00941,29
Cinemark Tinseltown Grapevine and XD,Cinemark Theatres,Grapevine,TX,AACBR, 32.91961, -97.08553,29
Cinemark Harker Heights,Cinemark Theatres,Harker Heights,TX,AAUUW, 31.07150, -97.66980,29
Cinemark Harlingen 16 and XD,Cinemark Theatres,Harlingen,TX,AAOJJ, 26.18733, -97.71442,29
Cinemark Memorial City,Cinemark Theatres,Houston,TX,AAUIS, 29.77970, -95.53590,29
Cinemark Tinseltown Houston 290 and XD,Cinemark Theatres,Houston,TX,AACMR, 29.84662, -95.49654,29
Cinemark North East Mall 18 and XD,Cinemark Theatres,Hurst,TX,AATCG, 32.83076, -97.19943,29
Cinemark Tinseltown Jacinto City and XD,Cinemark Theatres,Jacinto City,TX,AAFYH, 29.77180, -95.23070,29
Cinemark Katy and XD,Cinemark Theatres,Katy,TX,AAMZU, 29.78678, -95.77460,29
Cinemark Lancaster Movies 14,Cinemark Theatres,Lancaster,TX,AACBS, 32.60390, -96.81960,29
Cinemark Mall del Norte,Cinemark Theatres,Laredo,TX,AAUKD, 27.54590, -99.50270,29
Cinemark Lewisville and XD,Cinemark Theatres,Lewisville,TX,AAUDU, 33.00660, -96.97120,29
Cinemark Tinseltown Lubbock and XD,Cinemark Theatres,Lubbock,TX,AAKRH, 33.51970,-101.87040,29
Cinemark Lufkin,Cinemark Theatres,Lufkin,TX,AATVJ, 31.31453, -94.71678,29
Cinemark Mansfield and XD,Cinemark Theatres,Mansfield,TX,AATNP, 32.59160, -97.16340,29
Cinemark Hollywood USA McAllen North,Cinemark Theatres,McAllen,TX,AAINF, 26.23800, -98.21360,29
Cinemark North McKinney and XD,Cinemark Theatres,McKinney,TX,AAYOY, 33.23100, -96.65210,29
Cinemark Tinseltown USA Mission and XD,Cinemark Theatres,Mission,TX,AAITH, 26.19610, -98.29510,29
Cinemark Missouri City and XD,Cinemark Theatres,Missouri City,TX,AAYXM, 29.53378, -95.50831,29
Cinemark Valley Ranch and XD,Cinemark Theatres,New Caney,TX,AAYIC, 30.13507, -95.24464,29
Cinemark Century Odessa 12,Cinemark Theatres,Odessa,TX,AAGBB, 31.89620,-102.30970,29
Cinemark Paris Movies 8,Cinemark Theatres,Paris,TX,AAIPP, 33.68370, -95.54430,29
Cinemark Hollywood Pasadena and XD,Cinemark Theatres,Pasadena,TX,AACCV, 29.69200, -95.15350,29
Cinemark Pearland and XD,Cinemark Theatres,Pearland,TX,AATLV, 29.55580, -95.38760,29
Cinemark Pflugerville 20 and XD,Cinemark Theatres,Pflugerville,TX,AAEQK, 30.44769, -97.66361,29
Cinemark Stone Hill Town Center,Cinemark Theatres,Pflugerville,TX,AAWIH, 30.46830, -97.59910,29
Cinemark Pharr Town Center and XD,Cinemark Theatres,Pharr,TX,AAXDC, 26.20440, -98.20300,29
Cinemark Legacy and XD,Cinemark Theatres,Plano,TX,AANHH, 33.07083, -96.69204,29
Cinemark Central Plano,Cinemark Theatres,Plano,TX,AACBZ, 33.02514, -96.76852,29
Cinemark West Plano and XD,Cinemark Theatres,Plano,TX,AACUT, 33.04890, -96.82900,29
Cinemark Roanoke and XD,Cinemark Theatres,Roanoke,TX,AAXPT, 32.99926, -97.21883,29
Cinemark Rockwall 14 and XD,Cinemark Theatres,Rockwall,TX,AATTA, 32.87080, -96.43990,29
Cinemark Rosenberg 12,Cinemark Theatres,Rosenberg,TX,AATYQ, 29.54674, -95.76198,29
Cinemark Round Rock 14,Cinemark Theatres,Round Rock,TX,AAUEM, 30.56280, -97.69250,29
Cinemark Tinseltown USA San Angelo,Cinemark Theatres,San Angelo,TX,AAMFV, 31.43393,-100.49620,29
Cinemark McCreless Market,Cinemark Theatres,San Antonio,TX,AAUWG, 29.37651, -98.45830,29
Cinemark Movies 16,Cinemark Theatres,San Antonio,TX,AAGNO, 29.48794, -98.58725,29
Cinemark Sherman,Cinemark Theatres,Sherman,TX,AARES, 33.63590, -96.60870,29
Cinemark Spring-Klein and XD,Cinemark Theatres,Spring,TX,AAXAA, 30.08105, -95.51810,29
Cinemark Stephenville Cinema 6,Cinemark Theatres,Stephenville,TX,AAINK, 32.20620, -98.23250,29
Cinemark Temple and XD,Cinemark Theatres,Temple,TX,AAXCS, 31.08540, -97.39780,29
Cinemark Texarkana 14,Cinemark Theatres,Texarkana,TX,AATCD, 33.46330, -94.08160,29
Cinemark The Woodlands and XD,Cinemark Theatres,The Woodlands,TX,AACCT, 30.16339, -95.46845,29
Cinemark Victoria 12,Cinemark Theatres,Victoria,TX,AAPJQ, 28.86694, -96.99359,29
Cinemark Waco and XD,Cinemark Theatres,Waco,TX,AAYVZ, 31.50431, -97.15232,29
Cinemark NASA and XD,Cinemark Theatres,Webster,TX,AAOYR, 29.52420, -95.12620,29
Cinemark Weslaco Movies 10,Cinemark Theatres,Weslaco,TX,AAIPR, 26.17190, -98.01100,29
Cinemark Wichita Falls 14,Cinemark Theatres,Wichita Falls,TX,AATSY, 33.88480, -98.52800,29
Cinemark American Fork,Cinemark Theatres,American Fork,UT,AARET, 40.41020,-111.81400,29
Cinemark Draper and XD,Cinemark Theatres,Draper,UT,AAWIU, 40.53190,-111.89120,29
Cinemark Farmington at Station Park and XD,Cinemark Theatres,Farmington,UT,AAWIX, 40.98200,-111.90650,29
Cinemark Layton and XD,Cinemark Theatres,Layton,UT,AAINU, 41.07970,-111.97810,29
Cinemark Century Sandy Union Heights 16,Cinemark Theatres,Midvale,UT,AATTG, 40.61194,-111.85470,29
Cinemark Tinseltown Ogden 14,Cinemark Theatres,Ogden,UT,AAIQC, 41.19550,-111.97600,29
Cinemark University Mall,Cinemark Theatres,Orem,UT,AAVAE, 40.27830,-111.67630,29
Cinemark Provo 16,Cinemark Theatres,Provo,UT,AAODX, 40.21970,-111.66250,29
Cinemark Riverton and XD,Cinemark Theatres,Riverton,UT,AAYWY, 40.51030,-111.99590,29
Cinemark Century Salt Lake 16 and XD,Cinemark Theatres,Salt Lake City,UT,AAIWV, 40.70010,-111.88670,29
Cinemark Sugarhouse Movies 10,Cinemark Theatres,Salt Lake City,UT,AAGNL, 40.72250,-111.85780,29
Cinemark Spanish Fork and XD,Cinemark Theatres,Spanish Fork,UT,AAYHD, 40.11496,-111.65490,29
Cinemark Jordan Landing 24 and XD,Cinemark Theatres,West Jordan,UT,AAOEJ, 40.61557,-111.98260,29
Cinemark West Valley and XD,Cinemark Theatres,West Valley,UT,AAXFM, 40.71538,-112.01940,29
Cinemark Centreville,Cinemark Theatres,Centreville,VA,AACKO, 38.82770, -77.44070,29
Cinemark Chesapeake Square and XD,Cinemark Theatres,Chesapeake,VA,AAWMY, 36.82659, -76.41472,29
Cinemark Fairfax Corner and XD,Cinemark Theatres,Fairfax,VA,AARCJ, 38.85904, -77.35673,29
Cinemark City Center and XD,Cinemark Theatres,Newport News,VA,AAXGD, 37.08500, -76.47230,29
Cinemark Lincoln Square,Cinemark Theatres,Bellevue,WA,AATVL, 47.61734,-122.20180,29
Cinemark Reserve Lincoln Square Dine-In – 21+,Cinemark Theatres,Bellevue,WA,AAYFJ, 47.61493,-122.20160,29
Cinemark Century Federal Way and XD,Cinemark Theatres,Federal Way,WA,AAUJZ, 47.31350,-122.30420,29
Cinemark Totem Lake Kirkland and XD,Cinemark Theatres,Kirkland,WA,AAYUS, 47.71286,-122.18230,29
Cinemark Century Olympia,Cinemark Theatres,Olympia,WA,AAUJA, 47.04060,-122.93070,29
Cinemark Century Point Ruston and XD,Cinemark Theatres,Tacoma,WA,AAXSD, 47.29752,-122.50310,29
Cinemark Grand Cinemas,Cinemark Theatres,Walla Walla,WA,AAQTQ, 46.05838,-118.35450,29
Cinemark Tinseltown USA Kenosha,Cinemark Theatres,Kenosha,WI,AAIQH, 42.57037, -87.89219,29
Cinemark Huntington Mall,Cinemark Theatres,Barboursville,WV,AAVKY, 38.42090, -82.26210,29
Cinemark Meadowbrook Mall,Cinemark Theatres,Bridgeport,WV,AATXV, 39.29710, -80.24460,29
The Majestic 11,Cinemaworld,Vero Beach,FL,AAQMN, 27.62948, -80.39249,30
CWTheaters Lincoln Mall 16,Cinemaworld,Lincoln,RI,AATWE, 41.93540, -71.48140,30
Cinépolis Luxury Cinemas - La Costa Paseo Real,Cinepolis,Carlsbad,CA,AAWPP, 33.10521,-117.26710,31
Cinepolis Luxury Cinema La Costa Town Square,Cinepolis,Carlsbad,CA,AAYSZ, 33.08270,-117.23400,31
Cinépolis Luxury Cinemas Inglewood IMAX,Cinepolis,Inglewood,CA,AAYYG, 33.94640,-118.34400,31
Cinépolis Luxury Cinemas - Laguna Niguel,Cinepolis,Laguna Niguel,CA,AAWRY, 33.49209,-117.69840,31
Cinépolis Pico Rivera,Cinepolis,Pico Rivera,CA,AAURQ, 34.00370,-118.08970,31
Cinépolis Luxury Cinemas - Rancho Santa Margarita,Cinepolis,Rancho Santa Margarita,CA,AAWVV, 33.64366,-117.59490,31
Cinépolis Luxury Cinemas - Del Mar,Cinepolis,San Diego,CA,AAWLA, 32.95228,-117.23240,31
Cinépolis Luxury Cinemas San Mateo,Cinepolis,San Mateo,CA,AAYRV, 37.54004,-122.29850,31
Cinépolis Vista,Cinepolis,Vista,CA,AARDU, 33.22025,-117.24200,31
Cinépolis Luxury Cinemas Westlake Village,Cinepolis,Westlake Village,CA,AAWVP, 34.15826,-118.82300,31
Cinépolis West Hartford,Cinepolis,West Hartford,CT,AAUQY, 41.76038, -72.74163,31
Cinépolis Polk County IMAX,Cinepolis,Davenport,FL,AAXOD, 28.23610, -81.64350,31
Cinépolis Luxury Cinemas Jupiter,Cinepolis,Jupiter,FL,AAXPQ, 26.93585, -80.07960,31
Cinépolis Luxury Cinemas Coconut Grove,Cinepolis,Miami,FL,AAWAV, 25.72810, -80.24160,31
Cinepolis Luxury Cinema Hamlin,Cinepolis,Winter Garden,FL,AAYLE, 28.47350, -81.62450,31
Cinepolis Luxury Cinema Gaithersburg,Cinepolis,Gaithersburg,MD,AAYQN, 39.12196, -77.23523,31
Cinépolis Mansfield,Cinepolis,Hackettstown,NJ,AAMRT, 40.82430, -74.85170,31
Cinépolis Dayton,Cinepolis,Miamisburg ,OH,AAYGE, 39.59874, -84.23407,31
Moviehouse & Eatery SW Austin,Cinepolis,Austin,TX,AAYJW, 30.25450, -97.86830,31
Moviehouse & Eatery NW Austin,Cinepolis,Austin,TX,AAWUR, 30.41980, -97.84580,31
Cinepolis Luxury Cinema Victory Park,Cinepolis,Dallas,TX,AAYKN, 32.78680, -96.80930,31
Cinépolis  Euless,Cinepolis,Euless,TX,AAYFM, 32.87503, -97.10482,31
Moviehouse & Eatery Flower Mound,Cinepolis,Flower Mound,TX,AAXPP, 32.99722, -97.06550,31
Moviehouse & Eatery Keller,Cinepolis,Keller,TX,AAXKA, 32.93110, -97.23010,31
Moviehouse & Eatery McKinney,Cinepolis,McKinney,TX,AAXYR, 33.13020, -96.72370,31
Cinépolis Luxury Cinemas The Woodlands,Cinepolis,Tomball,TX,AAYRW, 30.14585, -95.55003,31
Cinergy Wheeling,Cinergy Entertainment,Wheeling,IL,AAYSD, 42.13753, -87.92712,32
Cinergy Dine-In Cinemas,Cinergy Entertainment,Charlotte,NC,AAYSG, 35.36633, -80.78600,32
Cinergy Tulsa,Cinergy Entertainment,Tulsa,OK,AAIMK, 36.06401, -95.88906,32
Cinergy Amarillo featuring EPIC,Cinergy Entertainment,Amarillo,TX,AAYMD, 35.15295,-101.94460,32
Cinergy Copperas Cove,Cinergy Entertainment,Copperas Cove,TX,AAWDT, 31.11200, -97.87200,32
Cinergy Cinemas Granbury,Cinergy Entertainment,Granbury,TX,AAOEW, 32.43230, -97.76700,32
Cinergy Cinemas Marble Falls,Cinergy Entertainment,Marble Falls,TX,AAVEY, 30.59807, -98.27241,32
Cinergy Midland featuring Epic,Cinergy Entertainment,Midland,TX,AAXDO, 31.96073,-102.14560,32
Cinergy Odessa featuring Epic,Cinergy Entertainment,Odessa,TX,AAXZP, 31.92400,-102.28760,32
City Base Entertainment,City Base Cinema,San Antonio,TX,AAWPA, 29.35419, -98.45121,33
CityPlex 12 Newark,Cityplex,Newark,NJ,AABPM, 40.73326, -74.19544,34
Classic Cinemas Cinema 12 XQ,Classic Cinemas,Carpentersville,IL,AAFRU, 42.11750, -88.26430,35
Classic Cinemas Tivoli,Classic Cinemas,Downers Grove,IL,AAFSF, 41.79590, -88.01130,35
Classic Cinemas Elk Grove XQ,Classic Cinemas,Elk Grove Village,IL,AAFRV, 42.00157, -88.00414,35
Classic Cinemas York XQ,Classic Cinemas,Elmhurst,IL,AAFSJ, 41.90160, -87.94040,35
Classic Cinemas Fox Lake,Classic Cinemas,Fox Lake,IL,AAFRW, 42.39650, -88.17900,35
Classic Cinemas Lindo,Classic Cinemas,Freeport,IL,AAFRZ, 42.29760, -89.61910,35
Classic Cinemas Paramount,Classic Cinemas,Kankakee,IL,AAFSC, 41.12190, -87.86370,35
Classic Cinemas Meadowview XQ,Classic Cinemas,Kankakee,IL,AAFSA, 41.13460, -87.87380,35
Classic Cinemas La Grange,Classic Cinemas,La Grange,IL,AAIUX, 41.81268, -87.86987,35
Classic Cinemas North Riverside XQ,Classic Cinemas,North Riverside,IL,AAVBU, 41.85020, -87.80990,35
Classic Cinemas Lake Theatre,Classic Cinemas,Oak Park,IL,AAFRY, 41.88881, -87.80141,35
Classic Cinemas Kendall 11,Classic Cinemas,Oswego,IL,AAIWI, 41.71796, -88.31500,35
Classic Cinemas Cinema 7,Classic Cinemas,Sandwich,IL,AAMHN, 41.64940, -88.60080,35
Classic Cinemas Charlestowne 18 XQ,Classic Cinemas,St. Charles,IL,AAQAW, 41.92429, -88.27015,35
Classic Cinemas Woodstock,Classic Cinemas,Woodstock,IL,AAFSI, 42.31780, -88.44740,35
Classic Cinemas Beloit XQ,Classic Cinemas,Beloit,WI,AAJOX, 42.52110, -88.98350,35
Capitol Theatre,Cleveland Cinemas,Cleveland,OH,AAVRS, 41.48420, -81.73030,36
Cedar Lee Theatre,Cleveland Cinemas,Cleveland Heights,OH,AAGYU, 41.50030, -81.56530,36
Apollo Theatre,Cleveland Cinemas,Oberlin,OH,AAKVS, 41.29150, -82.21690,36
College Station Theaters,College Station Theaters,Springfield,MO,AAVCK, 37.20950, -93.29492,37
Consolidated Theatres Pearlridge,Consolidated Theatres,Aiea,HI,AABWH, 21.38730,-157.94640,38
Consolidated Theatres Kahala,Consolidated Theatres,Honolulu,HI,AABWG, 21.27845,-157.78750,38
Consolidated Ward Theatres with TITAN LUXE,Consolidated Theatres,Honolulu,HI,AAPKA, 21.29451,-157.85340,38
Olino by Consolidated Theatres with TITAN LUXE,Consolidated Theatres,Kapolei,HI,AAXXW, 21.33570,-158.05150,38
Consolidated Theatres Kapolei,Consolidated Theatres,Kapolei,HI,AABWJ, 21.33620,-158.09110,38
Consolidated Theatres Mililani with TITAN LUXE,Consolidated Theatres,Mililani,HI,AABWF, 21.45060,-158.01940,38
Contra Costa Stadium Cinema,Contra Costa Cinema,Martinez,CA,AAACG, 37.99391,-122.11860,39
Barstow Station Cinema is D'Place,D'Place Entertainment,Barstow,CA,AAKCP, 34.89470,-117.00460,40
River Village Cinema is D'Place,D'Place Entertainment,Bonsall,CA,AACYD, 33.29648,-117.22160,40
Mary Pickford is D'Place,D'Place Entertainment,Cathedral City,CA,AAXXI, 33.78100,-116.46300,40
Dinuba Cinema 6 is D'Place ,D'Place Entertainment,Dinuba,CA,AAWDM, 36.53870,-119.38900,40
Jackson Cinema is D'Place,D'Place Entertainment,Jackson,CA,AAKDW, 38.34246,-120.76540,40
Dipson Amherst Theatre,Dipson Theatres,Buffalo,NY,AAHIW, 42.95780, -78.81870,41
Dipson McKinley Mall 6,Dipson Theatres,Buffalo,NY,AACSR, 42.78520, -78.79920,41
Flix Stadium 10,Dipson Theatres,Depew,NY,AAHJA, 42.87881, -78.69368,41
Dipson Lakewood Cinema 8,Dipson Theatres,Lakewood,NY,AALLT, 42.09830, -79.34210,41
The Capitol Theatre,Dipson Theatres,Niagara Falls,NY,AANQV, 43.08660, -78.99360,41
Movies 10,Dipson Theatres,Rochester,NY,AAIPM, 43.11266, -77.62344,41
The District Cinema,Dipson Theatres,Muncy,PA,AARNC, 41.23758, -76.82748,41
Silver Star Cinemas,Dipson Theatres,Warren,PA,AAPJU, 41.89870, -79.14960,41
Downtown Cinemas,Downtown Cinemas,Las Vegas,NV,AAYVM, 36.16179,-115.14880,42
Bruin Theater,Eastern NC Cinemas,New Bern,NC,AAKKV, 35.11838, -77.07645,43
Bear Town Cinema 6,Eastern NC Cinemas,New Bern,NC,AAWKA, 35.09540, -77.08500,43
El Capitan Theatre,El Capitan Theatre,Hollywood,CA,AACON, 34.10140,-118.33990,45
EVO Entertainment + EVX + IMAX - Delray Beach,Evo Entertainment,Delray Beach,FL,AAWXN, 26.45360, -80.18990,47
EVO Entertainment + EVX - Cary,Evo Entertainment,Cary,NC,AAXMX, 35.85019, -78.89200,47
ShowBiz Cinemas Edmond + SDX,Evo Entertainment,Edmond,OK,AAYNU, 35.68600, -97.42350,47
EVO Cinemas Belterra Village + IMAX,Evo Entertainment,Austin,TX,AAYIK, 30.20447, -97.98380,47
Violet Crown Austin,Evo Entertainment,Austin,TX,AAWJB, 30.26570, -97.74810,47
ShowBiz Cinemas + IMAX - Baytown,Evo Entertainment,Baytown,TX,AAXXA, 29.81930, -94.89800,47
Evo Entertainment Addison + EVX,Evo Entertainment,Dallas,TX,AAWZA, 32.95460, -96.81288,47
Showbiz Cinemas + IMAX – Liberty Lakes,Evo Entertainment,Houston,TX,AAYCO, 29.83120, -95.17350,47
ShowBiz Cinemas Fall Creek + SDX,Evo Entertainment,Humble,TX,AAXXB, 29.93650, -95.24530,47
EVO Entertainment + EVX + IMAX - Kyle ,Evo Entertainment,Kyle,TX,AAXKM, 30.02870, -97.85450,47
EVO Cinemas Creekside Town Center,Evo Entertainment,New Braunfels,TX,AAWOG, 29.72858, -98.07250,47
EVO Entertainment San Marcos,Evo Entertainment,San Marcos,TX,AAYBE, 29.88610, -97.92330,47
EVO Entertainment Schertz + EVX,Evo Entertainment,Schertz,TX,AAYNQ, 29.60720, -98.26950,47
EVO Entertainment Southlake Town Square + EVX,Evo Entertainment,Southlake,TX,AAUAC, 32.94474, -97.13044,47
Times Square Grand Slam,Evo Entertainment,Tyler,TX,AATGX, 32.29290, -95.30240,47
EVO Entertainment Waxahachie + IMAX,Evo Entertainment,Waxahachie,TX,AAVLR, 32.40020, -96.81900,47
Violet Crown Charlottesville,Evo Entertainment,Charlottesville,VA,AAXRX, 38.03080, -78.48250,47
EVO Entertainment + EVX - Fredericksburg,Evo Entertainment,Fredericksburg,VA,AAVZQ, 38.28882, -77.50943,47
Anacortes Cinemas,Far Away Entertainment,Anacortes,WA,AAUZI, 48.51890,-122.61410,48
Bainbridge Cinemas,Far Away Entertainment,Bainbridge Island,WA,AANVB, 47.62800,-122.52000,48
Historic Admiral,Far Away Entertainment,Seattle,WA,AAHAU, 47.58290,-122.38540,48
Varsity Theatre,Far Away Entertainment,Seattle,WA,AAXMK, 47.66070,-122.31310,48
Stanwood Cinemas,Far Away Entertainment,Stanwood,WA,AANHT, 48.23770,-122.32670,48
FatCats Gilbert Recline & Dine Cinema 6,Fat Cats,Gilbert,AZ,AAXQV, 33.37802,-111.74140,49
FatCats Mesa,Fat Cats,Mesa,AZ,AAYRO, 33.47350,-111.70750,49
FatCats Queen Creek,Fat Cats,Queen Creek,AZ,AAYUY, 33.22025,-111.64160,49
FatCats Surprise,Fat Cats,Surprise,AZ,AAYXS, 33.60220,-112.41450,49
FatCats Rexburg,Fat Cats,Rexburg,ID,AAWHN, 43.83520,-111.77800,49
FatCats Bluffdale,Fat Cats,Bluffdale,UT,AAYXR, 40.49908,-111.93440,49
FatCats Clinton,Fat Cats,Clinton,UT,AAYZH, 41.14140,-112.06600,49
FatCats Saratoga Springs,Fat Cats,Saratoga Springs,UT,AAYPR, 40.37585,-111.92120,49
Westwood Plaza Theatre,Fleegle Cinemas,Johnstown,PA,AANZN, 40.32350, -78.95580,50
Latrobe 30 Theatre & Café,Fleegle Cinemas,Latrobe,PA,AAVHD, 40.28490, -79.39070,50
Flix Brewhouse Des Moines,Flix Brewhouse,Des Moines,IA,AAXPG, 41.62970, -93.69780,51
Flix Brewhouse Carmel,Flix Brewhouse,Carmel,IN,AAXPH, 39.95958, -86.11782,51
Flix Brewhouse Albuquerque Tramway,Flix Brewhouse,Albuquerque,NM,AABBS, 35.09620,-106.49850,51
Flix Brewhouse Albuquerque,Flix Brewhouse,Albuquerque,NM,AAXZN, 35.15908,-106.68110,51
Flix Brewhouse Oklahoma City,Flix Brewhouse,Oklahoma City,OK,AAYTD, 35.56018, -97.51779,51
Flix Brewhouse El Paso,Flix Brewhouse,El Paso,TX,AAYQK, 31.88940,-106.58220,51
Flix Brewhouse Little Elm,Flix Brewhouse,Frisco,TX,AAYJA, 33.15495, -96.89098,51
Flix Brewhouse Mansfield,Flix Brewhouse,Mansfield,TX,AAYYN, 32.57166, -97.11559,51
Flix Brewhouse Round Rock,Flix Brewhouse,Round Rock,TX,AAWKE, 30.48846, -97.68003,51
Flix Brewhouse San Antonio,Flix Brewhouse,San Antonio,TX,AAYST, 29.42541, -98.71252,51
Flix Brewhouse Madison,Flix Brewhouse,Madison,WI,AAYIZ, 43.12442, -89.30612,51
State 5 Theatre,Fridley Theatres,Algona,IA,AALDS, 43.06900, -94.23480,52
Carroll 5 Theatre,Fridley Theatres,Carroll,IA,AALAC, 42.06435, -94.87040,52
Cinema 4 Theatres,Fridley Theatres,Centerville,IA,AAVFS, 40.74100, -92.86790,52
American Theatre,Fridley Theatres,Cherokee,IA,AALDU, 42.74991, -95.55281,52
Viking Theatre,Fridley Theatres,Decorah,IA,AALAD, 43.30543, -91.79366,52
The Fleur Cinema and Cafe,Fridley Theatres,Des Moines,IA,AALPN, 41.54334, -93.64169,52
Strand Theatre 3,Fridley Theatres,Grinnell,IA,AAVFT, 41.74360, -92.72570,52
Paramount 7,Fridley Theatres,Indianola,IA,AALET, 41.36000, -93.55940,52
Plaza 9 Theatres,Fridley Theatres,Marshalltown,IA,AALAJ, 42.01670, -92.91210,52
Palms 10 Theatre,Fridley Theatres,Muscatine,IA,AAMWU, 41.44150, -91.03020,52
The Trio,Fridley Theatres,Oskaloosa,IA,AAYZL, 41.29420, -92.67319,52
Copper Creek 9 Theatres,Fridley Theatres,Pleasant Hill,IA,AAONV, 41.60125, -93.52433,52
Cinema 5 Theatres,Fridley Theatres,Sioux Center,IA,AAVGC, 43.07920, -96.17550,52
The Palms Theatres - Southpark,Fridley Theatres,Spencer,IA,AAUTN, 43.12660, -95.15820,52
Vista 3 Theatres,Fridley Theatres,Storm Lake,IA,AALFH, 42.64610, -95.20060,52
State Theatre,Fridley Theatres,Washington,IA,AALOW, 41.29830, -91.69120,52
Palms Theatres & IMAX,Fridley Theatres,Waukee,IA,AAYLT, 41.61185, -93.88451,52
Rivoli Theatre 3,Fridley Theatres,Hastings,NE,AAKSO, 40.58550, -98.38810,52
Galaxy Theatres Tucson,Galaxy Theatres,Tucson,AZ,AAYNF, 32.21984,-110.77670,53
Galaxy Porterville 9,Galaxy Theatres,Porterville,CA,AAKAM, 36.07850,-119.03710,53
Galaxy Riverbank,Galaxy Theatres,Riverbank,CA,AAPAK, 37.73343,-120.95000,53
Galaxy Mission Grove,Galaxy Theatres,Riverside,CA,AACYF, 33.91488,-117.33200,53
Galaxy Tulare,Galaxy Theatres,Tulare,CA,AATFL, 36.22834,-119.33860,53
Galaxy Carson City,Galaxy Theatres,Carson City,NV,AAUON, 39.13130,-119.77620,53
Galaxy Green Valley,Galaxy Theatres,Henderson,NV,AAWXZ, 36.07217,-115.07930,53
Galaxy Boulevard Mall,Galaxy Theatres,Las Vegas,NV,AAYPK, 36.12324,-115.13410,53
Galaxy Cannery,Galaxy Theatres,North Las Vegas,NV,AATXD, 36.23836,-115.12050,53
Galaxy Victorian,Galaxy Theatres,Sparks,NV,AAYNE, 39.53658,-119.76360,53
Galaxy Legends,Galaxy Theatres,Sparks,NV,AAXEU, 39.53155,-119.72480,53
Galaxy Austin,Galaxy Theatres,Austin,TX,AAQCN, 30.32911, -97.70815,53
Galaxy Grandscape,Galaxy Theatres,The Colony,TX,AAYYJ, 33.07424, -96.86663,53
Galaxy Gig Harbor,Galaxy Theatres,Gig Harbor,WA,AAUSX, 47.30074,-122.57790,53
Galaxy Monroe,Galaxy Theatres,Monroe,WA,AAOZG, 47.86547,-121.97640,53
Beacon Brooksville Cinemas,Georgia Theatre Company,Brooksville,FL,AAOQD, 28.53350, -82.51280,54
University 16 Cinemas,Georgia Theatre Company,Athens,GA,AAWZM, 33.91488, -83.45580,54
Riverwatch Cinemas,Georgia Theatre Company,Augusta,GA,AAXSM, 33.52407, -82.01717,54
Glynn Place Cinemas,Georgia Theatre Company,Brunswick,GA,AAJIF, 31.21750, -81.48660,54
Galleria Mall Cinemas,Georgia Theatre Company,Centerville,GA,AAKJA, 32.61800, -83.68840,54
Commerce Cinemas,Georgia Theatre Company,Commerce,GA,AAUCL, 34.24790, -83.45960,54
Mountain Cinemas,Georgia Theatre Company,East Ellijay,GA,AAYKT, 34.65480, -84.48980,54
Evans Cinemas,Georgia Theatre Company,Evans,GA,AAKID, 33.53492, -82.12844,54
Liberty Cinemas,Georgia Theatre Company,Hinesville,GA,AAQDB, 31.83466, -81.59811,54
Merchants Walk Cinemas,Georgia Theatre Company,Marietta,GA,AADLJ, 33.98050, -84.42480,54
Moultrie Stadium Cinemas,Georgia Theatre Company,Moultrie,GA,AAUTL, 31.17720, -83.80340,54
Habersham Hills,Georgia Theatre Company,Mount Airy,GA,AARLK, 34.57590, -83.46360,54
Pooler Cinemas,Georgia Theatre Company,Pooler,GA,AAWGM, 32.13673, -81.24937,54
Berry Square,Georgia Theatre Company,Rome,GA,AAKBE, 34.30470, -85.17530,54
Island Cinemas,Georgia Theatre Company,Saint Simons Island,GA,AAJIG, 31.18402, -81.38179,54
Gateway Cinemas,Georgia Theatre Company,Thomasville,GA,AAKIR, 30.85040, -83.95340,54
Valdosta Stadium Cinemas,Georgia Theatre Company,Valdosta,GA,AAJIH, 30.83980, -83.32070,54
Houston Lakes,Georgia Theatre Company,Warner Robins,GA,AAVZM, 32.55050, -83.69080,54
Mall Cinemas,Georgia Theatre Company,Waycross,GA,AANLM, 31.20320, -82.32245,54
Beacon Sumter Cinemas,Georgia Theatre Company,Sumter,SC,AANEV, 33.95300, -80.37880,54
Danville Cinemas,Georgia Theatre Company,Danville,VA,AAUTJ, 36.58330, -79.42780,54
Golden Ticket Cinemas Harrison 8,Golden Ticket Cinemas,Harrison,AR,AAKCB, 36.24924, -93.11570,55
Golden Ticket Cinemas Dublin 8,Golden Ticket Cinemas,Dublin,GA,AAJYP, 32.54443, -82.95426,55
Golden Ticket Cinemas Capitol 8,Golden Ticket Cinemas,Madisonville,KY,AAQPB, 37.31956, -87.47742,55
Golden Ticket Cinemas Middlesboro 4,Golden Ticket Cinemas,Middlesboro,KY,AAKHV, 36.61795, -83.70565,55
Golden Ticket Cinemas Kandi 6,Golden Ticket Cinemas,Willmar,MN,AAJSQ, 45.10669, -95.03977,55
Golden Ticket Cinemas Meridian 9,Golden Ticket Cinemas,Meridian,MS,AALZZ, 32.35924, -88.67533,55
Golden Ticket Cinemas Butte 6,Golden Ticket Cinemas,Butte,MT,AALRS, 45.97988,-112.50590,55
Golden Ticket Ale House + ELITE,Golden Ticket Cinemas,Greensboro,NC,AAIOQ, 36.12910, -79.85680,55
Golden Ticket Greenville Grande IMAX + Elite,Golden Ticket Cinemas,Greenville,NC,AAULJ, 35.57310, -77.40690,55
Golden Ticket Cinemas Twin,Golden Ticket Cinemas,Lenoir,NC,AAYHX, 35.89970, -81.56040,55
Golden Ticket Cinemas Hastings,Golden Ticket Cinemas,Hastings,NE,AAKCE, 40.59624, -98.42620,55
Golden Ticket Cinemas Hilltop 4,Golden Ticket Cinemas,Kearney,NE,AAVFA, 40.72422, -99.08372,55
Golden Ticket Cinemas Platte River 6,Golden Ticket Cinemas,North Platte,NE,AATUD, 41.12458,-100.76070,55
Golden Ticket Cinemas Reel Lux 6,Golden Ticket Cinemas,Scottsbluff,NE,AAJRA, 41.87029,-103.64950,55
Golden Ticket Shawnee 6 + ELITE,Golden Ticket Cinemas,Shawnee,OK,AAVYP, 35.38700, -96.92780,55
Golden Ticket Cinemas DuBois 5,Golden Ticket Cinemas,Du Bois,PA,AALWD, 41.11868, -78.72968,55
Golden Ticket Cinemas Aberdeen 9,Golden Ticket Cinemas,Aberdeen,SD,AAJPE, 45.46128, -98.44175,55
Golden Ticket Cinemas Rushmore 7,Golden Ticket Cinemas,Rapid City,SD,AAJQI, 44.08299,-103.22450,55
Golden Ticket Bluefield 8,Golden Ticket Cinemas,Bluefield,WV,AALWQ, 37.29770, -81.17176,55
GQT Merritt Square 16,Goodrich Quality Theatres,Merritt Island,FL,AACBM, 28.35670, -80.68570,56
GQT Willow Knolls 14,Goodrich Quality Theatres,Peoria,IL,AAJGN, 40.77293, -89.65278,56
GQT Huntington 7,Goodrich Quality Theatres,Huntington,IN,AAMQW, 40.89540, -85.53620,56
GQT Eastside 10 IMAX,Goodrich Quality Theatres,Lafayette,IN,AAJGD, 40.41440, -86.85210,56
GQT Lebanon 7,Goodrich Quality Theatres,Lebanon,IN,AAPMZ, 40.06041, -86.47340,56
GQT Wabash Landing 9,Goodrich Quality Theatres,West Lafayette,IN,AAOTX, 40.42110, -86.90190,56
GQT West Columbia 7,Goodrich Quality Theatres,Battle Creek,MI,AAGPO, 42.29730, -85.24440,56
GQT Cadillac 4,Goodrich Quality Theatres,Cadillac,MI,AALSM, 44.24918, -85.39877,56
GQT Grand Haven 9,Goodrich Quality Theatres,Grand Haven,MI,AANPJ, 43.02939, -86.21593,56
GQT Hastings 4,Goodrich Quality Theatres,Hastings,MI,AAGRD, 42.64900, -85.28940,56
GQT Holland 7,Goodrich Quality Theatres,Holland,MI,AAGRP, 42.77890, -86.07780,56
GQT Jackson 10,Goodrich Quality Theatres,Jackson,MI,AANHN, 42.26676, -84.42794,56
GQT Kalamazoo 10,Goodrich Quality Theatres,Kalamazoo,MI,AAGPH, 42.29700, -85.65700,56
GQT Ada Lowell 5,Goodrich Quality Theatres,Lowell,MI,AAGRN, 42.93112, -85.36348,56
GQT Oxford 7,Goodrich Quality Theatres,Oxford,MI,AAKKC, 42.82360, -83.26344,56
GQT Krafft 8,Goodrich Quality Theatres,Port Huron,MI,AAKKM, 43.02439, -82.45192,56
GQT Three Rivers 6,Goodrich Quality Theatres,Three Rivers,MI,AAGRJ, 41.96710, -85.63470,56
GQT Forum 8,Goodrich Quality Theatres,Columbia,MO,AAJHN, 38.93451, -92.35805,56
GQT Capital 8,Goodrich Quality Theatres,Jefferson City,MO,AAJHP, 38.58707, -92.25005,56
GQT Pittsburgh Mills Cinemas,Goodrich Quality Theatres,Tarentum,PA,AAYVB, 40.57387, -79.79657,56
Lewisburg Cinema 8,Greater Huntington Theatre Corp,Lewisburg,WV,AAXNC, 37.80200, -80.44590,57
Fountain Place Cinema 8,Greater Huntington Theatre Corp,Logan,WV,AATXT, 37.84840, -82.00300,57
Harkins Gateway Pavilions 18,Harkins Theatres,Avondale,AZ,AAQNN, 33.46460,-112.27980,58
Harkins Casa Grande 14,Harkins Theatres,Casa Grande,AZ,AAURE, 32.88649,-111.68502,58
Harkins Chandler Crossroads Towne Center 12,Harkins Theatres,Chandler,AZ,AAUMY, 33.28280,-111.78960,58
Harkins Chandler Fashion 20,Harkins Theatres,Chandler,AZ,AAQAN, 33.30560,-111.89670,58
Harkins Flagstaff 16,Harkins Theatres,Flagstaff,AZ,AAXZJ, 35.22533,-111.58300,58
Harkins SanTan Village 16,Harkins Theatres,Gilbert,AZ,AAUMZ, 33.30660,-111.73910,58
Harkins Estrella Falls 16,Harkins Theatres,Goodyear,AZ,AAXYM, 33.46457,-112.37837,58
Harkins Superstition Springs 25,Harkins Theatres,Mesa,AZ,AAISP, 33.38100,-111.68000,58
Harkins Arrowhead Fountains 18,Harkins Theatres,Peoria,AZ,AAOSV, 33.63097,-112.23840,58
Harkins Lake Pleasant,Harkins Theatres,Peoria,AZ,AAYYC, 33.71543,-112.27400,58
Harkins Park West 14,Harkins Theatres,Peoria,AZ,AAUQQ, 33.55140,-112.27100,58
Harkins Christown 14,Harkins Theatres,Phoenix,AZ,AAUOH, 33.51960,-112.09380,58
Harkins Norterra 14,Harkins Theatres,Phoenix,AZ,AAUVH, 33.71280,-112.11190,58
Harkins Scottsdale 101,Harkins Theatres,Phoenix,AZ,AAQZJ, 33.65543,-111.92930,58
Harkins Prescott Valley 14,Harkins Theatres,Prescott Valley,AZ,AAPIR, 34.58460,-112.33880,58
Harkins Queen Creek 14,Harkins Theatres,Queen Creek,AZ,AAXMV, 33.25865,-111.64230,58
Harkins Shea 14,Harkins Theatres,Scottsdale,AZ,AACXS, 33.58210,-111.92200,58
Harkins Camelview 14 at Fashion Square,Harkins Theatres,Scottsdale,AZ,AAXSW, 33.50415,-111.92730,58
Harkins Sedona 6,Harkins Theatres,Sedona,AZ,AAISS, 34.86290,-111.79690,58
Harkins Arizona Mills and IMAX,Harkins Theatres,Tempe,AZ,AAIHC, 33.38500,-111.96590,58
Harkins Tempe Marketplace 16,Harkins Theatres,Tempe,AZ,AAUNR, 33.42947,-111.90020,58
Harkins Tucson Spectrum 18,Harkins Theatres,Tucson,AZ,AAUVM, 32.15360,-110.99040,58
Harkins Arizona Pavilions 12,Harkins Theatres,Tucson,AZ,AAURH, 32.35173,-111.08760,58
Harkins Yuma Palms 14,Harkins Theatres,Yuma,AZ,AATCB, 32.70310,-114.60430,58
Harkins Cerritos 16,Harkins Theatres,Cerritos,CA,AAXVL, 33.86100,-118.09503,58
Harkins Chino Hills 18,Harkins Theatres,Chino Hills,CA,AAUFN, 34.01070,-117.73820,58
Harkins Moreno Valley 16,Harkins Theatres,Moreno Valley,CA,AAUAQ, 33.93610,-117.27000,58
Harkins Mountain Grove,Harkins Theatres,Redlands,CA,AAXUF, 34.07360,-117.20561,58
Harkins Arvada 14,Harkins Theatres,Arvada,CO,AAYFG, 39.79170,-105.08100,58
Harkins Northfield 18,Harkins Theatres,Denver,CO,AATYG, 39.78510,-104.89190,58
Harkins Bricktown 16,Harkins Theatres,Oklahoma City,OK,AASWZ, 35.46410, -97.50980,58
The Lyric,INDY Cinema Group,Fort Collins,CO,AAUMC, 40.60280,-105.07600,59
Wildhorse Cinema + Art,INDY Cinema Group,Steamboat Springs,CO,AATZT, 40.45887,-106.81994,59
Plaza Theatre,INDY Cinema Group,Atlanta,GA,AAUDA, 33.77360, -84.35320,59
The Last Picture House,INDY Cinema Group,Davenport,IA,AAYYX, 41.52170, -90.57001,59
Wayfarer Theaters,INDY Cinema Group,Highland Park,IL,AAOYF, 42.18600, -87.80100,59
Eagle Theater Robinson,INDY Cinema Group,Robinson,IL,AAYDO, 39.00680, -87.76350,59
Streator Eagle 6,INDY Cinema Group,Streator,IL,AAYDN, 41.14540, -88.83890,59
Boulevard Theatres at Towne West,INDY Cinema Group,Wichita,KS,AAKNH, 37.67730, -97.40059,59
The Cinema at Camp Landing,INDY Cinema Group,Ashland,KY,AAVJB, 38.40011, -82.71414,59
Triplex Cinema,INDY Cinema Group,Great Barrington,MA,AAOCP, 42.19525, -73.36330,59
Images Cinema,INDY Cinema Group,Williamstown,MA,AAOCQ, 42.71060, -73.20410,59
Farmington Civic Theater,INDY Cinema Group,Farmington,MI,AAHWP, 42.46500, -83.37600,59
Screenland Armour,INDY Cinema Group,North Kansas City,MO,AAUXK, 39.14233, -94.57583,59
The Lumina Theater,INDY Cinema Group,Chapel Hill,NC,AAOUS, 35.88101, -79.06659,59
Sandhills 10 Cinemas,INDY Cinema Group,Southern Pines,NC,AAPNG, 35.17374, -79.42159,59
The Picture House Bronxville,INDY Cinema Group,Bronxville,NY,AABLI, 40.94028, -73.83437,59
Cinemapolis,INDY Cinema Group,Ithaca,NY,AAPCD, 42.43910, -76.49700,59
The Picture House Pelham,INDY Cinema Group,Pelham,NY,AAHRT, 40.90732, -73.81164,59
The Nightlight Cinema,INDY Cinema Group,Akron,OH,AAXHD, 41.08570, -81.51570,59
Mariemont Theatre,INDY Cinema Group,Cincinnati,OH,AAHAI, 39.14520, -84.37290,59
Kenwood Theatre,INDY Cinema Group,Cincinnati,OH,AAWGU, 39.20481, -84.37384,59
Esquire 6 Theatre,INDY Cinema Group,Cincinnati,OH,AAHAG, 39.14380, -84.52030,59
The Neon,INDY Cinema Group,Dayton,OH,AAIJM, 39.75690, -84.18860,59
Seneca Starvue,INDY Cinema Group,Tiffin,OH,AATYC, 41.11050, -83.21130,59
The Lyric Theater,INDY Cinema Group,Wooster,OH,AARRW, 40.79707, -81.93900,59
Metro Cinemas,INDY Cinema Group,Eugene,OR,AAWZO, 44.04990,-123.09330,59
Art House,INDY Cinema Group,Eugene,OR,AAODD, 44.04530,-123.08500,59
Cinemagic Theatre,INDY Cinema Group,Portland,OR,AAIJP, 45.51240,-122.64410,59
Water Tower Cinema,INDY Cinema Group,Lansdale,PA,AATZE, 40.23996, -75.28120,59
Terrace Theater,INDY Cinema Group,Charleston,SC,AANCM, 32.76240, -79.98480,59
Pickford Film Center,INDY Cinema Group,Bellingham,WA,AANZB, 48.75180,-122.48030,59
The Grand Cinema,INDY Cinema Group,Tacoma,WA,AAHBJ, 47.25830,-122.44350,59
Kiggins Theatre,INDY Cinema Group,Vancouver,WA,AAIJQ, 45.62910,-122.67030,59
Independence Cinema,Independence Cinemas,Independence,KS,AAGLV, 37.22520, -95.70770,60
KP Cinemas,KP Cinemas,Kalamazoo,MI,AAWYN, 42.29046, -85.58129,61
Krikorian Premiere Theatres,Krikorian Premiere Theatres,Buena Park,CA,AAQYT, 33.84400,-117.98900,62
LOOK Dine-In Cinemas Downey,LOOK Dine-In Cinemas,Downey,CA,AAHQE, 33.94226,-118.13330,63
LOOK Dine-In Cinemas Glendale,LOOK Dine-In Cinemas,Glendale,CA,AAYRE, 34.14754,-118.25370,63
LOOK Dine-In Cinemas Monrovia,LOOK Dine-In Cinemas,Monrovia,CA,AAPDC, 34.14768,-118.00080,63
LOOK Dine-In Cinemas Redlands,LOOK Dine-In Cinemas,Redlands,CA,AAHQH, 34.05843,-117.18510,63
LOOK Dine-In Cinemas Brookhaven,LOOK Dine-In Cinemas,Atlanta,GA,AAWLE, 33.87140, -84.33750,63
LOOK Dine-In Cinemas Dobbs Ferry,LOOK Dine-In Cinemas,Dobbs Ferry,NY,AAYCS, 41.00310, -73.85762,63
LOOK Dine-In Cinemas W57th St,LOOK Dine-In Cinemas,New York,NY,AAYGI, 40.77143, -73.99365,63
LOOK Dine-In Cinemas Bedford,LOOK Dine-In Cinemas,Bedford,TX,AARDZ, 32.83400, -97.13201,63
LOOK Dine-In Cinemas Arlington,LOOK Dine-In Cinemas,South Arlington,TX,AADCR, 32.67293, -97.20064,63
LOOK Dine-In Cinemas Tysons at the Boro,LOOK Dine-In Cinemas, Tysons,VA,AAYSC, 38.91200, -77.22755,63
LOOK Dine-In Cinemas Reston,LOOK Dine-In Cinemas,Reston,VA,AACKL, 38.95910, -77.35820,63
Laemmle Claremont,Laemmle Theatres,Claremont,CA,AAUOJ, 34.09538,-117.72029,64
Laemmle Town Center,Laemmle Theatres,Encino,CA,AACPX, 34.16040,-118.50680,64
Laemmle Glendale,Laemmle Theatres,Glendale,CA,AAYLK, 34.14840,-118.25390,64
Laemmle Royal,Laemmle Theatres,Los Angeles,CA,AACPC, 34.04510,-118.45220,64
Laemmle Noho 7,Laemmle Theatres,North Hollywood,CA,AAWPI, 34.16540,-118.37490,64
Laemmle Newhall,Laemmle Theatres,Santa Clarita,CA,AAYUZ, 34.38184,-118.52900,64
Laemmle Monica Film Center,Laemmle Theatres,Santa Monica,CA,AACPL, 34.01570,-118.49730,64
Landmark Scottsdale Quarter,Landmark,Scottsdale,AZ,AAWHD, 33.62466,-111.92631,65
Landmark Nuart Theatre,Landmark,Los Angeles,CA,AADDQ, 34.04633,-118.44790,65
Landmark Westwood Theatre,Landmark,Los Angeles,CA,AAQIC, 34.06156,-118.44670,65
Landmark Piedmont Theatre,Landmark,Oakland,CA,AADDW, 37.82737,-122.25090,65
Landmark Aquarius Theatre,Landmark,Palo Alto,CA,AADDA, 37.44495,-122.16370,65
Landmark Theatres Pasadena,Landmark,Pasadena,CA,AAMAX, 34.14600,-118.13550,65
Landmark Opera Plaza Cinema,Landmark,San Francisco,CA,AADDS, 37.78138,-122.42150,65
Landmark Del Mar Theatre,Landmark,Santa Cruz,CA,AAXTD, 36.97256,-122.02530,65
Landmark Theatres Sunset,Landmark,West Hollywood,CA,AACOZ, 34.09756,-118.36540,65
Landmark Mayan Theatre,Landmark,Denver,CO,AABVC, 39.71865,-104.98720,65
Landmark Greenwood Village,Landmark,Greenwood Village,CO,AAUQI, 39.61832,-104.90340,65
Landmark Atlantic Plumbing Cinema ,Landmark,Washington,DC,AAXRF, 38.91792, -77.02333,65
Landmark at Merrick Park,Landmark,Coral Gables,FL,AAYAV, 25.73183, -80.26160,65
Landmark Midtown Art Cinema,Landmark,Atlanta,GA,AAQZG, 33.77906, -84.36699,65
Landmark Century Centre Cinema,Landmark,Chicago,IL,AAOPD, 41.93338, -87.64553,65
Landmark At The Glen,Landmark,Glenview,IL,AAXJX, 42.08850, -87.82454,65
Landmark Keystone Art Cinema,Landmark,Indianapolis,IN,AATUS, 39.91465, -86.11124,65
Landmark Glendale 12,Landmark,Indianapolis,IN,AAWGD, 39.86605, -86.11812,65
Landmark Kendall Square Cinema,Landmark,Cambridge,MA,AAEIS, 42.36808, -71.08993,65
Landmark Bethesda Row Cinema,Landmark,Bethesda,MD,AAQJM, 38.98170, -77.09518,65
Landmark Lagoon Cinema,Landmark,Minneapolis,MN,AADDO, 44.94939, -93.29694,65
Landmark Closter Plaza,Landmark,Closter,NJ,AAHKL, 40.96809, -73.96333,65
Landmark Ritz Five,Landmark,Philadelphia,PA,AADJD, 39.94689, -75.14556,65
Landmark Crest Cinema Center,Landmark,Shoreline,WA,AABVL, 47.75599,-122.33892,65
Lucas Cinemas Albertville 10,Lucas Cinemas,Albertville,AL,AAYXN, 34.23520, -86.16600,66
Lucas Cinemas 10 Fort Moore Georgia,Lucas Cinemas,Fort Moore,GA,AALPD, 32.35961, -84.96466,66
Lucas Cinemas 4 ,Lucas Cinemas,Maysville,KY,AAKHR, 38.63110, -83.79850,66
MJR Adrian Digital Cinema 10,MJR Theatres,Adrian,MI,AAFRI, 41.93035, -84.00561,67
MJR Brighton Town Square Digital Cinema 20,MJR Theatres,Brighton,MI,AAFRJ, 42.54834, -83.79856,67
MJR Chesterfield Crossing Digital Cinema 16,MJR Theatres,Chesterfield,MI,AAFRK, 42.67312, -82.83770,67
MJR Partridge Creek Digital Cinema 14,MJR Theatres,Clinton Township,MI,AAUSL, 42.62759, -82.94846,67
MJR Southgate Digital Cinema 20,MJR Theatres,Southgate,MI,AAJMU, 42.19282, -83.19325,67
MJR Marketplace Digital Cinema 20,MJR Theatres,Sterling Heights,MI,AATWP, 42.55457, -83.02595,67
MJR Troy Grand Digital Cinema 16,MJR Theatres,Troy,MI,AAXHP, 42.54666, -83.14510,67
MJR Universal Grand 16,MJR Theatres,Warren,MI,AAILT, 42.50228, -83.08139,67
MJR Waterford Digital Cinema 16,MJR Theatres,Waterford,MI,AAFRL, 42.66049, -83.43412,67
MJR Westland Grand Cinema 16,MJR Theatres,Westland,MI,AAWNI, 42.33467, -83.38390,67
ACX Promenade Cinema 14,Main Street Theatres,Sioux City,IA,AATDJ, 42.49410, -96.39710,69
ACX Harper Theater,Main Street Theatres,Chicago,IL,AAWXF, 41.79980, -87.58910,69
ACX Cinema 12+,Main Street Theatres,Elkhorn,NE,AAYTK, 41.37899, -96.25340,69
ACX Aksarben Cinema,Main Street Theatres,Omaha,NE,AAWHE, 41.23970, -96.01470,69
ACX Cinema 7+,Main Street Theatres,Blue Ash,OH,AAXSV, 39.27077, -84.37370,69
ACX Entertainment Bayshore,Main Street Theatres,Glendale,WI,AAUTD, 43.12260, -87.91330,69
Majestic Chandler 9,Majestic Theaters Arizona,Chandler,AZ,AAXXZ, 33.23380,-111.84110,70
Majestic Gilbert 8,Majestic Theaters Arizona,Gilbert,AZ,AAYPX, 33.32004,-111.68700,70
Majestic Tempe 7,Majestic Theaters Arizona,Tempe,AZ,AAYIF, 33.37840,-111.92220,70
Malco Studio at Greensborough Village,Malco Theatres 2,Jonesboro,AR,AAYVQ, 35.85700, -90.66300,71
Malco Gonzales Cinema,Malco Theatres 2,Gonzales,LA,AAXFW, 30.24440, -90.91900,71
Malco Oxford Commons Cinema Grill,Malco Theatres 2,Oxford,MS,AAXCO, 34.37321, -89.49573,71
Malco Colliervile Towne Cinema Grill,Malco Theatres 2,Collierville,TN,AAKTS, 35.05370, -89.68670,71
Malco Cordova Cinema,Malco Theatres 2,Cordova,TN,AAQEZ, 35.15486, -89.77615,71
Malco Forest Hill Cinema Grill,Malco Theatres 2,Germantown,TN,AAGGE, 35.06470, -89.75920,71
Malco Studio on the Square,Malco Theatres 2,Memphis,TN,AAOST, 35.13779, -89.99110,71
Malco Powerhouse Cinema,Malco Theatres 2,Memphis,TN,AAYOR, 35.13408, -90.06067,71
Malco Wolfchase Cinema Grill,Malco Theatres 2,Memphis,TN,AAGOA, 35.20150, -89.79180,71
Malco Ridgeway Cinema Grill,Malco Theatres 2,Memphis,TN,AAGOM, 35.10560, -89.86640,71
Malco Smyrna Cinema,Malco Theatres 2,Smyrna,TN,AAVDB, 35.98082, -86.56573,71
Movie Tavern Little Rock,Marcus Theatres,Little Rock,AR,AAYIE, 34.66152, -92.41125,72
Movie Tavern Aurora,Marcus Theatres,Aurora,CO,AAUFX, 39.65475,-104.77030,72
Movie Tavern Roswell,Marcus Theatres,Roswell,GA,AAXFO, 34.06721, -84.42213,72
Movie Tavern Horizon Village,Marcus Theatres,Suwanee,GA,AAWQY, 34.02642, -84.04328,72
Movie Tavern Tucker Cinema,Marcus Theatres,Tucker,GA,AAUVK, 33.84282, -84.25142,72
Marcus Cedar Rapids Cinema,Marcus Theatres,Cedar Rapids,IA,AATLQ, 42.03020, -91.65810,72
Marcus Coral Ridge Cinema,Marcus Theatres,Coralville,IA,AAJTD, 41.69300, -91.60810,72
Marcus Sycamore Cinema,Marcus Theatres,Iowa City,IA,AAOBG, 41.64150, -91.51120,72
Marcus Crossroads Cinema,Marcus Theatres,Waterloo,IA,AAULN, 42.45950, -92.32100,72
Marcus Addison Cinema,Marcus Theatres,Addison,IL,AAFEZ, 41.95360, -88.03160,72
Marcus Bloomington Cinema + IMAX,Marcus Theatres,Bloomington,IL,AAUSA, 40.48900, -89.03670,72
Marcus Chicago Heights Cinema,Marcus Theatres,Chicago Heights,IL,AAFFF, 41.50760, -87.66900,72
Marcus Country Club Hills Cinema,Marcus Theatres,Country Club Hills,IL,AAXYD, 41.58610, -87.71850,72
Marcus Elgin Cinema,Marcus Theatres,Elgin,IL,AAHVG, 42.03010, -88.33800,72
Marcus Gurnee Mills Cinema,Marcus Theatres,Gurnee,IL,AAFFG, 42.38330, -87.95420,72
Marcus O'Fallon Cinema,Marcus Theatres,O'Fallon,IL,AAIET, 38.58850, -89.94300,72
Marcus Orland Park Cinemas,Marcus Theatres,Orland Park,IL,AANFR, 41.59250, -87.85270,72
Movie Tavern Brannon Crossing,Marcus Theatres,Nicholasville,KY,AAXQC, 37.95253, -84.52795,72
Movie Tavern Citiplace Cinema,Marcus Theatres,Baton Rouge,LA,AAXQB, 30.42256, -91.12655,72
Movie Tavern Covington,Marcus Theatres,Covington,LA,AAXHO, 30.43313, -90.08517,72
Movie Tavern Juban Crossing,Marcus Theatres,Denham Springs,LA,AAXUR, 30.46728, -90.92565,72
Marcus Duluth Cinema,Marcus Theatres,Duluth,MN,AAKPF, 46.78380, -92.09810,72
Marcus Lakes Cinema,Marcus Theatres,Hermantown,MN,AAKPE, 46.82612, -92.19740,72
Marcus Oakdale Cinema,Marcus Theatres,Oakdale,MN,AAOQW, 45.03240, -92.98110,72
Marcus Rochester Cinema + IMAX,Marcus Theatres,Rochester,MN,AAUQK, 43.95801, -92.45945,72
Marcus Rosemount Cinema,Marcus Theatres,Rosemount,MN,AAFUF, 44.72830, -93.13400,72
Marcus West End Cinema,Marcus Theatres,Saint Louis Park,MN,AAVNH, 44.96759, -93.34952,72
Marcus Southbridge Crossing Cinema,Marcus Theatres,Shakopee,MN,AAYBW, 44.77675, -93.40451,72
Marcus Parkwood Cinema,Marcus Theatres,Waite Park,MN,AAKOB, 45.55440, -94.23670,72
Marcus Arnold Cinemas,Marcus Theatres,Arnold,MO,AAMTF, 38.41310, -90.38570,72
Marcus Cape West Cinema,Marcus Theatres,Cape Girardeau,MO,AAJBI, 37.32990, -89.60110,72
Marcus Chesterfield Cinema,Marcus Theatres,Chesterfield,MO,AATHV, 38.66700, -90.60850,72
Marcus Town Square Cinema,Marcus Theatres,Dardenne Prairie,MO,AAUEU, 38.76600, -90.74590,72
Marcus Des Peres Cinema,Marcus Theatres,Des Peres,MO,AAGSG, 38.60300, -90.45200,72
Marcus Eagles Landing Cinema,Marcus Theatres,Lake Ozark,MO,AAXBS, 38.18174, -92.61024,72
Marcus St. Charles Cinema,Marcus Theatres,Saint Charles,MO,AAGSO, 38.76249, -90.52662,72
Marcus Mid Rivers Cinema,Marcus Theatres,Saint Peters,MO,AAOJF, 38.77620, -90.62500,72
Marcus Ronnie's Cinema + IMAX  ,Marcus Theatres,Sappington,MO,AAGQT, 38.52727, -90.36242,72
Marcus Century Cinema,Marcus Theatres,Fargo,ND,AAKNX, 46.86734, -96.84657,72
Marcus West Acres Cinema,Marcus Theatres,Fargo,ND,AAKPD, 46.85510, -96.84900,72
Marcus Twin Creek Cinema,Marcus Theatres,Bellevue,NE,AAPCZ, 41.13920, -95.96700,72
Marcus Edgewood Cinemas,Marcus Theatres,Lincoln,NE,AALMN, 40.76012, -96.64267,72
Marcus Lincoln Grand Cinemas,Marcus Theatres,Lincoln,NE,AAUUU, 40.81470, -96.70530,72
Marcus South Pointe Cinemas,Marcus Theatres,Lincoln,NE,AANZX, 40.74410, -96.67510,72
Marcus East Park Cinemas,Marcus Theatres,Lincoln,NE,AAKCH, 40.81510, -96.63000,72
Marcus Majestic Cinema of Omaha,Marcus Theatres,Omaha,NE,AAIGV, 41.29343, -96.13594,72
Marcus Village Pointe Cinema,Marcus Theatres,Omaha,NE,AAROW, 41.26079, -96.18675,72
Movie Tavern Syracuse,Marcus Theatres,Camillus,NY,AAXWO, 43.05701, -76.27117,72
Marcus Crosswoods Cinema,Marcus Theatres,Columbus,OH,AAIZU, 40.11480, -83.01200,72
Marcus Pickerington Cinema,Marcus Theatres,Pickerington,OH,AAGNZ, 39.92650, -82.78660,72
Movie Tavern Trexlertown,Marcus Theatres,Allentown,PA,AAYLG, 40.55701, -75.57675,72
Movie Tavern Collegeville Cinema,Marcus Theatres,Collegeville,PA,AAWKH, 40.16666, -75.48009,72
Movie Tavern Exton,Marcus Theatres,Exton,PA,AAXRS, 40.02137, -75.62933,72
Movie Tavern Flourtown,Marcus Theatres,Flourtown,PA,AAXQA, 40.11137, -75.21053,72
Movie Tavern Denton,Marcus Theatres,Denton,TX,AAGZU, 33.22980, -97.14150,72
Movie Tavern West 7th Street,Marcus Theatres,Fort Worth,TX,AAVRW, 32.75035, -97.35817,72
Movie Tavern Hulen,Marcus Theatres,Fort Worth,TX,AAUPP, 32.67806, -97.40138,72
Movie Tavern Williamsburg,Marcus Theatres,Williamsburg,VA,AAVIZ, 37.28859, -76.72251,72
Marcus Valley Grand Cinema,Marcus Theatres,Appleton,WI,AAWEJ, 44.25690, -88.34380,72
Marcus Hollywood Cinemas,Marcus Theatres,Appleton,WI,AAIZV, 44.26600, -88.46110,72
Marcus Bay Park Cinemas,Marcus Theatres,Ashwaubenon,WI,AAJCH, 44.48540, -88.06140,72
Movie Tavern Brookfield,Marcus Theatres,Brookfield,WI,AAYQM, 43.03080, -88.10700,72
Marcus Hillside Cinema,Marcus Theatres,Delafield,WI,AAGLW, 43.04780, -88.36160,72
Marcus Green Bay East Cinema,Marcus Theatres,Green Bay,WI,AAUGD, 44.48290, -87.93790,72
Marcus BistroPlex Southridge,Marcus Theatres,Greendale,WI,AAYDW, 42.95060, -88.00830,72
Marcus La Crosse Cinemas,Marcus Theatres,La Crosse,WI,AAJCI, 43.78340, -91.22540,72
Marcus Point Cinemas,Marcus Theatres,Madison,WI,AAIZZ, 43.05840, -89.51860,72
Marcus Menomonee Falls Cinema,Marcus Theatres,Menomonee Falls,WI,AAGLX, 43.18860, -88.13090,72
Marcus North Shore Cinema,Marcus Theatres,Mequon,WI,AAGLZ, 43.23098, -87.92198,72
Marcus Ridge Cinema,Marcus Theatres,New Berlin,WI,AAGME, 42.94946, -88.10626,72
Marcus South Shore Cinema,Marcus Theatres,Oak Creek,WI,AAGMJ, 42.91330, -87.93080,72
Marcus Oshkosh Cinema,Marcus Theatres,Oshkosh,WI,AAIZS, 44.01960, -88.54250,72
Marcus Campus Theatre,Marcus Theatres,Ripon,WI,AAIZR, 43.84612, -88.83868,72
Marcus Cedar Creek Cinema,Marcus Theatres,Rothschild,WI,AAKJE, 44.88360, -89.61880,72
Marcus Sheboygan Cinema,Marcus Theatres,Sheboygan,WI,AAIZY, 43.75670, -87.75060,72
Marcus Cinema at the Renaissance,Marcus Theatres,Sturtevant,WI,AAUGC, 42.71990, -87.91310,72
Marcus Palace Cinema,Marcus Theatres,Sun Prairie,WI,AAXOT, 43.16830, -89.27100,72
Marcus Majestic Cinema of Brookfield,Marcus Theatres,Waukesha,WI,AAUML, 43.04102, -88.18569,72
Marquee Cinemas Coralwood 10,Marquee Cinemas,Cape Coral,FL,AAELR, 26.61100, -81.93800,73
Marquee Cinemas Highland 8,Marquee Cinemas,Glasgow,KY,AAKKJ, 37.02400, -85.93400,73
Marquee Cinemas Mimosa 7,Marquee Cinemas,Morganton,NC,AAQGD, 35.74600, -81.68600,73
Marquee Cinemas Wakefield Commons 12,Marquee Cinemas,Raleigh,NC,AATES, 35.94200, -78.54200,73
Marquee Cinemas Orchard 10,Marquee Cinemas,Toms River,NJ,AAUOI, 39.98260, -74.25400,73
Marquee Cinemas Orchard 14,Marquee Cinemas,New Hartford,NY,AASUE, 43.09200, -75.31400,73
Marquee Cinemas Pinnacle 12,Marquee Cinemas,Bristol,TN,AAXTC, 36.59098, -82.26429,73
Marquee Cinemas Wytheville 8,Marquee Cinemas,Wytheville,VA,AATBC, 36.95700, -81.10300,73
Marquee Cinemas Galleria 14,Marquee Cinemas,Beckley,WV,AAUCK, 37.80300, -81.17700,73
Marquee Cinemas Pullman Square 16,Marquee Cinemas,Huntington,WV,AATCP, 38.42300, -82.44300,73
Marquee Cinemas Southridge 12,Marquee Cinemas,South Charleston,WV,AANCN, 38.31888, -81.71301,73
Marquee Cinemas Nicholas Showplace,Marquee Cinemas,Summersville,WV,AALIX, 38.30000, -80.83500,73
Marquee Cinemas Highlands 14,Marquee Cinemas,Triadelphia,WV,AAVEU, 40.05400, -80.60400,73
Maya Bakersfield 16 & MPX,Maya Cinemas,Bakersfield,CA,AAVOM, 35.36940,-119.01350,74
Maya Delano 12,Maya Cinemas,Delano,CA,AAYJR, 35.74690,-119.24080,74
Maya Fresno 16 & MPX,Maya Cinemas,Fresno,CA,AAXPF, 36.81248,-119.73460,74
Maya Pittsburg 16 & MPX,Maya Cinemas,Pittsburg,CA,AAWTD, 38.00881,-121.84440,74
Maya Salinas 14 & MPX,Maya Cinemas,Salinas,CA,AATSD, 36.67631,-121.65530,74
Megaplex Theatres - Stadium 6,Megaplex Theatres,Mesquite,NV,AAJTY, 36.80447,-114.09090,75
Megaplex Theatres Cedar City - Stadium,Megaplex Theatres,Cedar City,UT,AATIW, 37.65936,-113.08200,75
Megaplex Theatres Centerville - Legacy Crossing,Megaplex Theatres,Centerville,UT,AAWMR, 40.91990,-111.89330,75
Megaplex Luxury Theatres at Cottonwood,Megaplex Theatres,Holladay,UT,AAXCG, 40.66580,-111.83600,75
Megaplex Theatres Lehi - Thanksgiving Point,Megaplex Theatres,Lehi,UT,AAUAV, 40.41830,-111.87440,75
Megaplex Theatres Ogden - The Junction,Megaplex Theatres,Ogden,UT,AAVJW, 41.22440,-111.97220,75
Megaplex at Park City,Megaplex Theatres,Park City,UT,AARFO, 40.72000,-111.54050,75
Megaplex at Pleasant Grove,Megaplex Theatres,Pleasant Grove,UT,AAWGW, 40.36750,-111.75320,75
Megaplex Theatres Logan - Providence Stadium,Megaplex Theatres,Providence,UT,AAREV, 41.71138,-111.83090,75
Megaplex Theatres Salt Lake City – The Gateway,Megaplex Theatres,Salt Lake City,UT,AAQLF, 40.76595,-111.90410,75
Megaplex Theatres Sandy - Jordan Commons,Megaplex Theatres,Sandy,UT,AAOFH, 40.58181,-111.89020,75
Megaplex Theatres South Jordan - The District,Megaplex Theatres,South Jordan,UT,AAUAI, 40.53984,-111.98070,75
Megaplex Theatres St. George - Sunset Stadium,Megaplex Theatres,St. George,UT,AAREW, 37.12584,-113.60230,75
Megaplex Theatres St. George - Pineview Stadium,Megaplex Theatres,St. George,UT,AATIX, 37.12309,-113.53260,75
Megaplex Theatres Vineyard - Geneva,Megaplex Theatres,Vineyard,UT,AAXNA, 40.30439,-111.73880,75
Megaplex Theatres West Valley - Valley Fair Mall,Megaplex Theatres,West Valley City,UT,AAWUG, 40.69373,-111.95390,75
Fairview Theatre,Metropolitan Theatres,Goleta,CA,AAIXT, 34.44300,-119.83330,77
MetroLux 10 w/IMAX,Metropolitan Theatres,San Clemente,CA,AAYWP, 33.43880,-117.62940,77
Metro 4 Theatre,Metropolitan Theatres,Santa Barbara,CA,AAGYH, 34.41830,-119.69920,77
Paseo Nuevo Cinemas,Metropolitan Theatres,Santa Barbara,CA,AAGYI, 34.41940,-119.70200,77
MetroLux Dine-In Theatres at the Foundry,Metropolitan Theatres,Loveland,CO,AAYRN, 40.39450,-105.07550,77
Mitchell Theatres Oasis Cinema 9,Mitchell Theatres,Nogales,AZ,AATYK, 31.35762,-110.95240,79
Mitchell Theatres Skyline Cinema 8,Mitchell Theatres,Dillon,CO,AANPW, 39.63080,-106.07190,79
Mitchell Theatres Central Cinema 6,Mitchell Theatres,El Dorado,KS,AARGM, 37.81818, -96.84920,79
Mitchell Theatres Doric Theatre,Mitchell Theatres,Elkhart,KS,AAXXH, 37.00201,-101.89960,79
Mitchell Theatres Sequoyah Cinema 9,Mitchell Theatres,Garden City,KS,AAJHH, 34.55296,-111.17700,79
Mitchell Theatres Southgate Cinema 6,Mitchell Theatres,Liberal,KS,AAKKY, 37.02230,-100.92700,79
Mitchell Theatres Chisholm Trail 8,Mitchell Theatres,Newton,KS,AAUMA, 37.99803, -97.33665,79
Mitchell Theatres Cowley Cinema 8,Mitchell Theatres,Winfield,KS,AATEU, 37.15616, -97.03485,79
Mitchell Theatres Belton Cinema 8,Mitchell Theatres,Belton,MO,AAGJN, 38.81239, -94.51502,79
Dreamcatcher Cinema 10,Mitchell Theatres,Espanola,NM,AAOEQ, 35.97844,-106.06330,79
Mitchell Theatres Starlight Cinema 8,Mitchell Theatres,Los Lunas,NM,AAOOH, 34.81140,-106.76610,79
Mitchell Theatres Storyteller Cinema 7,Mitchell Theatres,Taos,NM,AANOK, 36.38421, 105.60380,79
Mitchell Theatres Northridge Cinema 8,Mitchell Theatres,Guymon,OK,AAPBP, 36.70011,-101.48810,79
Mitchell Theatres Lakeside Cinema 6,Mitchell Theatres,Woodward,OK,AAPGE, 36.43197, -99.43004,79
Mitchell Theatres Morley Theatre,Mitchell Theatres,Borger,TX,AAVJM, 35.67312,-101.39280,79
River Cinema 15,Moore Family Theaters,East Grand Forks,MN,AAUVC, 47.92904, -97.02664,80
NCG Palm Bay Cinema,NCG Cinemas,Palm Bay,FL,AAYHJ, 27.99590, -80.67363,81
NCG Citrus Park,NCG Cinemas,Tampa,FL,AAMEP, 28.06955, -82.57580,81
NCG Acworth,NCG Cinemas,Acworth,GA,AAVDE, 34.04037, -84.67756,81
NCG Brookhaven,NCG Cinemas,Atlanta,GA,AADLN, 33.84347, -84.32525,81
NCG Marietta Cinemas,NCG Cinemas,Marietta,GA,AAWRZ, 33.92730, -84.57020,81
NCG Peachtree Corners,NCG Cinemas,Peachtree Corners,GA,AAXSP, 33.95303, -84.23600,81
NCG Savannah,NCG Cinemas,Savannah,GA,AAUGB, 32.03730, -81.06840,81
NCG Peachtree City,NCG Cinemas,Sharpsburg,GA,AAWII, 33.39720, -84.65600,81
NCG Stone Mountain,NCG Cinemas,Stone Mountain,GA,AAXJO, 33.82550, -84.12320,81
NCG Alton,NCG Cinemas,Alton,IL,AAYUU, 38.92200, -90.17700,81
NCG Yorkville Cinemas,NCG Cinemas,Yorkville,IL,AAXDG, 41.66010, -88.44250,81
NCG Auburn Cinemas,NCG Cinemas,Auburn,IN,AATTZ, 41.35957, -85.08718,81
NCG Alma Cinemas,NCG Cinemas,Alma,MI,AAHXY, 43.40810, -84.66670,81
NCG Battle Creek,NCG Cinemas,Battle Creek,MI,AAXVR, 42.26326, -85.18445,81
NCG Coldwater Cinema,NCG Cinemas,Coldwater,MI,AANJH, 41.94580, -84.97160,81
NCG Trillium Cinema,NCG Cinemas,Grand Blanc,MI,AAUHF, 42.92680, -83.63680,81
NCG Greenville Cinemas,NCG Cinemas,Greenville,MI,AAGOT, 43.19516, -85.25098,81
NCG Eastwood Cinema,NCG Cinemas,Lansing,MI,AAQPP, 42.76060, -84.51530,81
NCG Lapeer Cinemas,NCG Cinemas,Lapeer,MI,AAKGG, 43.04310, -83.32860,81
NCG Midland Cinema,NCG Cinemas,Midland,MI,AAKGJ, 43.65687, -84.23323,81
NCG Owosso Cinemas,NCG Cinemas,Owosso,MI,AAKGO, 42.99640, -84.16800,81
NCG Monroe,NCG Cinemas,Monroe,NC,AAXTB, 35.00446, -80.55965,81
NCG Kingston Cinema,NCG Cinemas,Kingston,NY,AAKHL, 41.94563, -73.99567,81
NCG Spartanburg,NCG Cinemas,Spartanburg,SC,AAXKT, 34.96970, -81.88920,81
NCG Gallatin Cinemas,NCG Cinemas,Gallatin,TN,AAUMD, 36.35990, -86.49780,81
NCG Kingsport Cinema,NCG Cinemas,Kingsport,TN,AAYFF, 36.52905, -82.52037,81
Showcase SuperLux - Chestnut Hill,National Amusement,Chestnut Hill,MA,AAWZU, 42.32260, -71.16810,82
Showcase Cinema de Lux Legacy Place - Dedham,National Amusement,Dedham,MA,AAVPD, 42.24380, -71.16640,82
Showcase Cinema de Lux Patriot Place - Foxboro,National Amusement,Foxboro,MA,AAUYK, 42.09340, -71.26310,82
Showcase Cinema de Lux Hanover Crossing,National Amusement,Hanover,MA,AAQGK, 42.12250, -70.83161,82
Showcase Cinema de Lux Lowell,National Amusement,Lowell,MA,AAESH, 42.61390, -71.32220,82
Blackstone Valley 14: Cinema de Lux,National Amusement,Millbury,MA,AARVV, 42.19900, -71.76290,82
Showcase Cinemas North Attleboro,National Amusement,North Attleboro,MA,AACRE, 41.95414, -71.34185,82
Showcase Cinemas de Lux Randolph,National Amusement,Randolph,MA,AAEEA, 42.16270, -71.06140,82
Showcase Cinemas Woburn,National Amusement,Woburn,MA,AACBC, 42.49620, -71.15730,82
Showcase Cinema de lux Farmingdale,National Amusement,Farmingdale,NY,AACUD, 40.73817, -73.42159,82
Island 16: Cinema de Lux,National Amusement,Holtsville,NY,AAQOF, 40.81689, -73.05760,82
Showcase Cinema de Lux Ridge Hill,National Amusement,Yonkers,NY,AAWJC, 40.96340, -73.84440,82
Cross County Multiplex Cinemas,National Amusement,Yonkers,NY,AACKY, 40.92580, -73.85330,82
Showcase Cinema de Lux Springdale,National Amusement,Springdale,OH,AACJY, 39.29858, -84.48269,82
Providence Place Cinemas 16 and IMAX,National Amusement,Providence,RI,AANZK, 41.82750, -71.41820,82
Showcase Cinemas Warwick,National Amusement,Warwick,RI,AABII, 41.66850, -71.49970,82
O'Neil Cinemas at the Point,O'Neil Cinemas,Littleton ,MA,AAYHA, 42.55207, -71.47445,83
Paragon Theaters Coral Square + Axis15,Paragon 2,Coral Springs,FL,AAFLV, 26.24255, -80.24450,84
Paragon Theaters Ridge + Axis15,Paragon 2,Davie,FL,AAVSF, 26.10470, -80.27520,84
Paragon Theaters Deerfield IMAX + Axis15 Extreme,Paragon 2,Deerfield Beach,FL,AAGHW, 26.31604, -80.15941,84
Paragon Theaters Pavilion + Axis15,Paragon 2,Naples,FL,AAXFY, 26.25208, -81.80496,84
Paragon Theaters Fenton + Axis15 Extreme,Paragon 2,Cary,NC,AAYWT, 35.78190, -78.75960,84
Penn Cinema Riverfront & IMAX,Penn Cinemas,Wilmington,DE,AAWVI, 39.73680, -75.56200,85
Penn Cinema Huntingdon Valley,Penn Cinemas,Huntingdon Valley,PA,AAYMN, 40.17110, -75.07120,85
Penn Cinema & IMAX,Penn Cinemas,Lititz,PA,AAUXW, 40.11420, -76.29198,85
Phoenix Theatres Lake Worth 8,Phoenix Theatres,Greenacres,FL,AAQCP, 26.61890, -80.13390,86
Phoenix Theatres Savoy 16 + IMAX,Phoenix Theatres,Savoy,IL,AAJGS, 40.07280, -88.25430,86
New Albany 16,Phoenix Theatres,New Albany,IN,AARAY, 38.35147, -85.79187,86
Danville Cinemas 8,Phoenix Theatres,Danville,KY,AAWPY, 37.65050, -84.80549,86
Phoenix Theatres Columbia Snowden 14 + ScreenX,Phoenix Theatres,Columbia,MD,AAEVY, 39.18010, -76.81970,86
Lyric 3,Phoenix Theatres,New Ulm,MN,AALQZ, 44.31400, -94.45812,86
Lennox Town Center 24,Phoenix Theatres,Columbus,OH,AACKF, 39.99600, -83.03000,86
CHARTIERS VALLEY LUXURY 14 + PTX ,Phoenix Theatres,Bridgeville,PA,AANPF, 40.36620, -80.10630,86
Empire 8,Phoenix Theatres,Jackson,TN,AAYOO, 35.66140, -88.86350,86
The Forge Cinemas,Phoenix Theatres,Pigeon Forge,TN,AAWEP, 35.80680, -83.57750,86
Phoenix Theatres Maingate 10,Phoenix Theatres,Norfolk,VA,AAERI, 36.94200, -76.30800,86
Phoenix Theatres Kennedy Mall,Phoenix Theatres - MI,Dubuque,IA,AAJYV, 42.49405, -90.72099,87
Phoenix Theatres Beacon Cinema,Phoenix Theatres - MI,Pittsfield,MA,AAVTW, 42.44950, -73.25370,87
Phoenix Theatres Woodland Mall,Phoenix Theatres - MI,Grand Rapids,MI,AATTW, 42.91500, -85.58980,87
Phoenix Theatres Laurel Park Place,Phoenix Theatres - MI,Livonia,MI,AAVUZ, 42.41433, -83.41800,87
Phoenix Theatres Mall of Monroe,Phoenix Theatres - MI,Monroe,MI,AAUQZ, 41.94687, -83.38770,87
Phoenix Theatres State-Wayne,Phoenix Theatres - MI,Wayne,MI,AAHXN, 42.27570, -83.38360,87
Phoenix Theatres Northtowne Mall,Phoenix Theatres - MI,Defiance,OH,AAENM, 41.30040, -84.36100,87
Phoenix Theatres Great Northern Mall,Phoenix Theatres - MI,North Olmsted,OH,AAXCA, 41.41651, -81.90770,87
Picture Show at Superstition Springs Mall,Picture Show Entertainment, LLC,Mesa,AZ,AAVII, 33.39380,-111.6897
Picture Show at Main Place Mall,Picture Show Entertainment, LLC,Santa Ana,CA,AAUFB, 33.77480,-117.8674
Picture Show at Citadel Crossing,Picture Show Entertainment, LLC,Colorado Springs,CO,AAVBY, 38.84570,-104.7573
Picture Show at Berlin,Picture Show Entertainment, LLC,Berlin,CT,AAYAZ, 41.62934,-72.74303
Picture Show at Merchants Exchange,Picture Show Entertainment, LLC,Marietta,GA,AARGC, 33.99783,-84.47097
Picture Show at Bloomingdale Court,Picture Show Entertainment, LLC,Bloomingdale,IL,AAVQO, 41.93900,-88.1051
Picture Show at SouthCoast Marketplace,Picture Show Entertainment, LLC,Fall River,MA,AAYGP, 41.66660,-71.1574
Picture Show at East Windsor,Picture Show Entertainment, LLC,East Windsor,NJ,AAYAY, 40.27870,-74.5304
Prado Stadium 12,Prado Theatre,Bonita Springs,FL,AAWDU, 26.37416, -81.80643,89
Bessemer Premiere 14 Promenade,Premiere Cinemas,Bessemer,AL,AAUZS, 33.33513, -86.98501,90
Birmingham Premiere LUX Cine GSX & Pizza Pub ,Premiere Cinemas,Birmingham,AL,AAYQC, 33.44030, -86.83660,90
Gadsden Premiere 16 - Gadsden Mall,Premiere Cinemas,Gadsden,AL,AAPPD, 33.99556, -86.00822,90
Pell City Premiere LUX Cinertainment,Premiere Cinemas,Pell City,AL,AAYNV, 33.60805, -86.26946,90
Spanish Fort Premiere 14 Eastern Shore,Premiere Cinemas,Spanish Fort,AL,AAVER, 30.67028, -87.84756,90
Orlando Premiere 14 Fashion Square,Premiere Cinemas,Orlando,FL,AAFLL, 28.55735, -81.34077,90
Plant City Premiere LUX Cine 8 & Pizza Pub,Premiere Cinemas,Plant City,FL,AAUXY, 27.99050, -82.12299,90
Biloxi Premiere LUX Cine & Pizza Pub,Premiere Cinemas,Biloxi,MS,AAYNB, 30.38976, -88.98785,90
Rio Rancho Premiere 14,Premiere Cinemas,Rio Rancho,NM,AAWKZ, 35.23982,-106.69980,90
Easley Premiere LUX Cine 8,Premiere Cinemas,Easley,SC,AAKLZ, 34.82510, -82.55060,90
Greenwood Premiere LUX Cine 10,Premiere Cinemas,Greenwood,SC,AAOOC, 34.20170, -82.18510,90
Seneca Premiere LUX Cine 8,Premiere Cinemas,Seneca,SC,AAKWD, 34.69340, -82.94160,90
Abilene Premiere LUX Cine 10 - Abilene Mall,Premiere Cinemas,Abilene,TX,AANPX, 32.39955, -99.76302,90
Bryan Premiere LUX Cine 15 IMAX & Pizza Pub,Premiere Cinemas,Bryan,TX,AAUCM, 30.67595, -96.33658,90
El Paso Premiere LUX Cine 17 IMAX,Premiere Cinemas,El Paso,TX,AAULL, 31.78170,-106.41050,90
Grand Prairie Premiere LUX Cine 10 & Pizza Pub,Premiere Cinemas,Grand Prairie,TX,AAYEK, 32.67160, -97.00190,90
Lubbock Premiere LUX 16 IMAX & Pizza Pub,Premiere Cinemas,Lubbock,TX,AAWUD, 33.54071,-101.92700,90
Pearland Premiere LUX Cine 6,Premiere Cinemas,Pearland,TX,AAHQL, 29.55895, -95.29940,90
Texas City Premiere LUX Cine 12 & Pizza Pub,Premiere Cinemas,Texas City,TX,AACCW, 29.40690, -95.02533,90
Tomball Premiere LUX Cine 7,Premiere Cinemas,Tomball,TX,AAQAU, 30.08801, -95.63344,90
Prospector Theater,Prospector Theater,Ridgefield,CT,AAXLA, 41.28350, -73.49690,91
Pruneyard Dine-In Cinemas,Pruneyard Cinemas,Campbell,CA,AAQND, 37.28839,-121.93260,92
R/C Hollywood Cinema 4,R/C Theatres,Arbutus,MD,AAGBL, 39.24660, -76.69360,93
R/C Lexington Exchange Movies 12,R/C Theatres,California,MD,AAXQD, 38.31140, -76.52720,93
R/C Westminster Movies 9,R/C Theatres,Westminster,MD,AAYKA, 39.57960, -76.98320,93
R/C Albemarle Movies 8,R/C Theatres,Elizabeth City,NC,AAYTM, 36.29734, -76.25545,93
R/C Kill Devil Hills Movies 10,R/C Theatres,Kill Devil Hills,NC,AARGG, 36.03520, -75.67240,93
R/C Carlisle Commons Movies 8,R/C Theatres,Carlisle,PA,AAXQJ, 40.19060, -77.19640,93
R/C Gateway Theater 8,R/C Theatres,Gettysburg,PA,AATYL, 39.84400, -77.19120,93
R/C Hanover Movies 16,R/C Theatres,Hanover,PA,AAPDY, 39.82510, -76.98200,93
R/C Richland Crossings Movies 12,R/C Theatres,Quakertown,PA,AAJAU, 40.44856, -75.35480,93
R/C Reading Movies 11 & IMAX,R/C Theatres,Reading,PA,AAUYP, 40.33660, -75.93430,93
R/C Wilkes Barre Movies 14,R/C Theatres,Wilkes-Barre,PA,AATYM, 41.24370, -75.88390,93
R/C Queensgate Movies 13 & IMAX,R/C Theatres,York,PA,AAVZR, 39.94170, -76.69340,93
R/C Covington Movies 3,R/C Theatres,Covington,VA,AAESP, 37.79000, -79.99520,93
R/C State Cinema 3,R/C Theatres,Lexington,VA,AAGBN, 37.78430, -79.44360,93
Orca Theater,RTSIND,Soldotna,AK,AAMMZ, 60.47717,-151.12497,94
Wind Creek Cinema,RTSIND,Atmore,AL,AAYPT, 31.10437, -87.48300,94
The Edge Theater,RTSIND,Greenville,AL,AAVJS, 31.85131, -86.64837,94
Cabot 8 VIP Cinema,RTSIND,Cabot,AR,AAOHG, 34.97749, -92.02388,94
Central City 10 Cinema,RTSIND,Hot Springs,AR,AAJJD, 34.47470, -93.06200,94
Hot Springs 8 VIP Cinema,RTSIND,Hot Springs,AR,AAXBJ, 34.44690, -93.07657,94
Riverdale 10 VIP Cinema,RTSIND,Little Rock,AR,AAKFY, 34.76081, -92.30663,94
Searcy 8 VIP Cinema,RTSIND,Searcy,AR,AAXBI, 35.25046, -91.69895,94
America Cinemas Phoenix,RTSIND,Phoenix,AZ,AAIHD, 33.47600,-112.22000,94
The Delta Theater,RTSIND,Brentwood,CA,AAIUM, 37.93220,-121.69470,94
Coast Cinemas,RTSIND,Fort Bragg,CA,AAMPV, 39.44080,-123.80484,94
Ciné Lounge Fremont 7,RTSIND,Fremont,CA,AAXSL, 37.55400,-121.97960,94
Prime Cinemas Sutton,RTSIND,Grass Valley,CA,AAPKE, 39.23210,-121.03560,94
Prime Cinemas Del Oro,RTSIND,Grass Valley,CA,AAJTQ, 39.21730,-121.06290,94
Lakeport Cinema 5,RTSIND,Lakeport,CA,AAKBS, 39.01537,-122.90896,94
Coyote Entertainment Center - Palace Cinemas,RTSIND,Lemoore,CA,AAYPL, 36.29876,-119.79120,94
Vine Cinema & Alehouse,RTSIND,Livermore,CA,AAJAW, 37.68010,-121.77330,94
Onyx Theatre,RTSIND,Nevada City,CA,AAMVB, 39.25230,-121.02420,94
Grand Lake Theatre,RTSIND,Oakland,CA,AAFCA, 37.81155,-122.24740,94
Orinda Theater,RTSIND,Orinda,CA,AAFBH, 37.88516,-122.19180,94
Prime Cinemas Red Bluff,RTSIND,Red Bluff,CA,AAUYF, 40.16980,-122.22850,94
Rialto Cinemas Sebastopol,RTSIND,Sebastopol,CA,AAITQ, 38.40390,-122.82280,94
Cinelounge Tiburon,RTSIND,Tiburon,CA,AAHGB, 37.87344,-122.45690,94
Icon Cinema Colorado Springs,RTSIND,Colorado Springs,CO,AAYHY, 38.98815,-104.79353,94
The Movies at Midway,RTSIND,Rehoboth Beach,DE,AAKDJ, 38.73794, -75.14203,94
Paradigm Cinemas: Gateway Fort Lauderdale,RTSIND,Fort Lauderdale,FL,AAGGT, 26.13723, -80.12184,94
Flippers Cinema,RTSIND,Hollywood,FL,AAEXB, 26.02410, -80.22880,94
Lakewood Ranch Cinemas,RTSIND,Lakewood Ranch,FL,AAUFW, 27.39579, -82.43456,94
Marco Movies,RTSIND,Marco Island,FL,AAIYQ, 25.91920, -81.72670,94
West Orange Cinema,RTSIND,Ocoee,FL,AAFYO, 28.54900, -81.54320,94
Burns Court Cinema,RTSIND,Sarasota,FL,AAIEX, 27.33220, -82.53989,94
Sun-Ray Cinema,RTSIND,Tampa,FL,AAXJB, 28.05710, -82.43460,94
Spotlight Theatres Venice Luxury 11,RTSIND,Venice,FL,AATXR, 27.05627, -82.41075,94
Spotlight Theatres Cordele Square Stadium 5,RTSIND,Cordele,GA,AAWPZ, 31.96440, -83.76869,94
Royal Cinemas 14 World's Tallest IMAX & Dolby Atmo,RTSIND,Pooler,GA,AAWHI, 32.14614, -81.25085,94
Aurora Cineplex,RTSIND,Roswell,GA,AAWEA, 34.03814, -84.33986,94
Kailua Cinemas,RTSIND,Kailua,HI,AAXDL, 21.37682,-157.73020,94
North Grand Cinema,RTSIND,Ames,IA,AANRQ, 42.04931, -93.62259,94
Collins Road Theatres,RTSIND,Marion,IA,AALPI, 42.02782, -91.61852,94
Capitol II Theatre,RTSIND,Newton,IA,AAMYP, 41.70013, -93.05338,94
Blackfoot Movie Mill,RTSIND,Blackfoot,ID,AAYPE, 43.19090,-112.34850,94
Centre Twin Theater,RTSIND,Idaho Falls,ID,AAPZR, 43.49321,-112.04050,94
Paramount Theater,RTSIND,Idaho Falls,ID,AAMXQ, 43.48118,-111.99270,94
The Lamphouse Theatre,RTSIND,Twin Falls,ID,AAYXT, 42.55210,-114.47100,94
Lincoln Theatre,RTSIND,Belleville,IL,AAGWJ, 38.51370, -89.98260,94
Star Cinema Grill Bolingbrook,RTSIND,Bolingbrook,IL,AAVZU, 41.71714, -88.04255,94
Glen Art Theatre,RTSIND,Glen Ellyn,IL,AAHUZ, 41.87660, -88.06540,94
Ciné Lounge at Niles,RTSIND,Niles,IL,AAXGV, 42.05530, -87.85440,94
Star Cinema Grill South Barrington,RTSIND,South Barrington,IL,AAVDL, 42.07547, -88.18337,94
Hollywood Blvd. Cinema,RTSIND,Woodridge,IL,AAQVS, 41.74942, -88.01659,94
Linway Cinema 14,RTSIND,Goshen,IN,AAKAA, 41.58470, -85.84700,94
Greendale Cinema,RTSIND,Greendale,IN,AAXIN, 39.12790, -84.84070,94
Mary Max Cinemas Logansport 5,RTSIND,Logansport,IN,AAXCZ, 40.75948, -86.31362,94
The Peacock Theatre - Monticello,RTSIND,Monticello,IN,AAKTD, 40.74450, -86.76130,94
Showtime Cinema,RTSIND,Mooresville,IN,AAWSC, 39.60240, -86.37350,94
Pickwick Theatre,RTSIND,Syracuse,IN,AAMRB, 41.42760, -85.75320,94
Golden Belt Cinema 6,RTSIND,Great Bend,KS,AAXUD, 38.36410, -98.76340,94
McPherson Theatre,RTSIND,McPherson,KS,AAJXT, 38.37160, -97.66660,94
Tri-County Cineplex/Cinema Social,RTSIND,Corbin,KY,AATPW, 36.91754, -84.12541,94
Crowne Pointe Theatre ,RTSIND,Elizabethtown,KY,AAYMV, 37.71639, -85.83728,94
The Showbox,RTSIND,Hopkinsville,KY,AAXJG, 36.83400, -87.47320,94
Baxter Avenue Theatres and Filmworks,RTSIND,Louisville,KY,AAIHO, 38.23563, -85.71614,94
Celebrity Theatres Ruston 8,RTSIND,Ruston,LA,AAUBE, 32.52810, -92.63950,94
East Bridgewater Cinema,RTSIND,East Bridgewater,MA,AADTH, 42.02649, -70.96012,94
Greenfield Garden Cinemas,RTSIND,Greenfield,MA,AAQRP, 42.58773, -72.59980,94
Patriot Cinemas - Loring Hall Cinema,RTSIND,Hingham,MA,AADSP, 42.24115, -70.88820,94
Patriot Cinemas - Hingham Shipyard,RTSIND,Hingham,MA,AAVON, 42.25061, -70.92298,94
Maynard Fine Arts Theatre,RTSIND,Maynard,MA,AAXPY, 42.43410, -71.45160,94
South Hadley’s Tower Theaters,RTSIND,South Hadley,MA,AAKEW, 42.25690, -72.57680,94
Wellfleet Cinemas,RTSIND,Wellfleet,MA,AAMVO, 41.94230, -70.02630,94
The Charles Theater,RTSIND,Baltimore,MD,AADVI, 39.30900, -76.61600,94
Senator Theatre,RTSIND,Baltimore,MD,AADVU, 39.36300, -76.61000,94
Temple Theatre,RTSIND,Houlton,ME,AAKVB, 46.12632, -67.84036,94
Black Bear Cinemas,RTSIND,Orono,ME,AAPRZ, 44.90615, -68.69083,94
Patriot Cinemas - Nickelodeon Cinemas,RTSIND,Portland,ME,AANRY, 43.65753, -70.25586,94
Smitty's Cinema - Windham,RTSIND,Windham,ME,AALHA, 43.85021, -70.44935,94
JC Cinema,RTSIND,Battle Creek,MI,AAGON, 42.29513, -85.23916,94
Loma Theatres,RTSIND,Coloma,MI,AAGRA, 42.18812, -86.30593,94
Rialto Theatre,RTSIND,Grayling,MI,AAWPL, 44.66240, -84.71300,94
Wonderland Cinema,RTSIND,Niles,MI,AAHZE, 41.83202, -86.25915,94
M-89 Cinema,RTSIND,Plainwell,MI,AAGRF, 42.44980, -85.66680,94
Firebird Theater,RTSIND,Sandusky,MI,AAYLW, 43.42148, -82.82375,94
Michigan Theatre,RTSIND,South Haven,MI,AAGRI, 42.40422, -86.27441,94
Romeo Theatre,RTSIND,Washington,MI,AAHXJ, 42.78132, -83.01321,94
Premiere Theatres,RTSIND,Cloquet,MN,AAMYB, 46.71130, -92.45980,94
Quarry Cinema,RTSIND,Cold Spring,MN,AAWIL, 45.45542, -94.42011,94
Sunset Cinema ,RTSIND,Pequot Lakes,MN,AATKU, 46.63160, -94.32292,94
Woodbury Theatre 10,RTSIND,Woodbury,MN,AAEYO, 44.92770, -92.95700,94
Sullivan 6 Cinema,RTSIND,Sullivan,MO,AATMZ, 38.19700, -91.18630,94
Great 8 Cinema,RTSIND,Union,MO,AAOJI, 38.43529, -90.97076,94
Legacy Theaters Parkway,RTSIND,Flowood,MS,AAJJT, 32.33742, -90.09110,94
Canal Place Cinema 7,RTSIND,Philadelphia,MS,AAQMG, 32.77217, -89.11838,94
Asheville Pizza and Brewing Company,RTSIND,Asheville,NC,AASWO, 35.62230, -82.55370,94
Red Cinemas,RTSIND,Greensboro,NC,AAOFZ, 36.08570, -79.80660,94
Gem Theatre,RTSIND,Kannapolis,NC,AAGKK, 35.49780, -80.62430,94
Cinema Centre & Holly Theatre,RTSIND,Beatrice,NE,AAKSP, 40.26575, -96.74432,94
Carver Cinemas,RTSIND,McCook,NE,AATEK, 40.17610,-100.64680,94
Chunky’s Cinema Pub – Manchester,RTSIND,Manchester,NH,AAYFA, 42.95120, -71.43250,94
Chatham Hickory Cinema,RTSIND,Chatham,NJ,AAHPC, 40.74580, -74.43250,94
Tilton Square Theatre,RTSIND,Northfield,NJ,AAJIP, 39.38573, -74.55525,94
Township Theatre,RTSIND,Township of Washington,NJ,AAJFV, 40.98333, -74.06517,94
Ventnor Square Theatre,RTSIND,Ventnor City,NJ,AAQBZ, 39.34361, -74.47112,94
Icon Cinema San Mateo,RTSIND,Albuquerque,NM,AAGIM, 35.13530,-106.58959,94
Icon Cinema 4 Hills,RTSIND,Albuquerque,NM,AAXPB, 35.06850,-106.50080,94
Auburn Movieplex,RTSIND,Auburn,NY,AAJTG, 42.95454, -76.54410,94
Black River Drive-In,RTSIND,Black River,NY,AAUEG, 44.00336, -75.81033,94
Brockport Strand Theater,RTSIND,Brockport,NY,AAKDQ, 43.21450, -77.93890,94
Alpine Cinemas,RTSIND,Brooklyn,NY,AABTF, 40.63341, -74.02029,94
Canandaigua Theaters,RTSIND,Canandaigua,NY,AAKEQ, 42.88605, -77.24568,94
Dunkirk Multiplex,RTSIND,Dunkirk,NY,AAJVQ, 42.46004, -79.31304,94
Geneseo Theaters,RTSIND,Geneseo,NY,AANIG, 42.79620, -77.79620,94
Hamilton Theater,RTSIND,Hamilton,NY,AAQOH, 42.82600, -75.54400,94
Spotlight of Hornell,RTSIND,Hornell,NY,AAXMJ, 42.32640, -77.65840,94
Spotlight of Hudson,RTSIND,Hudson,NY,AAOCW, 42.27339, -73.75948,94
Cinema Village,RTSIND,New York,NY,AAEFN, 40.73407, -73.99333,94
Rose City Drive-In,RTSIND,Newark,NY,AAYZC, 43.04729, -77.12264,94
Cinemart Cinemas,RTSIND,Queens,NY,AAEFC, 40.70980, -73.84770,94
Southampton Playhouse,RTSIND,Southampton,NY,AABKH, 40.88407, -72.39453,94
Lake 8 Movies,RTSIND,Barberton,OH,AAWYI, 41.01282, -81.61125,94
Danbarry Cinemas,RTSIND,Chillicothe,OH,AATNW, 39.35812, -82.97972,94
Silver Screen VII,RTSIND,Gallipolis,OH,AAWSG, 38.84220, -82.25860,94
TriCity Theatre,RTSIND,Jackson,OH,AATQO, 39.03709, -82.62563,94
Historic Plaza Theatre,RTSIND,Miamisburg,OH,AAXTH, 39.64117, -84.28973,94
Ravenna 7 Movies,RTSIND,Ravenna,OH,AAYKH, 41.15900, -81.24400,94
Icon Cinema Edmond,RTSIND,Edmond,OK,AAENX, 35.66796, -97.46370,94
VASKA Theatre,RTSIND,Lawton,OK,AAOMG, 34.61614, -98.41690,94
Icon Cinema Oklahoma City,RTSIND,Oklahoma City,OK,AAENY, 35.49580, -97.60470,94
Eltrym Theater,RTSIND,Baker City,OR,AAPXG, 44.77487,-117.83438,94
Dallas Cinema,RTSIND,Dallas,OR,AANNE, 44.92180,-123.31490,94
Independence Cinema,RTSIND,Independence,OR,AAULQ, 44.84978,-123.18710,94
Northern Lights Theatre Pub,RTSIND,Salem,OR,AASWU, 44.89990,-123.03990,94
Sandy Cinema,RTSIND,Sandy,OR,AAQJC, 45.40400,-122.29400,94
Palace Theatre,RTSIND,Silverton,OR,AANVR, 45.00610,-122.78340,94
Star Cinema,RTSIND,Stayton,OR,AAOJZ, 44.79780,-122.79090,94
Rio Theater,RTSIND,Sweet Home,OR,AANND, 44.39780,-122.72760,94
South Pike Cinemas,RTSIND,Sarver,PA,AAQOA, 40.70030, -79.72440,94
Scranton Art Haus,RTSIND,Scranton,PA,AAYCX, 41.40912, -75.66239,94
Broad Theater,RTSIND,Souderton,PA,AAKJD, 40.30860, -75.32150,94
Dietrich Theater,RTSIND,Tunkhannock,PA,AAQIN, 41.53843, -75.94622,94
Spotlight Cinemas Capital 8,RTSIND,Columbia,SC,AAYNT, 34.06518, -80.96519,94
Park Plaza Cinema,RTSIND,Hilton Head Island,SC,AALIS, 32.15290, -80.76360,94
Claflin University Theater,RTSIND,Orangeburg,SC,AAYZA, 33.50010, -80.85457,94
Brookings Cinema 8,RTSIND,Brookings,SD,AAOKP, 44.31258, -96.80109,94
Huron Luxury Cinemas,RTSIND,Huron,SD,AAPJD, 44.36422, -98.21476,94
State 1 2 3,RTSIND,Pierre,SD,AAOKO, 44.36959,-100.35250,94
Crockett Cinemas,RTSIND,Lawrenceburg,TN,AASVN, 35.27300, -87.31770,94
Ritz 3 Cinema,RTSIND,Milan,TN,AAVUH, 35.91960, -88.75880,94
Parisian Theatre,RTSIND,Paris,TN,AAQYO, 36.28960, -88.30970,94
The Beltonian Theatre,RTSIND,Belton,TX,AAWYE, 31.05561, -97.46230,94
DMAX Cinema,RTSIND,Gainesville,TX,AAXBT, 33.56630, -97.16560,94
Hometown Cinemas - Gun Barrel City,RTSIND,Gun Barrel City,TX,AAYYS, 32.33410, -96.14400,94
America Cinemas Houston,RTSIND,Houston,TX,AAAUP, 29.70527, -95.51688,94
Plestex 4 Theatre,RTSIND,Pleasanton,TX,AAPUW, 28.96114, -98.48330,94
Icon Cinema San Angelo,RTSIND,San Angelo,TX,AAXPC, 31.47810,-100.45410,94
Hometown Cinemas - Seguin,RTSIND,Seguin,TX,AAPJK, 29.57200, -97.94510,94
Forum Theatres 6,RTSIND,Uvalde,TX,AAKNO, 29.22589, -99.76006,94
Legacy Theaters Bristol 14,RTSIND,Bristol,VA,AAJKI, 36.63003, -82.12899,94
Royal Cinemas - Park Theater,RTSIND,Front Royal,VA,AAKMQ, 38.91770, -78.19260,94
Venue Cinemas,RTSIND,Lynchburg,VA,AAXZW, 37.40630, -79.17090,94
Movie Town Theatre,RTSIND,Martinsville,VA,AAKIU, 36.65530, -79.87760,94
Paramount Twin Cinema,RTSIND,Barre,VT,AAOXO, 44.19954, -72.50363,94
Capitol Theater,RTSIND,Montpelier,VT,AAKOE, 44.26089, -72.57854,94
Battle Ground Cinema,RTSIND,Battle Ground,WA,AATKV, 45.79280,-122.52660,94
SEEfilm Cinema,RTSIND,Bremerton,WA,AAWTA, 47.56580,-122.62860,94
Liberty Theatre,RTSIND,Camas,WA,AAHHJ, 45.58561,-122.40490,94
The Edmonds Theater,RTSIND,Edmonds,WA,AAHBC, 47.81120,-122.37690,94
Village Centre Cinemas Wandermere,RTSIND,Spokane,WA,AAUBZ, 47.77200,-117.40330,94
The Majestic,RTSIND,Union Gap,WA,AATNO, 46.57290,-120.48140,94
Yakima Cinema,RTSIND,Yakima,WA,AAJOI, 46.62070,-120.52740,94
Orion Cinema,RTSIND,Yakima,WA,AALRH, 46.60170,-120.50350,94
Beaver Dam Cinema,RTSIND,Beaver Dam,WI,AAJCJ, 43.45640, -88.84020,94
Schubert's Hartford Theatre,RTSIND,Hartford,WI,AAIWN, 42.99109, -88.23225,94
Mariner Theatre,RTSIND,Marinette,WI,AAOKK, 45.10087, -87.63414,94
Phoenix Theatre & Escape Room,RTSIND,Marinette,WI,AANGX, 45.07684, -87.65661,94
Millennium Cinema,RTSIND,Platteville,WI,AATRR, 42.73040, -90.45580,94
Avalon Cinema,RTSIND,Platteville,WI,AAONK, 42.73336, -90.47747,94
Falls Theatre,RTSIND,River Falls,WI,AAXYU, 44.85830, -92.62650,94
West Bend Cinema,RTSIND,West Bend,WI,AAXVE, 43.39480, -88.18620,94
Upshur Cinema 6,RTSIND,Buckhannon,WV,AAYKC, 38.99600, -80.25360,94
Aspen Cinemas,RTSIND,Evanston,WY,AAKII, 41.25200,-110.93900,94
Reading Cinemas Valley Plaza with IMAX,Reading Theaters,Bakersfield,CA,AAMGO, 35.33680,-119.03780,95
Reading Cinemas Grossmont with TITAN XC,Reading Theaters,La Mesa,CA,AAAWD, 32.77860,-117.00680,95
Reading Cinemas at Cal Oaks Plaza with TITAN Luxe,Reading Theaters,Murrieta,CA,AAKEY, 33.56371,-117.20220,95
Reading Cinemas Manville with Titan Luxe,Reading Theaters,Manville,NJ,AANJG, 40.54620, -74.58710,95
Reel Cinemas Lancaster,Reel Cinemas,Lancaster,PA,AAYRY, 40.07660, -76.31070,96
Reel Cinemas Narberth 2,Reel Cinemas,Narberth,PA,AADKU, 40.00600, -75.26040,96
Regal Totem,Regal,Anchorage,AK,AAASN, 61.19330,-149.73100,97
Regal Dimond Center Cinemas,Regal,Anchorage,AK,AACWX, 61.14420,-149.89300,97
Regal Tikahtnu IMAX & RPX,Regal,Anchorage,AK,AAVWZ, 61.23114,-149.74000,97
Regal Goldstream & IMAX,Regal,Fairbanks,AK,AANZS, 64.83583,-147.75480,97
Regal Trussville,Regal,Birmingham,AL,AAOPG, 33.64256, -86.62620,97
Regal Nu'uuli Place Twin,Regal,Pago Pago,AS,AAOUG,-14.27933,-170.70090,97
Regal Gilbert,Regal,Gilbert,AZ,AAPPP, 33.32880,-111.79590,97
Regal Edwards Alhambra Renaissance & IMAX,Regal,Alhambra,CA,AAQOZ, 34.09520,-118.12600,97
Regal Edwards Aliso Viejo & IMAX,Regal,Aliso Viejo,CA,AAFRH, 33.57380,-117.72150,97
Regal Arroyo Grande,Regal,Arroyo Grande,CA,AAACM, 35.12700,-120.59630,97
Regal Auburn - California,Regal,Auburn,CA,AAQLI, 38.91230,-121.07890,97
Regal Edwards Bakersfield,Regal,Bakersfield,CA,AAEDE, 35.33940,-119.10150,97
Regal Edwards Brea East,Regal,Brea,CA,AAMEO, 33.91850,-117.89900,97
Regal Edwards Camarillo Palace & IMAX,Regal,Camarillo,CA,AABJD, 34.21790,-119.06070,97
Regal Edwards Canyon Country,Regal,Canyon Country,CA,AAJMW, 34.41570,-118.46170,97
Regal Carlsbad,Regal,Carlsbad,CA,AAXIC, 33.17870,-117.32680,97
Regal Edwards Cerritos,Regal,Cerritos,CA,AABIQ, 33.87060,-118.06120,97
Regal Rancho Del Rey,Regal,Chula Vista,CA,AAJAL, 32.63780,-117.01860,97
Regal UA Clovis Movies,Regal,Clovis,CA,AABGK, 36.80560,-119.71260,97
Regal Edwards Corona Crossings & RPX,Regal,Corona,CA,AATBD, 33.82479,-117.51460,97
Regal Edwards Metro Pointe,Regal,Costa Mesa,CA,AAEDK, 33.68980,-117.89570,97
Regal Davis Holiday,Regal,Davis,CA,AAFZC, 38.54230,-121.73860,97
Regal Edwards Eastvale Gateway,Regal,Eastvale,CA,AAUQT, 33.97598,-117.55150,97
Regal Edwards Rancho San Diego,Regal,El Cajon,CA,AALAW, 32.74060,-116.93830,97
Regal Parkway Plaza & IMAX,Regal,El Cajon,CA,AAJNL, 32.80722,-116.96740,97
Regal El Dorado Hills & IMAX,Regal,El Dorado Hills,CA,AATJE, 38.63500,-121.05900,97
Regal Escondido & IMAX,Regal,Escondido,CA,AARFD, 33.12085,-117.08550,97
Regal Edwards Fairfield & IMAX,Regal,Fairfield,CA,AANDK, 38.25840,-122.05590,97
Regal Manchester - Fresno,Regal,Fresno,CA,AAOVY, 36.78205,-119.78624,97
Regal Marketplace @ El Paseo & RPX,Regal,Fresno,CA,AAYUK, 36.82998,-119.90390,97
Regal Garden Grove,Regal,Garden Grove,CA,AANKW, 33.78870,-117.96090,97
Regal University Town Center,Regal,Irvine,CA,AABHI, 33.64856,-117.83800,97
Regal Irvine Spectrum ScreenX, 4DX, IMAX & RPX,Regal,Irvine,CA,AABTB,33.6521
Regal Edwards Market Place,Regal,Irvine,CA,AAJNP, 33.72301,-117.79076,97
Regal UA La Canada,Regal,La Canada,CA,AABSO, 34.20630,-118.21720,97
Regal La Habra,Regal,La Habra,CA,AAMGN, 33.91750,-117.96020,97
Regal Edwards La Verne,Regal,La Verne,CA,AABIR, 34.11460,-117.76860,97
Regal Edwards Long Beach ScreenX & IMAX,Regal,Long Beach,CA,AAMZH, 33.83120,-118.08720,97
Regal LA Live & 4DX,Regal,Los Angeles,CA,AAVPA, 34.04590,-118.26690,97
Regal Hollywood Merced,Regal,Merced,CA,AAPKT, 37.30100,-120.48080,97
Regal Edwards Kaleidoscope,Regal,Mission Viejo,CA,AAITD, 33.56020,-117.67040,97
Regal Modesto,Regal,Modesto,CA,AAPIY, 37.69220,-120.99310,97
Regal Edwards Big Newport & RPX,Regal,Newport Beach,CA,AABFB, 33.61310,-117.87270,97
Regal North Hollywood & 4DX,Regal,North Hollywood,CA,AAYUI, 34.18134,-118.39410,97
Regal Jack London,Regal,Oakland,CA,AAFCC, 37.79600,-122.27680,97
Regal Oceanside,Regal,Oceanside,CA,AANQT, 33.19530,-117.37930,97
Regal Mission Marketplace RPX,Regal,Oceanside,CA,AAYRT, 33.24490,-117.29390,97
Regal Edwards Ontario Mountain Village,Regal,Ontario,CA,AAMHG, 34.08632,-117.67110,97
Regal Paseo,Regal,Pasadena,CA,AAQBA, 34.14580,-118.14000,97
Regal Rancho Mirage & IMAX,Regal,Rancho Mirage,CA,AANKH, 33.80139,-116.39230,97
Regal Riverside Plaza,Regal,Riverside,CA,AATBE, 33.95370,-117.38910,97
Regal Promenade,Regal,Rolling Hills Estates,CA,AAOPM, 33.77180,-118.37210,97
Regal UA Laguna Village,Regal,Sacramento,CA,AAAKE, 38.43630,-121.41850,97
Regal Delta Shores & IMAX,Regal,Sacramento,CA,AAYII, 38.46465,-121.49130,97
Regal San Bernardino & RPX,Regal,San Bernardino,CA,AAWQJ, 34.10740,-117.29410,97
Regal Stonestown Galleria ScreenX, 4DX, & RPX,Regal,San Francisco,CA,AAYUM,37.72818
Regal San Jacinto Metro,Regal,San Jacinto,CA,AAHQI, 33.77500,-116.95770,97
Regal Edwards San Marcos,Regal,San Marcos,CA,AAIJT, 33.13300,-117.19430,97
Regal Edwards Valencia ScreenX & IMAX,Regal,Santa Clarita,CA,AABIX, 34.41970,-118.56160,97
Regal Edwards Santa Maria & RPX,Regal,Santa Maria,CA,AAXBX, 34.95290,-120.43340,97
Regal Sherman Oaks Galleria,Regal,Sherman Oaks,CA,AAURI, 34.15532,-118.46697,97
Regal Simi Valley Civic Center & IMAX,Regal,Simi Valley,CA,AANRA, 34.28550,-118.71670,97
Regal Sonora,Regal,Sonora,CA,AAPGN, 37.97370,-120.36690,97
Regal Edwards South Gate,Regal,South Gate,CA,AAPDQ, 33.95260,-118.16300,97
Regal Stockton City Center & IMAX,Regal,Stockton,CA,AARFB, 37.95490,-121.29030,97
Regal Stockton Holiday Cinema,Regal,Stockton,CA,AAIDO, 38.01260,-121.29320,97
Regal Edwards Temecula & IMAX,Regal,Temecula,CA,AAOBW, 33.52525,-117.15180,97
Regal Janss Marketplace,Regal,Thousand Oaks,CA,AAXVN, 34.18260,-118.87930,97
Regal Turlock,Regal,Turlock,CA,AALAU, 37.49500,-120.87520,97
Regal Ukiah,Regal,Ukiah,CA,AAKEM, 39.14400,-123.20560,97
Regal Visalia,Regal,Visalia,CA,AALUN, 36.32990,-119.28790,97
Regal Edwards West Covina & ScreenX,Regal,West Covina,CA,AAEDP, 34.06980,-117.92180,97
Regal Yorba Linda & IMAX,Regal,Yorba Linda,CA,AAYQZ, 33.89020,-117.81200,97
Regal SouthGlenn,Regal,Centennial,CO,AAVRY, 39.59042,-104.96380,97
Regal Interquest & RPX,Regal,Colorado Springs,CO,AAUVW, 38.99098,-104.81120,97
Regal UA Colorado Center & IMAX,Regal,Denver,CO,AAFXW, 39.68020,-104.94000,97
Regal UA Denver Pavilions 4DX & RPX,Regal,Denver,CO,AAJJG, 39.74380,-104.99000,97
Regal Canyon View,Regal,Grand Junction,CO,AAUEF, 39.09800,-108.60421,97
Regal UA Colorado Mills IMAX & RPX,Regal,Lakewood,CO,AAQQK, 39.73420,-105.15940,97
Regal Village At The Peaks & RPX,Regal,Longmont,CO,AAHTU, 40.14812,-105.12810,97
Regal River Point & RPX,Regal,Sheridan,CO,AAVKZ, 39.65200,-105.00990,97
Regal Waterford,Regal,Waterford,CT,AAGEB, 41.36804, -72.16518,97
Regal Gallery Place & 4DX,Regal,Washington,DC,AATAR, 38.89883, -77.02177,97
Regal Peoples Plaza,Regal,Newark,DE,AAEHM, 39.60303, -75.74851,97
Regal Brandywine Town Center,Regal,Wilmington,DE,AADRI, 39.83220, -75.53833,97
Regal Wekiva Riverwalk,Regal,Apopka,FL,AABGX, 28.67409, -81.47377,97
Regal Oakmont,Regal,Bradenton,FL,AAEHP, 27.46200, -82.60940,97
Regal Magnolia Place,Regal,Coral Springs,FL,AAGDQ, 26.29750, -80.25420,97
Regal Dania Pointe 4DX, RPX & VIP,Regal,Dania Beach,FL,AAYUL, 26.05262,-80.16063
Regal Gulf Coast & IMAX,Regal,Fort Myers,FL,AATXG, 26.48857, -81.78626,97
Regal Belltower & ScreenX,Regal,Fort Myers,FL,AAEQP, 26.55350, -81.86760,97
Regal Royal Park,Regal,Gainesville,FL,AAGAB, 29.65160, -82.37930,97
Regal Celebration Pointe & RPX,Regal,Gainesville,FL,AAYIV, 29.62395, -82.39622,97
Regal Butler Town Center,Regal,Gainesville,FL,AAEQX, 29.62510, -82.37470,97
Regal Oakwood,Regal,Hollywood,FL,AAEJP, 26.04330, -80.16100,97
Regal Citrus Cinemas,Regal,Inverness,FL,AAEHR, 28.85370, -82.38850,97
Regal Avenues 4DX & RPX,Regal,Jacksonville,FL,AANZR, 30.19410, -81.56800,97
Regal Treasure Coast Mall,Regal,Jensen Beach,FL,AAPEY, 27.24320, -80.27200,97
Regal Key West,Regal,Key West,FL,AAEJR, 24.57050, -81.76410,97
Regal The Loop & RPX,Regal,Kissimmee,FL,AATWT, 28.34360, -81.42030,97
Regal UA Cinema 90,Regal,Lake City,FL,AAFTI, 30.19520, -82.63840,97
Regal Eagle Ridge Mall,Regal,Lake Wales,FL,AAEHS, 27.89040, -81.58990,97
Regal Largo Mall,Regal,Largo,FL,AAEHT, 27.89440, -82.78310,97
Regal Santa Rosa,Regal,Mary Esther,FL,AAFTK, 30.41490, -86.65420,97
Regal Southland Mall,Regal,Miami,FL,AAUGP, 25.57138, -80.37617,97
Regal UA Falls,Regal,Miami,FL,AAFTL, 25.64680, -80.34060,97
Regal Naples 4DX & IMAX,Regal,Naples,FL,AAELU, 26.21800, -81.77170,97
Regal Hollywood ScreenX & IMAX - Ocala,Regal,Ocala,FL,AAELY, 29.15850, -82.16900,97
Regal Waterford Lakes 4DX & IMAX,Regal,Orlando,FL,AAOPE, 28.54970, -81.20390,97
Regal Pointe Orlando 4DX & IMAX,Regal,Orlando,FL,AAUJQ, 28.43268, -81.47129,97
Regal Oviedo Mall,Regal,Oviedo,FL,AAFQV, 28.68050, -81.20860,97
Regal Regency - Panama City,Regal,Panama City,FL,AAGAA, 30.19110, -85.68610,97
Regal Westfork,Regal,Pembroke Pines,FL,AANHG, 26.00720, -80.35790,97
Regal Park Place,Regal,Pinellas Park,FL,AAPIO, 27.83940, -82.71380,97
Regal Broward & RPX,Regal,Plantation,FL,AAXCM, 26.12059, -80.25472,97
Regal Town Center - Port Charlotte,Regal,Port Charlotte,FL,AAOGJ, 26.97500, -82.15200,97
Regal Pavilion & RPX,Regal,Port Orange,FL,AAVSB, 29.10510, -81.03140,97
Regal Hollywood - Port Richey,Regal,Port Richey,FL,AAEHY, 28.30640, -82.70560,97
Regal Royal Palm Beach & RPX,Regal,Royal Palm Beach,FL,AAFWV, 26.70125, -80.20471,97
Regal Hollywood - Sarasota,Regal,Sarasota,FL,AAERD, 27.33620, -82.53150,97
Regal Sawgrass & IMAX,Regal,Sunrise,FL,AAEKB, 26.16020, -80.31990,97
Regal Winter Park Village & RPX,Regal,Winter Park,FL,AANZD, 28.60160, -81.36550,97
Regal Avalon,Regal,Alpharetta,GA,AAXIE, 34.07188, -84.27654,97
Regal Perimeter Pointe,Regal,Atlanta,GA,AADIT, 33.93335, -84.34882,97
Regal Atlantic Station ScreenX, IMAX, RPX & VIP,Regal,Atlanta,GA,AATSJ,33.79352
Regal Augusta Exchange & IMAX,Regal,Augusta,GA,AANQX, 33.48797, -82.07707,97
Regal Mall of Georgia IMAX,Regal,Buford,GA,AANKX, 34.06550, -83.98550,97
Regal Carrollton,Regal,Carrollton,GA,AAUTK, 33.59520, -85.03870,97
Regal Hamilton Mill,Regal,Dacula,GA,AAUXT, 34.07240, -83.91180,97
Regal Dawson,Regal,Dawsonville,GA,AATFW, 34.36640, -84.03700,97
Regal Arbor Place & IMAX,Regal,Douglasville,GA,AANQU, 33.72120, -84.77740,97
Regal Medlock Crossing & RPX,Regal,Duluth,GA,AAMEM, 34.01790, -84.19020,97
Regal Hollywood Cinemas - Gainesville,Regal,Gainesville,GA,AAHMG, 34.29511, -83.85694,97
Regal Griffin,Regal,Griffin,GA,AAUTI, 33.28640, -84.27270,97
Regal McDonough,Regal,McDonough,GA,AATVC, 33.46650, -84.20740,97
Regal Georgian,Regal,Newnan,GA,AATCL, 33.39465, -84.76131,97
Regal Cherokee,Regal,Woodstock,GA,AAEVW, 34.11190, -84.55310,97
Regal Guam Megaplex,Regal,Tamuning,GU,AAMEG, 13.48984, 144.78070,97
Regal Prince Kuhio,Regal,Hilo,HI,AALLD, 19.70110,-155.07250,97
Regal Dole Cannery ScreenX, 4DX, IMAX & RPX,Regal,Honolulu,HI,AANGE,21.319
Regal Maui Mall Megaplex,Regal,Kahului,HI,AAOGZ, 20.89480,-156.46930,97
Regal Windward,Regal,Kaneohe,HI,AAPKX, 21.42065,-157.80580,97
Regal Kapolei Commons,Regal,Kapolei,HI,AAXTU, 21.33140,-158.09010,97
Regal Keauhou,Regal,Keauhou-Kona,HI,AAQNB, 19.62218,-155.98360,97
Regal Pearl Highlands,Regal,Pearl City,HI,AAJJX, 21.39830,-157.97600,97
Regal Edwards Grand Teton,Regal,Ammon,ID,AANRD, 43.47317,-111.98228,97
Regal Edwards Boise ScreenX, 4DX & IMAX,Regal,Boise,ID,AAEUX, 43.59050,-116.2764
Regal Riverstone,Regal,Coeur D'Alene,ID,AATJB, 47.69515,-116.80580,97
Regal Edwards Nampa Spectrum,Regal,Nampa,ID,AAODF, 43.59820,-116.60210,97
Regal Bolingbrook,Regal,Bolingbrook,IL,AAHVC, 41.70360, -88.12110,97
Regal Webster Place,Regal,Chicago,IL,AAAXR, 41.92150, -87.66550,97
Regal City North 4DX & IMAX,Regal,Chicago,IL,AAODV, 41.92880, -87.68800,97
Regal Crystal Lake Showplace,Regal,Crystal Lake,IL,AAKHI, 42.22590, -88.29000,97
Regal Lake Zurich,Regal,Lake Zurich,IL,AAHVE, 42.18300, -88.08460,97
Regal Shiloh Crossing,Regal,Avon,IN,AAEJM, 39.76812, -86.33883,97
Regal Village Park,Regal,Carmel,IN,AAEJQ, 40.00050, -86.12160,97
Regal Coldwater Crossing,Regal,Fort Wayne,IN,AAEKI, 41.15330, -85.12410,97
Regal Greenwood & RPX,Regal,Greenwood,IN,AACTA, 39.63014, -86.11643,97
Regal UA Galaxy - Indianapolis,Regal,Indianapolis,IN,AACVP, 39.92700, -86.02470,97
Regal Noblesville,Regal,Noblesville,IN,AATXN, 40.03860, -85.99340,97
Regal Southwind,Regal,Lawrence,KS,AAGLD, 38.92220, -95.26050,97
Regal West Ridge,Regal,Topeka,KS,AANAM, 39.03470, -95.76180,97
Regal Warren East,Regal,Wichita,KS,AAQLH, 37.70820, -97.20300,97
Regal Warren West ScreenX & IMAX,Regal,Wichita,KS,AAKNP, 37.72310, -97.44420,97
Regal Greenwood Mall,Regal,Bowling Green,KY,AATKK, 36.95030, -86.42530,97
Regal Bowling Green,Regal,Bowling Green,KY,AAPKU, 36.97193, -86.47658,97
Regal Hamburg Pavilion IMAX & RPX,Regal,Lexington,KY,AAOGK, 38.02590, -84.43720,97
Regal Wilder,Regal,Wilder,KY,AAPES, 39.01814, -84.48682,97
Regal Louisiana Boardwalk & IMAX,Regal,Bossier City,LA,AATEG, 32.51751, -93.73741,97
Regal Grand Esplanade & GPX,Regal,Kenner,LA,AAXDQ, 30.02000, -90.24660,97
Regal UA Lee Hills,Regal,Leesville,LA,AAJUI, 31.12220, -93.27270,97
Regal Bellingham,Regal,Bellingham,MA,AAEZS, 42.11380, -71.47000,97
Regal Independence Mall & RPX,Regal,Kingston,MA,AADTK, 41.97500, -70.71180,97
Regal Solomon Pond,Regal,Marlborough,MA,AADXG, 42.35594, -71.61404,97
Regal Mashpee Commons,Regal,Mashpee,MA,AADTL, 41.61840, -70.48720,97
Regal MGM Springfield,Regal,Springfield,MA,AAYLA, 42.09870, -72.58830,97
Regal Westview & IMAX,Regal,Frederick,MD,AAQPT, 39.37560, -77.40980,97
Regal Waugh Chapel & IMAX,Regal,Gambrills,MD,AAWTF, 39.03680, -76.67840,97
Regal Valley Mall & ScreenX,Regal,Hagerstown,MD,AAOTY, 39.62330, -77.76900,97
Regal Hunt Valley,Regal,Hunt Valley,MD,AAJUS, 39.50080, -76.65480,97
Regal Hyattsville Royale,Regal,Hyattsville,MD,AAUND, 38.96910, -76.95260,97
Regal Laurel Towne Centre,Regal,Laurel,MD,AAXIB, 39.09280, -76.85580,97
Regal Rockville Center,Regal,Rockville,MD,AAIXZ, 39.08480, -77.15170,97
Regal Salisbury & RPX,Regal,Salisbury,MD,AATUA, 38.39590, -75.57260,97
Regal Majestic & IMAX,Regal,Silver Spring,MD,AARON, 38.99640, -77.02560,97
Regal Augusta,Regal,Augusta,ME,AAFWZ, 44.33510, -69.77270,97
Regal Lansing Mall & RPX,Regal,Lansing,MI,AAXGC, 42.74100, -84.62540,97
Regal UA Commerce Township,Regal,Walled Lake,MI,AAFZA, 42.53135, -83.44342,97
Regal Columbia & RPX,Regal,Columbia,MO,AAOFG, 38.93070, -92.29870,97
Regal Northstar,Regal,Joplin,MO,AANAH, 37.09110, -94.47060,97
Regal Forum,Regal,Rolla,MO,AAKLY, 37.95910, -91.75560,97
Regal Hollywood - St. Joseph,Regal,St. Joseph,MO,AATJF, 39.81896, -94.81219,97
Regal UA Westbrook,Regal,Brookhaven,MS,AAMCH, 31.58030, -90.44820,97
Regal Gallatin Valley,Regal,Bozeman,MT,AAQWD, 45.67340,-111.07290,97
Regal Biltmore Grande,Regal,Asheville,NC,AAUZA, 35.48493, -82.55791,97
Regal Boone Cinema,Regal,Boone,NC,AAELZ, 36.22020, -81.65980,97
Regal Crossroads & IMAX - Cary,Regal,Cary,NC,AAONH, 35.75580, -78.73910,97
Regal Stonecrest at Piper Glen 4DX, IMAX & RPX,Regal,Charlotte,NC,AAIXY, 35.06170,-80.8155
Regal Starlight - Charlotte,Regal,Charlotte,NC,AAFZK, 35.33410, -80.71920,97
Regal White Oak,Regal,Garner,NC,AAUBR, 35.68540, -78.62400,97
Regal Franklin Square,Regal,Gastonia,NC,AAKRJ, 35.25970, -81.12920,97
Regal Greensboro Grande & RPX,Regal,Greensboro,NC,AAOZP, 36.08750, -79.83360,97
Regal Palladium & IMAX,Regal,High Point,NC,AATCE, 36.03494, -79.95902,97
Regal Birkdale,Regal,Huntersville,NC,AAPKD, 35.44653, -80.87769,97
Regal Brier Creek,Regal,Raleigh,NC,AAQWE, 35.90421, -78.78479,97
Regal North Hills,Regal,Raleigh,NC,AATCU, 35.83720, -78.64246,97
Regal Mayfaire & IMAX,Regal,Wilmington,NC,AATVX, 34.24270, -77.83317,97
Regal Fox Run & RPX,Regal,Newington,NH,AAFXO, 43.09140, -70.80080,97
Regal Burlington,Regal,Burlington,NJ,AADHV, 40.03830, -74.82380,97
Regal Independence Plaza & RPX,Regal,Hamilton Township,NJ,AAXQI, 40.19211, -74.72270,97
Regal Manahawkin,Regal,Manahawkin,NJ,AAJNR, 39.68000, -74.23800,97
Regal Hamilton Commons,Regal,Mays Landing,NJ,AAQAD, 39.44430, -74.62700,97
Regal Moorestown Mall & RPX,Regal,Moorestown,NJ,AAXBZ, 39.94270, -74.96520,97
Regal Commerce Center & RPX,Regal,North Brunswick,NJ,AAMAC, 40.44400, -74.50090,97
Regal Secaucus ShowPlace 14,Regal,Secaucus,NJ,AAVPQ, 40.78630, -74.04630,97
Regal UA Washington Township,Regal,Sewell,NJ,AABMC, 39.71470, -75.03040,97
Regal Hadley Theatre,Regal,South Plainfield,NJ,AAEMI, 40.54950, -74.43090,97
Regal Cross Keys,Regal,Turnersville,NJ,AADKW, 39.72470, -75.03600,97
Regal Cumberland Mall,Regal,Vineland,NJ,AAJAZ, 39.43223, -75.03159,97
Regal UA Cottonwood,Regal,Albuquerque,NM,AACMQ, 35.19800,-106.65090,97
Regal Winrock ScreenX, IMAX & RPX,Regal,Albuquerque,NM,AAXBY, 35.09777,-106.562
Regal Santa Fe Place,Regal,Santa Fe,NM,AAYNC, 35.63572,-106.01388,97
Regal Green Valley Ranch,Regal,Henderson,NV,AAQEL, 36.02150,-115.09100,97
Regal Sunset Station & IMAX,Regal,Henderson,NV,AABUN, 36.06360,-115.04300,97
Regal Red Rock 4DX & IMAX,Regal,Las Vegas,NV,AATYA, 36.15880,-115.33170,97
Regal Cinebarre Palace Station,Regal,Las Vegas,NV,AAYMR, 36.14420,-115.17410,97
Regal Summerlin Luxury,Regal,Las Vegas,NV,AAXHH, 36.14948,-115.33200,97
Regal Boulder Station,Regal,Las Vegas,NV,AABSV, 36.13150,-115.08410,97
Regal Aliante & IMAX,Regal,North Las Vegas,NV,AAUZM, 36.29140,-115.18200,97
Regal Crossgates & IMAX,Regal,Albany,NY,AAGGS, 42.68932, -73.85013,97
Regal Colonie Center & RPX,Regal,Albany,NY,AAUTQ, 42.70950, -73.81460,97
Regal Binghamton,Regal,Binghamton,NY,AAODE, 42.10600, -75.91500,97
Regal Concourse 10,Regal,Bronx,NY,AACUB, 40.82526, -73.92120,97
Regal UA Sheepshead Bay IMAX & RPX,Regal,Brooklyn,NY,AABKC, 40.58590, -73.93120,97
Regal Elmwood Center,Regal,Buffalo,NY,AAETH, 42.95150, -78.87830,97
Regal Walden Galleria 4DX & RPX,Regal,Buffalo,NY,AAUVB, 42.91059, -78.76083,97
Regal Clifton Park & RPX,Regal,Clifton Park,NY,AAGGH, 42.86082, -73.78094,97
Regal Deer Park,Regal,Deer Park,NY,AAUYV, 40.76434, -73.30624,97
Regal UA East Hampton Cinema,Regal,East Hampton,NY,AABKG, 40.96310, -72.18600,97
Regal UA Farmingdale & IMAX,Regal,Farmingdale,NY,AAGVL, 40.72660, -73.42790,97
Regal Tangram 4DX,Regal,Flushing,NY,AAYUJ, 40.76005, -73.83400,97
Regal UA Midway,Regal,Forest Hills,NY,AABJW, 40.72070, -73.84400,97
Regal UA Hampton Bays,Regal,Hampton Bays,NY,AAETD, 40.87640, -72.53140,97
Regal Arnot Mall,Regal,Horseheads,NY,AAJVU, 42.15430, -76.87750,97
Regal Ithaca Mall,Regal,Ithaca,NY,AAUNQ, 42.48370, -76.48730,97
Regal Lynbrook & RPX,Regal,Lynbrook,NY,AABJU, 40.65725, -73.67187,97
Regal UA Cortlandt Town Center,Regal,Mohegan Lake,NY,AAGCR, 41.31240, -73.86920,97
Regal Nanuet & RPX,Regal,Nanuet,NY,AAXBF, 41.09575, -74.01649,97
Regal New Roc 4DX, IMAX & RPX,Regal,New Rochelle,NY,AANLC, 40.91110,-73.7808
Regal Union Square ScreenX & 4DX,Regal,New York,NY,AAJNK, 40.73430, -73.99110,97
Regal Battery Park,Regal,New York,NY,AAPOS, 40.71465, -74.01496,97
Regal Essex Crossing & RPX,Regal,New York,NY,AAYNY, 40.71850, -73.98751,97
Regal Times Square,Regal,New York,NY,AAODH, 40.75736, -73.98925,97
Regal Quaker Crossing,Regal,Orchard Park,NY,AAFSO, 42.79150, -78.77830,97
Regal Champlain Centre,Regal,Plattsburgh,NY,AAKGP, 44.70009, -73.49335,97
Regal Galleria Mall,Regal,Poughkeepsie,NY,AAJFT, 41.62360, -73.91740,97
Regal UA Kaufman Astoria,Regal,Queens,NY,AAPOT, 40.75570, -73.92400,97
Regal Atlas Park,Regal,Queens,NY,AATZO, 40.70910, -73.87010,97
Regal Aviation Mall,Regal,Queensbury,NY,AAGGD, 43.32688, -73.67771,97
Regal East Greenbush,Regal,Rensselaer,NY,AAGGV, 42.64410, -73.69880,97
Regal Ronkonkoma,Regal,Ronkonkoma,NY,AAKHG, 40.83170, -73.08660,97
Regal Bricktown Charleston,Regal,Staten Island,NY,AAYNJ, 40.53050, -74.23010,97
Regal Eastview Mall,Regal,Victor,NY,AAEQV, 43.03160, -77.44200,97
Regal Salmon Run,Regal,Watertown,NY,AAKHU, 43.98214, -75.94968,97
Regal Westbury IMAX & RPX,Regal,Westbury,NY,AAODG, 40.77851, -73.55614,97
Regal Transit Center & IMAX,Regal,Williamsville,NY,AAETG, 42.95310, -78.69700,97
Regal Independence,Regal,Akron,OH,AAEMM, 41.11060, -81.47100,97
Regal Fairfield Commons & RPX,Regal,Beavercreek,OH,AANKZ, 39.76940, -84.05230,97
Regal Cobblestone Square,Regal,Elyria,OH,AANQY, 41.41917, -82.08278,97
Regal Hudson Cinema,Regal,Hudson,OH,AAEMU, 41.20900, -81.44030,97
Regal American Mall,Regal,Lima,OH,AATXM, 40.74250, -84.10530,97
Regal Deerfield Town Center & RPX,Regal,Mason,OH,AAUNB, 39.30790, -84.31720,97
Regal Massillon,Regal,Massillon,OH,AATLK, 40.80160, -81.52280,97
Regal Medina,Regal,Medina,OH,AAJOC, 41.15590, -81.86550,97
Regal Boulevard Centre,Regal,Niles,OH,AAENO, 41.21816, -80.74859,97
Regal Crocker Park & IMAX,Regal,Westlake,OH,AAENG, 41.45250, -81.92980,97
Regal Willoughby Commons,Regal,Willoughby,OH,AAJAI, 41.62850, -81.42340,97
Regal Cinema South,Regal,Youngstown,OH,AAENQ, 41.02110, -80.63460,97
Regal Bartlesville Movies,Regal,Bartlesville,OK,AAKJL, 36.71600, -95.93480,97
Regal Warren Broken Arrow,Regal,Broken Arrow,OK,AAXLJ, 35.98470, -95.80900,97
Regal Midwest City,Regal,Midwest City,OK,AAYQB, 35.44973, -97.41746,97
Regal Warren Moore 4DX & IMAX,Regal,Moore,OK,AAUUO, 35.32810, -97.49440,97
Regal Spotlight,Regal,Norman,OK,AAGTI, 35.23118, -97.48842,97
Regal Albany Cinemas,Regal,Albany,OR,AAAXF, 44.63020,-123.07230,97
Regal Old Mill ScreenX & IMAX,Regal,Bend,OR,AAOTC, 44.04471,-121.31430,97
Regal Valley River Center & IMAX,Regal,Eugene,OR,AAUHX, 44.07000,-123.10000,97
Regal Stark Street,Regal,Gresham,OR,AAFWF, 45.51830,-122.39740,97
Regal Movies On TV,Regal,Hillsboro,OR,AAESC, 45.49900,-122.91630,97
Regal Evergreen Parkway & RPX,Regal,Hillsboro,OR,AAAQM, 45.53960,-122.86860,97
Regal Hilltop Cinema,Regal,Oregon City,OR,AACHL, 45.33560,-122.58880,97
Regal Pioneer Place,Regal,Portland,OR,AAQZI, 45.51820,-122.67590,97
Regal Fox Tower,Regal,Portland,OR,AAOZW, 45.51836,-122.68100,97
Regal Lloyd Center & IMAX,Regal,Portland,OR,AAAPP, 45.53150,-122.64900,97
Regal Santiam,Regal,Salem,OR,AALNO, 44.92336,-122.98560,97
Regal Willamette Town Center,Regal,Salem,OR,AAUDB, 44.94340,-122.98530,97
Regal Bridgeport Village ScreenX & IMAX,Regal,Tigard,OR,AATJC, 45.39500,-122.75160,97
Regal Plymouth Meeting,Regal,Conshohocken,PA,AADHW, 40.10010, -75.30390,97
Regal Dickson City & IMAX,Regal,Dickson City,PA,AAWQC, 41.47065, -75.63287,97
Regal Downingtown & IMAX,Regal,Downingtown,PA,AAMGG, 40.01429, -75.67413,97
Regal Northampton Cinema & RPX,Regal,Easton,PA,AAEIW, 40.71130, -75.28170,97
Regal Harrisburg,Regal,Harrisburg,PA,AAOGS, 40.30490, -76.82840,97
Regal Hazleton,Regal,Hazleton,PA,AALNI, 40.98120, -76.01940,97
Regal UA King Of Prussia 4DX & IMAX,Regal,King Of Prussia,PA,AAOQP, 40.08940, -75.38800,97
Regal Manor,Regal,Lancaster,PA,AAMUQ, 40.02710, -76.32720,97
Regal UA Oxford Valley,Regal,Langhorne,PA,AADIA, 40.18550, -74.88270,97
Regal UA Main Street Theatre,Regal,Manayunk,PA,AADHZ, 40.01530, -75.20910,97
Regal Edgmont Square,Regal,Newtown Square,PA,AAEBQ, 39.97530, -75.44070,97
Regal UA Grant Plaza,Regal,Philadelphia,PA,AABZT, 40.08700, -75.04090,97
Regal Warrington Crossing ScreenX, 4DX & IMAX,Regal,Warrington,PA,AANJA, 40.21690,-75.1403
Regal West Manchester,Regal,York,PA,AAIVX, 39.97143, -76.77148,97
Regal Aiken Mall,Regal,Aiken,SC,AAEOG, 33.51031, -81.71752,97
Regal Starlight - Anderson,Regal,Anderson,SC,AAOVB, 34.57605, -82.70895,97
Regal Sandhill IMAX & RPX,Regal,Columbia,SC,AATLL, 34.11180, -80.85770,97
Regal Columbiana Grande,Regal,Columbia,SC,AAONG, 34.06970, -81.15270,97
Regal Swamp Fox,Regal,Florence,SC,AAQIH, 34.19400, -79.80990,97
Regal Cherrydale,Regal,Greenville,SC,AAQHS, 34.88920, -82.40000,97
Regal Hollywood & RPX - Greenville,Regal,Greenville,SC,AAERB, 34.83210, -82.30740,97
Regal Northlake Village,Regal,Lexington,SC,AAKCA, 33.99470, -81.23080,97
Regal Palmetto Grande,Regal,Mount Pleasant,SC,AANPY, 32.83090, -79.83070,97
Regal Manchester - Rock Hill,Regal,Rock Hill,SC,AAOZR, 34.94421, -80.97810,97
Regal Simpsonville & IMAX,Regal,Simpsonville,SC,AAVZV, 34.72810, -82.25820,97
Regal Spartan,Regal,Spartanburg,SC,AARMS, 34.94490, -81.99830,97
Regal Azalea Square & RPX,Regal,Summerville,SC,AAREK, 33.06330, -80.18960,97
Regal Hamilton Place,Regal,Chattanooga,TN,AAEOR, 35.03211, -85.16606,97
Regal Clarksville & RPX,Regal,Clarksville,TN,AARND, 36.62470, -87.31800,97
Regal Streets of Indian Lake & IMAX,Regal,Hendersonville,TN,AAUSN, 36.32992, -86.58944,97
Regal Cinebarre West Town Mall,Regal,Knoxville,TN,AAJAJ, 35.92471, -84.03828,97
Regal Pinnacle ScreenX, 4DX, IMAX & RPX,Regal,Knoxville,TN,AATJD,35.89967
Regal Downtown West Cinema,Regal,Knoxville,TN,AAEON, 35.91880, -84.04940,97
Regal Riviera,Regal,Knoxville,TN,AAUNO, 35.96502, -83.91801,97
Regal Providence,Regal,Mt. Juliet,TN,AAUMQ, 36.16610, -86.51440,97
Regal Hollywood ScreenX, 4DX & RPX – Nashville,Regal,Nashville,TN,AAEXD, 36.11210,-86.7658
Regal Opry Mills ScreenX, 4DX, IMAX & RPX,Regal,Nashville,TN,AAOPJ,36.20427
Regal Green Hills,Regal,Nashville,TN,AAIWP, 36.10750, -86.81640,97
Regal Tullahoma,Regal,Tullahoma,TN,AAERT, 35.36194, -86.20940,97
Regal Metropolitan,Regal,Austin,TX,AALHE, 30.19740, -97.76500,97
Regal Gateway 4DX & IMAX,Regal,Austin,TX,AAEBG, 30.38780, -97.73870,97
Regal Westgate,Regal,Austin,TX,AANOT, 30.23015, -97.79965,97
Regal Star,Regal,Beaumont,TX,AAKJS, 30.12326, -94.15775,97
Regal UA Galaxy Theatre & ScreenX - Dallas,Regal,Dallas,TX,AACAW, 32.86936, -96.67655,97
Regal Heartland,Regal,Early,TX,AAPDA, 31.73550, -98.96220,97
Regal Fossil Creek,Regal,Ft. Worth,TX,AACTX, 32.85454, -97.31174,97
Regal Edwards Greenway Grand Palace ScreenX & RPX,Regal,Houston,TX,AANZG, 29.73000, -95.44110,97
Regal Houston Marq*E ScreenX, 4DX, IMAX & RPX,Regal,Houston,TX,AAOJH,29.78489
Regal Killeen,Regal,Killeen,TX,AAKKI, 31.08900, -97.71070,97
Regal Live Oak & RPX,Regal,Live Oak,TX,AANLB, 29.56290, -98.33360,97
Regal Cielo Vista & RPX,Regal,San Antonio,TX,AAOTB, 29.46200, -98.62270,97
Regal Northwoods,Regal,San Antonio,TX,AAJMK, 29.60493, -98.46433,97
Regal Huebner Oaks & RPX,Regal,San Antonio,TX,AAWSD, 29.54765, -98.58201,97
Regal Alamo Quarry,Regal,San Antonio,TX,AAFFH, 29.49330, -98.47940,97
Regal Benders Landing 4DX, ScreenX, RPX & VIP,Regal,Spring,TX,AAYUH,30.12084
Regal Lone Star IMAX & RPX,Regal,Tomball,TX,AAUTG, 30.09716, -95.61606,97
Regal Crossroads ScreenX & RPX - Taylorsville,Regal,Taylorsville,UT,AAYBN, 40.65123,-111.94230,97
Regal Kingstowne ScreenX & RPX,Regal,Alexandria,VA,AATUQ, 38.77190, -77.13844,97
Regal Ballston Quarter,Regal,Arlington,VA,AANHF, 38.87750, -77.11040,97
Regal Fox 4DX & IMAX,Regal,Ashburn,VA,AAUNS, 38.98426, -77.53709,97
Regal Stonefield & IMAX,Regal,Charlottesville,VA,AAWUC, 38.06270, -78.49340,97
Regal New River Valley & RPX,Regal,Christiansburg,VA,AAUJV, 37.16560, -80.42350,97
Regal Southpark Mall,Regal,Colonial Heights,VA,AAUNP, 37.25470, -77.39610,97
Regal Culpeper,Regal,Culpeper,VA,AAPOO, 38.47270, -77.99670,97
Regal Fairfax Towne Center,Regal,Fairfax,VA,AADYA, 38.86700, -77.36680,97
Regal Fredericksburg & IMAX,Regal,Fredericksburg,VA,AAEQW, 38.29440, -77.51830,97
Regal Virginia Gateway & RPX,Regal,Gainesville,VA,AAXBG, 38.79051, -77.60616,97
Regal Virginia Center,Regal,Glen Allen,VA,AAEPQ, 37.67450, -77.46130,97
Regal Harrisonburg,Regal,Harrisonburg,VA,AAMSG, 38.42950, -78.85210,97
Regal River Ridge,Regal,Lynchburg,VA,AAVOY, 37.36580, -79.17270,97
Regal Westchester Commons,Regal,Midlothian,VA,AAVGW, 37.51373, -77.68922,97
Regal Commonwealth & IMAX,Regal,Midlothian,VA,AAOWM, 37.41990, -77.63050,97
Regal Kiln Creek,Regal,Newport News,VA,AAEPI, 37.10960, -76.46970,97
Regal Macarthur Center & RPX,Regal,Norfolk,VA,AAMDK, 36.84950, -76.28970,97
Regal West Tower Cinemas,Regal,Richmond,VA,AABLC, 37.63510, -77.54680,97
Regal Short Pump,Regal,Richmond,VA,AAPHS, 37.65720, -77.63000,97
Regal Valley View Grande,Regal,Roanoke,VA,AAOZQ, 37.31310, -79.96620,97
Regal Springfield Town Center,Regal,Springfield,VA,AAXHI, 38.77477, -77.17419,97
Regal Dulles Town Center,Regal,Sterling,VA,AAXIA, 39.03150, -77.42700,97
Regal Harbour View Grande,Regal,Suffolk,VA,AAPDU, 36.86590, -76.44400,97
Regal Columbus,Regal,Virginia Beach,VA,AAEQT, 36.84056, -76.12982,97
Regal Strawbridge Marketplace,Regal,Virginia Beach,VA,AAEPK, 36.76930, -76.01560,97
Regal New Town,Regal,Williamsburg,VA,AATVD, 37.27914, -76.74140,97
Regal Auburn - Washington,Regal,Auburn,WA,AACPZ, 47.29650,-122.24060,97
Regal Crossroads - Bellevue,Regal,Bellevue,WA,AAATX, 47.62070,-122.13090,97
Regal Barkley Village IMAX & RPX,Regal,Bellingham,WA,AAWUF, 48.77040,-122.44920,97
Regal Tall Firs,Regal,Bonney Lake,WA,AAERS, 47.16587,-122.15340,97
Regal Everett Stadium 16 & RPX,Regal,Everett,WA,AATZS, 47.91170,-122.21490,97
Regal Issaquah Highlands IMAX & RPX,Regal,Issaquah,WA,AAWYY, 47.54342,-122.01560,97
Regal Three Rivers Mall & RPX,Regal,Kelso,WA,AAXID, 46.14160,-122.90140,97
Regal Martin Village ScreenX & IMAX,Regal,Lacey,WA,AATQL, 47.04950,-122.81050,97
Regal Lakewood & RPX,Regal,Lakewood,WA,AAJMO, 47.18106,-122.46960,97
Regal Alderwood & RPX,Regal,Lynnwood,WA,AAATU, 47.83240,-122.27940,97
Regal Marysville,Regal,Marysville,WA,AAGDS, 48.08430,-122.17120,97
Regal Cinebarre Mountlake,Regal,Mountlake Terrace,WA,AAVNT, 47.78034,-122.31480,97
Regal Poulsbo,Regal,Poulsbo,WA,AAMGL, 47.74421,-122.65560,97
Regal South Hill Cinema,Regal,Puyallup,WA,AACDG, 47.15833,-122.29783,97
Regal Longston Place,Regal,Puyallup,WA,AAMUR, 47.13520,-122.29160,97
Regal Bella Bottega,Regal,Redmond,WA,AABSR, 47.68080,-122.12298,97
Regal The Landing,Regal,Renton,WA,AAUYZ, 47.49803,-122.20340,97
Regal Thornton Place ScreenX & IMAX,Regal,Seattle,WA,AAVIY, 47.70275,-122.32510,97
Regal Meridian & 4DX,Regal,Seattle,WA,AABFY, 47.61180,-122.33220,97
Regal Northtown Mall,Regal,Spokane,WA,AAOZV, 47.70140,-117.40990,97
Regal Spokane Valley,Regal,Spokane Valley,WA,AADRG, 47.67710,-117.20560,97
Regal Cinema 99,Regal,Vancouver,WA,AAJML, 45.68758,-122.66200,97
Regal City Center,Regal,Vancouver,WA,AAJMM, 45.62722,-122.66920,97
Regal Vancouver Plaza,Regal,Vancouver,WA,AAAQF, 45.64710,-122.59190,97
Regal Cascade IMAX & RPX,Regal,Vancouver,WA,AAJMN, 45.61258,-122.50670,97
Regal Nitro,Regal,Nitro,WV,AATST, 38.41790, -81.83080,97
Regal Grand Central Mall,Regal,Vienna,WV,AAEQN, 39.32540, -81.54330,97
Regal Fox Theater,Regal,Laramie,WY,AAWSK, 41.30804,-105.56900,97
Regency Main Street Cinemas,Regency Theatres,Yuma,AZ,AAXLV, 32.72520,-114.61810,98
Regency Foothill Center 10,Regency Theatres,Azusa,CA,AABIN, 34.12910,-117.89140,98
Regency Calabasas Commons,Regency Theatres,Calabasas,CA,AAKTZ, 34.15301,-118.64600,98
Regency Commerce 14,Regency Theatres,City Of Commerce,CA,AADJZ, 34.01840,-118.15330,98
Regency Granada Hills 9,Regency Theatres,Granada Hills,CA,AAVTL, 34.25740,-118.49890,98
Regency Theatres Director's Cut Cinema & DCX,Regency Theatres,Laguna Niguel,CA,AAQEX, 33.55630,-117.68390,98
Regency Blvd Cinemas,Regency Theatres,Lancaster,CA,AAWZG, 34.69750,-118.14340,98
Regency Towngate Cinemas,Regency Theatres,Moreno Valley,CA,AAUNY, 33.93680,-117.26070,98
Regency Academy 6 Theater,Regency Theatres,Pasadena,CA,AADWN, 34.14600,-118.12880,98
Regency Theatres San Juan Capistrano,Regency Theatres,San Juan Capistrano,CA,AAVZN, 33.50111,-117.66330,98
Regency Santa Paula 7,Regency Theatres,Santa Paula,CA,AAUSO, 34.34620,-119.08240,98
Regency Van Nuys Plant 16,Regency Theatres,Van Nuys,CA,AAWJQ, 34.21420,-118.44870,98
Regency Westminster 10,Regency Theatres,Westminster,CA,AAWWD, 33.75910,-118.01040,98
Regency Kihei Cinemas,Regency Theatres,Kihei,HI,AAYKY, 20.73483,-156.45250,98
Southwest Theaters Turtle Creek 9,Regency Theatres,Hattiesburg,MS,AAXTN, 31.33072, -89.34990,98
Southwest Theaters Sawmill Square 5,Regency Theatres,Laurel,MS,AAJUF, 31.69341, -89.13330,98
Tropicana Cinemas,Regency Theatres,Las Vegas,NV,AARGR, 36.10078,-115.10517,98
Southwest Theaters Lake Creek 7,Regency Theatres,Austin,TX,AAXEA, 30.45880, -97.79250,98
Studio 10 Cinemas,Republic Theatres,Shelbyville,IN,AAREI, 39.52163, -85.75270,99
Franklin Square Cinema ,Republic Theatres,Frankfort,KY,AAKLH, 38.16778, -84.89641,99
Pierce Point Cinema,Republic Theatres,Amelia,OH,AAUZH, 39.04670, -84.24835,99
Bellefontaine 8 Cinemas,Republic Theatres,Bellefontaine,OH,AAKKU, 40.36454, -83.73768,99
Colony Square 7 Cinemas,Republic Theatres,Lebanon,OH,AALGY, 39.43444, -84.19222,99
Centre Cinemas,Republic Theatres,Marion,OH,AAWQG, 40.56237, -83.12193,99
Portsmouth Cinemas,Republic Theatres,Portsmouth,OH,AATNZ, 38.74628, -82.99390,99
Wilmington Plaza Cinema 5,Republic Theatres,Wilmington,OH,AAKMJ, 39.44730, -83.80654,99
RoadHouse Cinemas Scottsdale,RoadHouse Cinemas,Scottsdale,AZ,AAXWK, 33.54140,-111.88540,100
RoadHouse Cinemas Crossroads,RoadHouse Cinemas,Tucson,AZ,AAXJI, 32.25070,-110.89040,100
Roadhouse Cinemas - Colorado Springs,RoadHouse Cinemas,Colorado Springs,CO,AAYTG, 38.87512,-104.81970,100
Roxy Theatre,Roxy Theatre,Bremerton,WA,AAYIT, 47.56603,-122.62610,101
Rutgers Cinema,Rutgers Cinema,Piscataway,NJ,AAXYB, 40.52550, -74.43720,102
Roxy Stadium 11,SR Entertainment Group,Camarillo,CA,AABKU, 34.21590,-119.00340,103
Sierra Vista Cinemas 16,SR Entertainment Group,Clovis,CA,AAUGV, 36.80840,-119.69340,103
Lodi Stadium 12,SR Entertainment Group,Lodi,CA,AAPWH, 38.13560,-121.27250,103
Plaza Cinemas 14,SR Entertainment Group,Oxnard,CA,AATSC, 34.19770,-119.17910,103
Airport Stadium 12,SR Entertainment Group,Santa Rosa,CA,AAIUA, 38.51270,-122.78050,103
AmStar 14 - Alabaster,Santikos Theaters,Alabaster,AL,AATYP, 33.23889, -86.80179,104
AmStar 12 - Oxford,Santikos Theaters,Oxford,AL,AAPPF, 33.61370, -85.82750,104
AmStar 12 - Lake Mary,Santikos Theaters,Lake Mary,FL,AARDH, 28.78975, -81.35603,104
The Grand 16 - Pier Park,Santikos Theaters,Panama City,FL,AAUJW, 30.21715, -85.87489,104
AmStar 16 - Macon,Santikos Theaters,Macon,GA,AAOLY, 32.87820, -83.76249,104
The Grand 16 - Alexandria,Santikos Theaters,Alexandria,LA,AATCM, 31.27710, -92.45360,104
The Grand 16 - Lafayette,Santikos Theaters,Lafayette,LA,AATLH, 30.20330, -92.04860,104
The Grand 14 - Ambassador,Santikos Theaters,Lafayette,LA,AAVLL, 30.15856, -92.04355,104
The Grand 16 - Slidell,Santikos Theaters,Slidell,LA,AAUGY, 30.30043, -89.81001,104
The Grand 18 - D Iberville,Santikos Theaters,D'lberville,MS,AATLI, 30.45531, -88.88864,104
The Grand 18 - Hattiesburg,Santikos Theaters,Hattiesburg,MS,AATSL, 31.33082, -89.34993,104
AmStar 18 - Four Seasons Station,Santikos Theaters,Greensboro,NC,AAUQR, 36.03722, -79.84386,104
AmStar 14 - Mooresville,Santikos Theaters,Mooresville,NC,AAOJU, 35.58734, -80.85735,104
The Grand 18 - Winston-Salem,Santikos Theaters,Winston-Salem,NC,AAUFM, 36.17431, -80.27377,104
AmStar 14 - Anderson,Santikos Theaters,Anderson,SC,AAOUT, 34.55057, -82.68355,104
Santikos Cibolo,Santikos Theaters,Cibolo,TX,AAYPM, 29.60729, -98.26699,104
The Grand 14 - Conroe,Santikos Theaters,Conroe,TX,AATOF, 30.37300, -95.48760,104
The Grand 10 - Ft. Bliss,Santikos Theaters,Fort Bliss,TX,AAWFP, 31.81758,-106.42690,104
Santikos Entertainment New Braunfels,Santikos Theaters,New Braunfels,TX,AAXDZ, 29.69711, -98.10232,104
Santikos Palladium IMAX,Santikos Theaters,San Antonio,TX,AAUHA, 29.60831, -98.59910,104
Santikos Casa Blanca,Santikos Theaters,San Antonio,TX,AAXWH, 29.48670, -98.71590,104
Santikos Galaxy,Santikos Theaters,San Antonio,TX,AAPQB, 29.51570, -98.40540,104
Santikos Northwest 14,Santikos Theaters,San Antonio,TX,AAPQA, 29.50547, -98.55219,104
Santikos Silverado,Santikos Theaters,San Antonio,TX,AAQTN, 29.55244, -98.67144,104
Santikos Mayan Palace 14,Santikos Theaters,San Antonio,TX,AAPQE, 29.35630, -98.52290,104
Santikos Entertainment Westlakes,Santikos Theaters,San Antonio,TX,AASWK, 29.42600, -98.65320,104
Bryan Theatre,Saunders Theater Group,Bryan,OH,AAKJU, 41.47386, -84.55252,105
Field of Dreams Drive-In,Saunders Theater Group,Liberty Center,OH,AAUTZ, 41.48119, -83.97882,105
Van-Del Drive-In,Saunders Theater Group,Middle Point ,OH,AANEU, 40.86930, -84.43758,105
Van Wert Cinemas,Saunders Theater Group,Van Wert,OH,AAYVD, 40.87593, -84.61553,105
Gilford Cinema 8,Scene One Entertainment,Gilford,NH,AAFXM, 43.56603, -71.42995,106
Scene One Spectrum 8 Theatre,Scene One Entertainment,Albany,NY,AAGIL, 42.64299, -73.77641,106
Scene One Wilton Mall Cinemas & The Big Scene,Scene One Entertainment,Saratoga Springs,NY,AAXCH, 43.10226, -73.73786,106
BTM CINEMAS MOVIELAND 6,Scene One Entertainment,Schenectady,NY,AAUMN, 42.81320, -73.94240,106
Film Alley Bastrop,Schulman Theatres,Bastrop,TX,AAWXW, 30.11070, -97.30900,107
Film Alley Georgetown,Schulman Theatres,Georgetown,TX,AAUHC, 30.64615, -97.69265,107
Film Alley Longview,Schulman Theatres,Longview,TX,AATVZ, 32.54570, -94.72370,107
City Lights Mt. Pleasant,Schulman Theatres,Mt Pleasant,TX,AAKNA, 33.13781, -94.97115,107
City Lights Palestine,Schulman Theatres,Palestine,TX,AAJZU, 31.77140, -95.62860,107
Film Alley Terrell 8,Schulman Theatres,Terrell,TX,AAYOI, 32.71710, -96.32740,107
Film Alley Weatherford 8,Schulman Theatres,Weatherford,TX,AAYGH, 32.73330, -97.78150,107
Showplace Cinemas Harrisburg 9,Showplace Cinemas,Harrisburg,IL,AAYIP, 37.74760, -88.52560,108
Showtime Cinemas Connersville 8,Showplace Cinemas,Connersville,IN,AAUUP, 39.66130, -85.12900,108
Showplace Cinemas East 20,Showplace Cinemas,Evansville,IN,AAKMG, 37.99260, -87.49610,108
Showplace Cinema North 9,Showplace Cinemas,Evansville,IN,AAKMI, 38.01480, -87.57860,108
Jasper 8,Showplace Cinemas,Jasper,IN,AAKTF, 38.38533, -86.92950,108
Showplace Cinemas Newburgh 10,Showplace Cinemas,Newburgh,IN,AAJYE, 37.97420, -87.40130,108
Showplace Cinemas Princeton 8,Showplace Cinemas,Princeton,IN,AAWJK, 38.35550, -87.60620,108
Showplace Seymour,Showplace Cinemas,Seymour,IN,AANZC, 38.96323, -85.83995,108
Showplace Cinemas Henderson 8,Showplace Cinemas,Henderson,KY,AAWGX, 37.82820, -87.55320,108
Silverspot Cinema Coconut Creek 11,Silverspot Cinemas,Coconut Creek,FL,AAXOX, 26.28291, -80.18873,109
Silverspot Cinema at the Battery,Silverspot Cinemas,Atlanta,GA,AAYVG, 33.88691, -84.47221,109
Silverspot Cinema Chapel Hill 13,Silverspot Cinemas,Chapel Hill,NC,AAXSG, 35.92770, -79.02720,109
Silverspot Cinema Pinecrest,Silverspot Cinemas,Beachwood,OH,AAYKM, 41.45540, -81.48580,109
Silverspot Cinema Corners,Silverspot Cinemas,Brookfield ,WI,AAYQD, 43.03509, -88.16284,109
Eastgate Cinemas,Southeast Cinemas,Albemarle,NC,AAGKB, 35.34720, -80.16867,110
Alamance Crossing Stadium 16,Southeast Cinemas,Burlington,NC,AAUYE, 36.07000, -79.51030,110
Ayrsley Grand Cinemas,Southeast Cinemas,Charlotte,NC,AAUDH, 35.13924, -80.93221,110
Carolina Mall Cinemas,Southeast Cinemas,Concord,NC,AAGKD, 35.44050, -80.60580,110
Surf Cinemas,Southeast Cinemas,Southport,NC,AAKWH, 33.94806, -78.05117,110
Citadel Mall Stadium 16,Southeast Cinemas,Charleston,SC,AAVQS, 32.79210, -80.03110,110
Northridge Cinema 10,Southeast Cinemas,Hilton Head Island,SC,AAKIQ, 32.21699, -80.70351,110
Northwoods Stadium Cinema,Southeast Cinemas,North Charleston,SC,AAWFF, 32.94220, -80.04130,110
Governor's Crossing 14,Southeast Cinemas,Sevierville,TN,AAXSX, 35.83969, -83.56719,110
Twin County Cinemas,Southeast Cinemas,Galax,VA,AAKSR, 36.66360, -80.92230,110
St. Michael Cinema,St. Michael Cinema,Saint Michael,MN,AAXPN, 45.21010, -93.65400,111
Dos Lagos 15 Theatres,Starlight Cinemas,Corona,CA,AAWDK, 33.81393,-117.50960,112
Triangle Square Cinemas,Starlight Cinemas,Costa Mesa,CA,AAWBH, 33.64288,-117.91810,112
West Grove Cinemas,Starlight Cinemas,Garden Grove,CA,AAFZH, 33.78712,-118.02940,112
Starlight Lakewood Center ,Starlight Cinemas,Lakewood,CA,AADKD, 33.85180,-118.13600,112
Starlight Terra Vista 6,Starlight Cinemas,Rancho Cucamonga,CA,AAURM, 34.10960,-117.57000,112
Terrace Cinemas,Starlight Cinemas,Rancho Palos Verdes,CA,AAVVC, 33.75520,-118.30980,112
Whittier Village Stadium Cinemas,Starlight Cinemas,Whittier,CA,AADWX, 33.97870,-118.03630,112
Stone Theatres Millstone 14 Cinemas,Stone Theatres,Fayetteville,NC,AAVSD, 35.00120, -78.93920,113
Stone Theatres Sun Valley 14 Cinemas,Stone Theatres,Indian Trail,NC,AAWRN, 35.06813, -80.67877,113
Stone Theatres The Pointe 14 Cinemas,Stone Theatres,Wilmington,NC,AAYDD, 34.17990, -77.91670,113
Stone Theatres Redstone 14 Cinemas,Stone Theatres,Indian Land,SC,AAYJC, 34.99890, -80.85260,113
Stone Theatres Grand 14 at The Market Common,Stone Theatres,Myrtle Beach,SC,AAUYC, 33.67024, -78.93851,113
Studio Movie Grill Bakersfield,Studio Movie Grill,Bakersfield,CA,AAYIJ, 35.38506,-119.11210,114
Studio Movie Grill Rocklin,Studio Movie Grill,Rocklin,CA,AAXKR, 38.80720,-121.21400,114
Studio Movie Grill Simi Valley,Studio Movie Grill,Simi Valley,CA,AAXRC, 34.28280,-118.77090,114
Studio Movie Grill Sunset Walk,Studio Movie Grill,Kissimmee,FL,AAYNX, 28.34374, -81.61327,114
Studio Movie Grill Seminole,Studio Movie Grill,Seminole,FL,AAYFR, 27.84190, -82.79540,114
Studio Movie Grill North Point,Studio Movie Grill,Alpharetta,GA,AADCC, 34.04000, -84.30580,114
Studio Movie Grill - Duluth,Studio Movie Grill,Duluth,GA,AAWVH, 33.95190, -84.13770,114
Studio Movie Grill Marietta,Studio Movie Grill,Marietta,GA,AAYFS, 33.94990, -84.51220,114
Studio Movie Grill Wheaton,Studio Movie Grill,Wheaton,IL,AAWRW, 41.82910, -88.09890,114
Studio Movie Grill Arlington Lincoln Square,Studio Movie Grill,Arlington,TX,AAYAC, 32.75730, -97.09890,114
Studio Movie Grill - Arlington,Studio Movie Grill,Arlington,TX,AAUHO, 32.68215, -97.10927,114
Studio Movie Grill-Dallas,Studio Movie Grill,Dallas,TX,AAUTC, 32.90030, -96.76860,114
Studio Movie Grill Spring Valley,Studio Movie Grill,Dallas,TX,AAWUP, 32.93888, -96.75085,114
Studio Movie Grill Chisholm Trail Ranch,Studio Movie Grill,Fort Worth,TX,AAYSW, 32.60390, -97.40700,114
Studio Movie Grill Pearland,Studio Movie Grill,Houston,TX,AAXVD, 29.59980, -95.26820,114
Studio Movie Grill Plano,Studio Movie Grill,Plano,TX,AABED, 33.02680, -96.78870,114
Studio Movie Grill The Colony,Studio Movie Grill,The Colony,TX,AAXPS, 33.06694, -96.88357,114
Studio Movie Grill Tyler,Studio Movie Grill,Tyler,TX,AAXNV, 32.25620, -95.30800,114
Galleria 6 Cinemas,Texas Movie Bistro,St. Louis,MO,AAQEY, 38.63770, -90.34550,115
Chase Park Plaza Cinemas,Texas Movie Bistro,St. Louis,MO,AAMSJ, 38.64420, -90.26440,115
Texas Movie Bistro,Texas Movie Bistro,Lake Worth,TX,AAPCX, 32.81230, -97.41971,115
The Culver Theater,The Culver Theater,Culver City,CA,AAQYS, 34.02345,-118.39395,116
The Frida Cinema,The Frida Cinema,Santa Ana,CA,AAXFR, 33.74815,-117.86525,117
The Reel Harbor Theater,The Reel Harbor Theater,Scituate,MA,AARPJ, 42.19505, -70.72440,119
The Springs Cinema & Taphouse,The Spring Cinemas and Taphouse,Atlanta,GA,AAQCO, 33.91668, -84.38177,120
Royal 3 Cinema,Three Rau's Entertainment,Le Mars,IA,AAJVE, 42.79235, -96.16648,121
Legacy 3 Theatre,Three Rau's Entertainment,Shenandoah,IA,AATDH, 40.76580, -95.37400,121
Fremont Theaters,Three Rau's Entertainment,Fremont,NE,AAJTB, 41.45150, -96.48790,121
Temeku Cinemas Temecula,Tristone,Temecula,CA,AAHPM, 33.51960,-117.15970,123
UEC Theatres Russellville,UEC Theatres,Russellville,AR,AAWLC, 35.29190, -93.16700,124
UEC Theatres Diamond 8,UEC Theatres,Lake Elsinore,CA,AAEHH, 33.65300,-117.29780,124
UEC Theatre Bedford,UEC Theatres,Bedford,IN,AAQSC, 38.84500, -86.51620,124
UEC Theatres Hillsdale,UEC Theatres,Hillsdale,MI,AAKNK, 41.94040, -84.65200,124
UEC Theatres Hollywood ,UEC Theatres,Starkville,MS,AAQOK, 33.44900, -88.84900,124
UEC Theatres Goldsboro,UEC Theatres,Goldsboro,NC,AATPX, 35.39800, -77.97100,124
UEC Theatres Kinston,UEC Theatres,Kinston,NC,AAQSD, 35.26330, -77.65340,124
UEC Theatres Rocky Mount,UEC Theatres,Rocky Mount,NC,AAOUX, 35.96700, -77.80700,124
UEC Theatres Elko Cinema 6,UEC Theatres,Elko,NV,AAPUL, 40.83520,-115.79440,124
UEC Theatres Cambridge,UEC Theatres,Cambridge,OH,AAPXA, 40.00730, -81.57650,124
UEC Theatres Celina Cinema 5,UEC Theatres,Celina,OH,AAKLC, 40.54900, -84.57200,124
UEC Theaters Mt Vernon,UEC Theatres,Mount Vernon,OH,AAPHK, 40.40070, -82.44060,124
UEC Theatres Norwalk,UEC Theatres,Norwalk,OH,AAUVA, 41.27050, -82.60700,124
UEC Theatres Springfield,UEC Theatres,Springfield,OH,AAKLX, 39.92200, -83.76100,124
UEC Theatres State College,UEC Theatres,State College,PA,AASVH, 40.84000, -77.80300,124
UEC Theatres College 9,UEC Theatres,State College,PA,AAUUD, 40.81000, -77.92860,124
UEC Theatres Lebanon Roxy,UEC Theatres,Lebanon,TN,AATOB, 36.18700, -86.29400,124
UEC Theatres Cleveland,UEC Theatres,McDonald,TN,AATPY, 35.15210, -84.95440,124
UEC Theatres Syracuse,UEC Theatres,Syracuse,UT,AAUYI, 41.09010,-112.07500,124
UltraStar Mission Valley,UltraStar Cinemas,San Diego,CA,AAABD, 32.77090,-117.15900,125
VIP Star-Lite Drive-In,VIP Cinemas,Newton,AL,AATKQ, 31.24240, -85.62320,126
VIP Shadowood 16,VIP Cinemas,Boca Raton,FL,AAEKR, 26.36970, -80.20090,126
VIP PC Cinemas,VIP Cinemas,Panama City,FL,AALKW, 30.18743, -85.64769,126
VIP Fieldstone 6,VIP Cinemas,Hiawassee,GA,AAYSY, 34.96621, -83.81564,126
VIP Carbondale 8,VIP Cinemas,Carbondale,IL,AAQZK, 37.73172, -89.19085,126
VIP Lincoln Grand,VIP Cinemas,Lincoln,IL,AALRC, 40.14560, -89.36436,126
VIP Rialto Cinemas,VIP Cinemas,Macomb,IL,AAYLJ, 40.45672, -90.65120,126
VIP Moline 14,VIP Cinemas,Moline,IL,AATRO, 41.46910, -90.48550,126
VIP Morton Cinemas,VIP Cinemas,Morton,IL,AAMXR, 40.58784, -89.47707,126
VIP Roxy Cinemas,VIP Cinemas,Ottawa,IL,AALRV, 41.34866, -88.84303,126
VIP Quincy 3,VIP Cinemas,Quincy,IL,AAJDL, 39.93689, -91.36327,126
VIP Legacy 9,VIP Cinemas,Greenfield,IN,AAIIS, 39.78220, -85.80650,126
VIP Majestic 4,VIP Cinemas,Concordia,KS,AAVOF, 39.57150, -97.66170,126
VIP Lake West Cinemas,VIP Cinemas,Gravois Mills,MO,AAPWA, 38.22404, -92.79750,126
VIP Cannonball 6,VIP Cinemas,Lexington,MO,AATOE, 39.18450, -93.88210,126
Warehouse Cinemas - Rotunda,Warehouse Cinemas,Baltimore,MD,AABOT, 39.33530, -76.63031,127
Warehouse Cinemas Frederick,Warehouse Cinemas,Frederick,MD,AAECX, 39.42145, -77.45613,127
Warehouse Cinemas Leitersburg,Warehouse Cinemas,Hagerstown,MD,AAWEB, 39.68385, -77.66838,127
Santa Cruz Cinema,West Wind Theaters,Santa Cruz,CA,AAKEI, 36.97490,-122.02655,128
Westown Movies,Westown Movies,Middletown,DE,AAXEE, 39.44464, -75.74059,129
Milford Movies 9,Westown Movies,Milford,DE,AAYUE, 38.93307, -75.43384,129
Xscape Theatres Riverview 14,Xscape Theatres,Riverview,FL,AAYAH, 27.89321, -82.34634,130
Xscape Theatres Jeffersonville 12,Xscape Theatres,Jeffersonville,IN,AAYVJ, 38.34633, -85.69686,130
Xscape Theatres Blankenbaker 16,Xscape Theatres,Louisville,KY,AAXQZ, 38.22240, -85.53120,130
Xscape Theatres Brandywine 14,Xscape Theatres,Brandywine,MD,AAWZH, 38.67500, -76.87248,130
Xscape Theatres at 1488 Conroe,Xscape Theatres,Conroe,TX,AAYKL, 30.22604, -95.53998,130
Xscape Theatres at  Katy Fulshear 12,Xscape Theatres,Richmond,TX,AAYMA, 29.69746, -95.83778,130
YRC Cinemas,YRC Cinemas,Hayes,VA,AAPHN, 37.27386, -76.49660,131
Mansfield Movieplex,Zurich Cinemas,Mansfield Center,CT,AATNV, 41.76339, -72.20195,132
Hollywood Theatre,Zurich Cinemas,Mattydale,NY,AAJGI, 43.09890, -76.14580,132
Oneida Movieplex,Zurich Cinemas,Oneida,NY,AAJNX, 43.07508, -75.45811,132
Southside Mall Cinema,Zurich Cinemas,Oneonta,NY,AAKNU, 42.44759, -75.04490,132
Oswego Cinema,Zurich Cinemas,Oswego,NY,AAJNZ, 43.45565, -76.51251,132
Rome Cinemas,Zurich Cinemas,Rome,NY,AAJUW, 43.22470, -75.48620,132
theaters.csv,theaters.csv,theaters.csv,theaters.csv